[{"WEATHERDATA": [ {"STN":720358,"DATE":"2022-05-20", "TIME":"05:43:39", "TEMP":18.6, "DEWP":6.2, "STP":994.6, "SLP":998.2, "VISIB":16.6, "WDSP":21.0, "PRCP":0.00, "SNDP":0.0, "FRSHTT":"000000", "CLDC":0.1, "WNDDIR":109},{ "STN":702759,"DATE":"2022-05-20", "TIME":"05:43:39", "TEMP":12.0, "DEWP":8.6, "STP":1030.9, "SLP":1011.0, "VISIB":22.5, "WDSP":7.9, "PRCP":0.15, "SNDP":0.0, "FRSHTT":"010000", "CLDC":95.7, "WNDDIR":158},{ "STN":720367,"DATE":"2022-05-20", "TIME":"05:43:39", "TEMP":7.1, "DEWP":-0.6, "STP":988.2, "SLP":995.2, "VISIB":15.3, "WDSP":10.7, "PRCP":0.00, "SNDP":0.0, "FRSHTT":"000000", "CLDC":23.9, "WNDDIR":316},{ "STN":720366,"DATE":"2022-05-20", "TIME":"05:43:39", "TEMP":8.3, "DEWP":-0.9, "STP":1015.1, "SLP":1035.7, "VISIB":15.3, "WDSP":5.0, "PRCP":0.00, "SNDP":0.0, "FRSHTT":"000000", "CLDC":22.8, "WNDDIR":239},{ "STN":720368,"DATE":"2022-05-20", "TIME":"05:43:39", "TEMP":6.9, "DEWP":2.9, "STP":1022.9, "SLP":1029.5, "VISIB":16.5, "WDSP":18.9, "PRCP":0.00, "SNDP":0.0, "FRSHTT":"000000", "CLDC":39.6, "WNDDIR":327},{ "STN":720369,"DATE":"2022-05-20", "TIME":"05:43:39", "TEMP":5.3, "DEWP":-5.9, "STP":1040.9, "SLP":1010.9, "VISIB":15.6, "WDSP":12.6, "PRCP":0.00, "SNDP":0.0, "FRSHTT":"000000", "CLDC":64.9, "WNDDIR":121},{ "STN":121160,"DATE":"2022-05-20", "TIME":"05:43:39", "TEMP":5.0, "DEWP":-0.4, "STP":1020.2, "SLP":1016.8, "VISIB":16.8, "WDSP":21.3, "PRCP":0.00, "SNDP":0.0, "FRSHTT":"000000", "CLDC":39.9, "WNDDIR":165},{ "STN":720371,"DATE":"2022-05-20", "TIME":"05:43:39", "TEMP":2.6, "DEWP":-6.3, "STP":985.8, "SLP":959.9, "VISIB":15.8, "WDSP":7.6, "PRCP":0.00, "SNDP":0.0, "FRSHTT":"000000", "CLDC":54.6, "WNDDIR":187},{ "STN":157120,"DATE":"2022-05-20", "TIME":"05:43:39", "TEMP":11.8, "DEWP":5.0, "STP":989.4, "SLP":1013.2, "VISIB":23.7, "WDSP":7.2, "PRCP":0.13, "SNDP":0.0, "FRSHTT":"010000", "CLDC":62.1, "WNDDIR":316},{ "STN":702770,"DATE":"2022-05-20", "TIME":"05:43:39", "TEMP":4.0, "DEWP":-1.1, "STP":1013.6, "SLP":1013.3, "VISIB":22.3, "WDSP":14.3, "PRCP":0.03, "SNDP":0.0, "FRSHTT":"010000", "CLDC":91.9, "WNDDIR":92}]}
,{"WEATHERDATA": [ {"STN":943120,"DATE":"2022-05-20", "TIME":"05:43:48", "TEMP":12.0, "DEWP":-1.5, "STP":1012.2, "SLP":1011.8, "VISIB":26.3, "WDSP":14.4, "PRCP":0.03, "SNDP":0.0, "FRSHTT":"010000", "CLDC":86.2, "WNDDIR":17},{ "STN":543424,"DATE":"2022-05-20", "TIME":"05:43:48", "TEMP":10.6, "DEWP":0.9, "STP":994.7, "SLP":994.3, "VISIB":9.4, "WDSP":15.4, "PRCP":0.00, "SNDP":0.0, "FRSHTT":"000000", "CLDC":39.4, "WNDDIR":358},{ "STN":405860,"DATE":"2022-05-20", "TIME":"05:43:48", "TEMP":21.8, "DEWP":16.8, "STP":979.0, "SLP":1007.7, "VISIB":34.8, "WDSP":9.5, "PRCP":0.00, "SNDP":0.0, "FRSHTT":"000000", "CLDC":61.6, "WNDDIR":140},{ "STN":115190,"DATE":"2022-05-20", "TIME":"05:43:48", "TEMP":5.8, "DEWP":4.9, "STP":982.6, "SLP":1013.0, "VISIB":15.3, "WDSP":9.0, "PRCP":0.41, "SNDP":0.0, "FRSHTT":"010000", "CLDC":59.7, "WNDDIR":296},{ "STN":467560,"DATE":"2022-05-20", "TIME":"05:43:48", "TEMP":13.1, "DEWP":10.0, "STP":1014.8, "SLP":1009.8, "VISIB":8.4, "WDSP":11.7, "PRCP":0.04, "SNDP":0.0, "FRSHTT":"010000", "CLDC":50.3, "WNDDIR":359},{ "STN":344150,"DATE":"2022-05-20", "TIME":"05:43:48", "TEMP":9.0, "DEWP":0.5, "STP":1013.3, "SLP":1015.0, "VISIB":34.6, "WDSP":6.8, "PRCP":0.02, "SNDP":0.0, "FRSHTT":"010000", "CLDC":50.2, "WNDDIR":19},{ "STN":467610,"DATE":"2022-05-20", "TIME":"05:43:48", "TEMP":15.4, "DEWP":12.9, "STP":1011.3, "SLP":1009.1, "VISIB":27.7, "WDSP":9.8, "PRCP":0.05, "SNDP":0.0, "FRSHTT":"010000", "CLDC":50.4, "WNDDIR":43},{ "STN":766580,"DATE":"2022-05-20", "TIME":"05:43:48", "TEMP":20.3, "DEWP":8.8, "STP":971.4, "SLP":1008.4, "VISIB":14.6, "WDSP":11.7, "PRCP":0.00, "SNDP":0.0, "FRSHTT":"000000", "CLDC":24.1, "WNDDIR":23},{ "STN":163200,"DATE":"2022-05-20", "TIME":"05:43:48", "TEMP":13.7, "DEWP":9.0, "STP":1014.5, "SLP":1014.9, "VISIB":10.1, "WDSP":12.3, "PRCP":0.02, "SNDP":0.0, "FRSHTT":"010000", "CLDC":85.8, "WNDDIR":136},{ "STN":84100,"DATE":"2022-05-20", "TIME":"05:43:48", "TEMP":12.9, "DEWP":1.7, "STP":1013.8, "SLP":1016.1, "VISIB":15.3, "WDSP":9.1, "PRCP":0.01, "SNDP":0.0, "FRSHTT":"010000", "CLDC":50.0, "WNDDIR":191}]}
,{"WEATHERDATA": [ {"STN":313110,"DATE":"2022-05-20", "TIME":"05:51:02", "TEMP":-0.7, "DEWP":-10.6, "STP":1017.2, "SLP":1008.5, "VISIB":50.0, "WDSP":6.9, "PRCP":0.13, "SNDP":0.0, "FRSHTT":"110000", "CLDC":89.7, "WNDDIR":219},{ "STN":607480,"DATE":"2022-05-20", "TIME":"05:51:02", "TEMP":13.9, "DEWP":1.0, "STP":974.7, "SLP":1015.0, "VISIB":14.8, "WDSP":11.4, "PRCP":0.00, "SNDP":0.0, "FRSHTT":"000000", "CLDC":62.4, "WNDDIR":57},{ "STN":718960,"DATE":"2022-05-20", "TIME":"05:51:02", "TEMP":4.8, "DEWP":-2.9, "STP":932.5, "SLP":1013.6, "VISIB":63.6, "WDSP":8.2, "PRCP":0.04, "SNDP":0.0, "FRSHTT":"010000", "CLDC":50.6, "WNDDIR":138},{ "STN":70030,"DATE":"2022-05-20", "TIME":"05:51:02", "TEMP":10.6, "DEWP":8.1, "STP":1002.1, "SLP":1001.1, "VISIB":9.7, "WDSP":16.1, "PRCP":0.00, "SNDP":0.0, "FRSHTT":"000000", "CLDC":35.8, "WNDDIR":17},{ "STN":35590,"DATE":"2022-05-20", "TIME":"05:51:02", "TEMP":5.7, "DEWP":1.7, "STP":1012.5, "SLP":1015.0, "VISIB":16.6, "WDSP":14.8, "PRCP":0.04, "SNDP":0.0, "FRSHTT":"010000", "CLDC":50.9, "WNDDIR":166},{ "STN":841390,"DATE":"2022-05-20", "TIME":"05:51:02", "TEMP":6.3, "DEWP":-1.8, "STP":755.1, "SLP":757.2, "VISIB":16.3, "WDSP":5.0, "PRCP":0.00, "SNDP":0.0, "FRSHTT":"000000", "CLDC":61.2, "WNDDIR":103},{ "STN":122050,"DATE":"2022-05-20", "TIME":"05:51:02", "TEMP":7.2, "DEWP":0.8, "STP":1013.2, "SLP":1016.4, "VISIB":18.0, "WDSP":13.9, "PRCP":0.02, "SNDP":0.0, "FRSHTT":"010000", "CLDC":63.9, "WNDDIR":346},{ "STN":381980,"DATE":"2022-05-20", "TIME":"05:51:02", "TEMP":9.5, "DEWP":-7.0, "STP":1005.8, "SLP":1013.7, "VISIB":41.4, "WDSP":13.2, "PRCP":0.00, "SNDP":0.0, "FRSHTT":"000000", "CLDC":54.9, "WNDDIR":224},{ "STN":70020,"DATE":"2022-05-20", "TIME":"05:51:02", "TEMP":9.0, "DEWP":5.5, "STP":1000.5, "SLP":1014.0, "VISIB":16.2, "WDSP":17.4, "PRCP":0.01, "SNDP":0.0, "FRSHTT":"010000", "CLDC":86.4, "WNDDIR":83},{ "STN":703650,"DATE":"2022-05-20", "TIME":"05:51:02", "TEMP":4.1, "DEWP":2.4, "STP":1010.1, "SLP":1013.8, "VISIB":24.1, "WDSP":19.1, "PRCP":0.00, "SNDP":0.0, "FRSHTT":"000000", "CLDC":59.7, "WNDDIR":127}]}
,{"WEATHERDATA": [ {"STN":722270,"DATE":"2022-05-20", "TIME":"05:51:06", "TEMP":3.9, "DEWP":4.2, "STP":996.5, "SLP":1016.1, "VISIB":12.6, "WDSP":12.3, "PRCP":0.09, "SNDP":0.0, "FRSHTT":"010000", "CLDC":50.3, "WNDDIR":194},{ "STN":711450,"DATE":"2022-05-20", "TIME":"05:51:06", "TEMP":3.1, "DEWP":-4.0, "STP":986.0, "SLP":1015.2, "VISIB":20.7, "WDSP":14.0, "PRCP":0.06, "SNDP":0.0, "FRSHTT":"010000", "CLDC":51.2, "WNDDIR":117},{ "STN":25890,"DATE":"2022-05-20", "TIME":"05:51:06", "TEMP":2.9, "DEWP":-2.2, "STP":1012.6, "SLP":1014.2, "VISIB":46.9, "WDSP":12.8, "PRCP":0.00, "SNDP": "None" , "FRSHTT":"000000", "CLDC":84.4, "WNDDIR":159},{ "STN":722265,"DATE":"2022-05-20", "TIME":"05:51:06", "TEMP":13.9, "DEWP":6.3, "STP":1014.3, "SLP":1015.5, "VISIB":24.1, "WDSP":8.3, "PRCP":0.08, "SNDP":0.0, "FRSHTT":"010000", "CLDC":50.1, "WNDDIR":148},{ "STN":95780,"DATE":"2022-05-20", "TIME":"05:51:06", "TEMP":5.1, "DEWP":1.7, "STP":966.9, "SLP":963.0, "VISIB":12.0, "WDSP":32.1, "PRCP":0.08, "SNDP":0.0, "FRSHTT":"010000", "CLDC":51.6, "WNDDIR":244},{ "STN":722267,"DATE":"2022-05-20", "TIME":"05:51:06", "TEMP":12.8, "DEWP":6.9, "STP":1012.3, "SLP":1015.5, "VISIB":13.4, "WDSP":12.8, "PRCP":0.06, "SNDP":0.0, "FRSHTT":"010000", "CLDC":52.4, "WNDDIR":170},{ "STN":722266,"DATE":"2022-05-20", "TIME":"05:51:06", "TEMP":12.7, "DEWP":6.5, "STP":1010.8, "SLP":1015.0, "VISIB":31.0, "WDSP":7.2, "PRCP":0.00, "SNDP":0.0, "FRSHTT":"000000", "CLDC":57.8, "WNDDIR":139},{ "STN":722210,"DATE":"2022-05-20", "TIME":"05:51:06", "TEMP":14.0, "DEWP":9.6, "STP":1013.6, "SLP":1015.9, "VISIB":16.0, "WDSP":9.8, "PRCP":0.02, "SNDP":0.0, "FRSHTT":"010000", "CLDC":93.5, "WNDDIR":324},{ "STN":722211,"DATE":"2022-05-20", "TIME":"05:51:06", "TEMP":14.5, "DEWP":-0.7, "STP":1006.5, "SLP":1010.5, "VISIB":17.6, "WDSP":20.6, "PRCP":0.00, "SNDP":0.0, "FRSHTT":"000000", "CLDC":51.5, "WNDDIR":242},{ "STN":722209,"DATE":"2022-05-20", "TIME":"05:51:06", "TEMP":18.9, "DEWP":9.6, "STP":983.3, "SLP":979.4, "VISIB":14.3, "WDSP":14.3, "PRCP":0.00, "SNDP":0.0, "FRSHTT":"000000", "CLDC":1.7, "WNDDIR":331}]}
,{"WEATHERDATA": [ {"STN":724075,"DATE":"2022-05-20", "TIME":"05:51:06", "TEMP":6.8, "DEWP":2.5, "STP":1014.6, "SLP":1015.3, "VISIB":11.2, "WDSP":12.1, "PRCP":0.11, "SNDP":0.0, "FRSHTT":"010000", "CLDC":51.2, "WNDDIR":211},{ "STN":724085,"DATE":"2022-05-20", "TIME":"05:51:06", "TEMP":8.7, "DEWP":2.4, "STP":1006.9, "SLP":997.6, "VISIB":13.2, "WDSP":13.2, "PRCP":0.03, "SNDP":0.0, "FRSHTT":"010000", "CLDC":50.2, "WNDDIR":180},{ "STN":80840,"DATE":"2022-05-20", "TIME":"05:51:06", "TEMP":10.5, "DEWP":2.4, "STP":977.2, "SLP":1017.1, "VISIB":12.1, "WDSP":13.1, "PRCP":0.03, "SNDP":0.0, "FRSHTT":"010000", "CLDC":50.4, "WNDDIR":79},{ "STN":479710,"DATE":"2022-05-20", "TIME":"05:51:06", "TEMP":13.1, "DEWP":10.0, "STP":1011.4, "SLP":1012.5, "VISIB":23.3, "WDSP":11.5, "PRCP":0.13, "SNDP":0.0, "FRSHTT":"010000", "CLDC":51.5, "WNDDIR":261},{ "STN":724086,"DATE":"2022-05-20", "TIME":"05:51:06", "TEMP":6.9, "DEWP":1.1, "STP":1003.0, "SLP":1016.6, "VISIB":8.8, "WDSP":6.0, "PRCP":0.10, "SNDP":0.0, "FRSHTT":"010000", "CLDC":51.0, "WNDDIR":273},{ "STN":724080,"DATE":"2022-05-20", "TIME":"05:51:06", "TEMP":6.6, "DEWP":1.2, "STP":1012.7, "SLP":1015.2, "VISIB":17.3, "WDSP":13.9, "PRCP":0.09, "SNDP":0.0, "FRSHTT":"010000", "CLDC":50.1, "WNDDIR":274},{ "STN":375450,"DATE":"2022-05-20", "TIME":"05:51:06", "TEMP":12.7, "DEWP":8.5, "STP":963.3, "SLP":1012.5, "VISIB":10.4, "WDSP":9.1, "PRCP":0.00, "SNDP":0.0, "FRSHTT":"000000", "CLDC":73.0, "WNDDIR":209},{ "STN":724093,"DATE":"2022-05-20", "TIME":"05:51:06", "TEMP":10.1, "DEWP":2.9, "STP":1003.5, "SLP":1010.7, "VISIB":15.5, "WDSP":9.4, "PRCP":0.16, "SNDP":0.0, "FRSHTT":"010000", "CLDC":64.4, "WNDDIR":242},{ "STN":569590,"DATE":"2022-05-20", "TIME":"05:51:06", "TEMP":18.0, "DEWP":12.6, "STP":1016.5, "SLP":1005.8, "VISIB":21.7, "WDSP":3.3, "PRCP":0.40, "SNDP":0.0, "FRSHTT":"010000", "CLDC":50.4, "WNDDIR":165},{ "STN":724095,"DATE":"2022-05-20", "TIME":"05:51:06", "TEMP":8.1, "DEWP":1.2, "STP":1006.1, "SLP":1008.9, "VISIB":14.6, "WDSP":13.1, "PRCP":0.07, "SNDP":0.0, "FRSHTT":"010000", "CLDC":51.0, "WNDDIR":352}]}
,{"WEATHERDATA": [ {"STN":718080,"DATE":"2022-05-20", "TIME":"05:51:06", "TEMP":-0.1, "DEWP":-4.1, "STP":1011.8, "SLP":1016.0, "VISIB":16.0, "WDSP":19.0, "PRCP":0.08, "SNDP":0.0, "FRSHTT":"110000", "CLDC":73.6, "WNDDIR":306},{ "STN":348380,"DATE":"2022-05-20", "TIME":"05:51:06", "TEMP":10.4, "DEWP":2.7, "STP":1009.2, "SLP":1015.0, "VISIB":17.2, "WDSP":10.5, "PRCP":0.04, "SNDP":0.0, "FRSHTT":"010000", "CLDC":50.0, "WNDDIR":351},{ "STN":471571,"DATE":"2022-05-20", "TIME":"05:51:06", "TEMP":11.3, "DEWP":4.9, "STP":1009.2, "SLP":1001.7, "VISIB":9.2, "WDSP":9.3, "PRCP":0.00, "SNDP":0.0, "FRSHTT":"000000", "CLDC":45.6, "WNDDIR":251},{ "STN":298650,"DATE":"2022-05-20", "TIME":"05:51:06", "TEMP":4.1, "DEWP":-9.8, "STP":1016.4, "SLP":1015.0, "VISIB":33.8, "WDSP":14.5, "PRCP":0.00, "SNDP":0.0, "FRSHTT":"000000", "CLDC":15.8, "WNDDIR":177},{ "STN":489170,"DATE":"2022-05-20", "TIME":"05:51:06", "TEMP":20.8, "DEWP":18.1, "STP":1011.3, "SLP":1009.0, "VISIB":17.6, "WDSP":10.2, "PRCP":0.15, "SNDP":0.0, "FRSHTT":"010000", "CLDC":50.1, "WNDDIR":302},{ "STN":547510,"DATE":"2022-05-20", "TIME":"05:51:06", "TEMP":10.9, "DEWP":5.3, "STP":1010.8, "SLP":1008.9, "VISIB":14.0, "WDSP":20.9, "PRCP":0.06, "SNDP":0.0, "FRSHTT":"010000", "CLDC":59.9, "WNDDIR":185},{ "STN":172100,"DATE":"2022-05-20", "TIME":"05:51:06", "TEMP":11.3, "DEWP":-1.9, "STP":908.3, "SLP":1006.9, "VISIB":20.2, "WDSP":2.5, "PRCP":0.00, "SNDP":0.0, "FRSHTT":"000000", "CLDC":4.8, "WNDDIR":344},{ "STN":298640,"DATE":"2022-05-20", "TIME":"05:51:06", "TEMP":2.7, "DEWP":-7.9, "STP":998.6, "SLP":1014.6, "VISIB":50.2, "WDSP":12.2, "PRCP":0.00, "SNDP":0.0, "FRSHTT":"000000", "CLDC":47.3, "WNDDIR":270},{ "STN":964910,"DATE":"2022-05-20", "TIME":"05:51:06", "TEMP":16.4, "DEWP":11.5, "STP":1007.4, "SLP":1008.9, "VISIB":24.5, "WDSP":7.4, "PRCP":0.09, "SNDP":0.0, "FRSHTT":"010000", "CLDC":73.1, "WNDDIR":254},{ "STN":718134,"DATE":"2022-05-20", "TIME":"05:51:06", "TEMP":2.2, "DEWP":-2.1, "STP":1029.0, "SLP":1019.5, "VISIB":17.5, "WDSP":13.9, "PRCP":0.00, "SNDP":0.0, "FRSHTT":"000000", "CLDC":77.8, "WNDDIR":133}]}
,{"WEATHERDATA": [ {"STN":475830,"DATE":"2022-05-20", "TIME":"05:51:06", "TEMP":8.2, "DEWP":-0.1, "STP":1004.6, "SLP":992.1, "VISIB":12.8, "WDSP":12.8, "PRCP":0.00, "SNDP":0.0, "FRSHTT":"000000", "CLDC":34.8, "WNDDIR":196},{ "STN":63200,"DATE":"2022-05-20", "TIME":"05:51:06", "TEMP":11.0, "DEWP":9.3, "STP":1014.1, "SLP":1040.0, "VISIB":9.3, "WDSP":15.4, "PRCP":0.00, "SNDP":0.0, "FRSHTT":"000000", "CLDC":56.0, "WNDDIR":338},{ "STN":32610,"DATE":"2022-05-20", "TIME":"05:51:06", "TEMP":7.1, "DEWP":3.4, "STP":1011.1, "SLP":1016.1, "VISIB":14.4, "WDSP":16.9, "PRCP":0.04, "SNDP":0.0, "FRSHTT":"010000", "CLDC":50.0, "WNDDIR":219},{ "STN":231210,"DATE":"2022-05-20", "TIME":"05:51:06", "TEMP":-8.4, "DEWP":-10.2, "STP":1015.1, "SLP":1016.7, "VISIB":17.8, "WDSP":27.9, "PRCP":0.00, "SNDP":7.3, "FRSHTT":"101000", "CLDC":50.6, "WNDDIR":303},{ "STN":275320,"DATE":"2022-05-20", "TIME":"05:51:06", "TEMP":6.7, "DEWP":-0.6, "STP":1005.0, "SLP":1014.3, "VISIB":11.3, "WDSP":13.2, "PRCP":0.02, "SNDP":0.0, "FRSHTT":"010000", "CLDC":50.5, "WNDDIR":356},{ "STN":106810,"DATE":"2022-05-20", "TIME":"05:51:06", "TEMP":4.9, "DEWP":1.6, "STP":1040.6, "SLP":1016.5, "VISIB":13.6, "WDSP":7.3, "PRCP":0.01, "SNDP":0.0, "FRSHTT":"010000", "CLDC":50.1, "WNDDIR":190},{ "STN":475820,"DATE":"2022-05-20", "TIME":"05:51:06", "TEMP":7.5, "DEWP":3.6, "STP":1010.1, "SLP":1010.3, "VISIB":20.0, "WDSP":13.9, "PRCP":0.16, "SNDP":0.0, "FRSHTT":"010000", "CLDC":58.5, "WNDDIR":240},{ "STN":63230,"DATE":"2022-05-20", "TIME":"05:51:06", "TEMP":7.5, "DEWP":1.7, "STP":1016.7, "SLP":1016.8, "VISIB":23.9, "WDSP":21.1, "PRCP":0.00, "SNDP":0.0, "FRSHTT":"000000", "CLDC":61.9, "WNDDIR":27},{ "STN":32635,"DATE":"2022-05-20", "TIME":"05:51:06", "TEMP":6.9, "DEWP":2.7, "STP":999.4, "SLP":1001.8, "VISIB":9.5, "WDSP":14.4, "PRCP":0.00, "SNDP":0.0, "FRSHTT":"000000", "CLDC":2.2, "WNDDIR":245},{ "STN":510760,"DATE":"2022-05-20", "TIME":"05:51:06", "TEMP":9.5, "DEWP":-6.7, "STP":953.5, "SLP":1013.3, "VISIB":31.6, "WDSP":11.5, "PRCP":0.01, "SNDP":0.0, "FRSHTT":"010000", "CLDC":51.4, "WNDDIR":266}]}
,{"WEATHERDATA": [ {"STN":724290,"DATE":"2022-05-20", "TIME":"05:51:06", "TEMP":9.3, "DEWP":2.3, "STP":980.9, "SLP":1015.1, "VISIB":13.1, "WDSP":12.6, "PRCP":0.08, "SNDP":0.0, "FRSHTT":"010000", "CLDC":50.3, "WNDDIR":177},{ "STN":984470,"DATE":"2022-05-20", "TIME":"05:51:06", "TEMP":18.0, "DEWP":15.2, "STP":985.1, "SLP":1011.0, "VISIB":25.6, "WDSP":12.8, "PRCP":0.00, "SNDP":0.0, "FRSHTT":"000000", "CLDC":1.2, "WNDDIR":226},{ "STN":724303,"DATE":"2022-05-20", "TIME":"05:51:06", "TEMP":5.2, "DEWP":0.2, "STP":1019.2, "SLP":1017.9, "VISIB":14.7, "WDSP":12.8, "PRCP":0.23, "SNDP":0.0, "FRSHTT":"010000", "CLDC":76.3, "WNDDIR":249},{ "STN":724296,"DATE":"2022-05-20", "TIME":"05:51:06", "TEMP":8.6, "DEWP":2.1, "STP":995.8, "SLP":1016.2, "VISIB":18.9, "WDSP":11.1, "PRCP":0.04, "SNDP":0.0, "FRSHTT":"010000", "CLDC":86.8, "WNDDIR":86},{ "STN":165500,"DATE":"2022-05-20", "TIME":"05:51:06", "TEMP":14.6, "DEWP":8.2, "STP":1001.5, "SLP":1014.2, "VISIB":14.2, "WDSP":11.1, "PRCP":0.07, "SNDP":0.0, "FRSHTT":"010000", "CLDC":50.0, "WNDDIR":104},{ "STN":724297,"DATE":"2022-05-20", "TIME":"05:51:06", "TEMP":11.3, "DEWP":3.9, "STP":1015.8, "SLP":1015.5, "VISIB":12.3, "WDSP":9.6, "PRCP":0.08, "SNDP":0.0, "FRSHTT":"010000", "CLDC":95.5, "WNDDIR":204},{ "STN":724298,"DATE":"2022-05-20", "TIME":"05:51:06", "TEMP":7.1, "DEWP":1.7, "STP":1007.3, "SLP":1017.7, "VISIB":15.9, "WDSP":18.0, "PRCP":0.03, "SNDP":0.0, "FRSHTT":"010000", "CLDC":50.0, "WNDDIR":112},{ "STN":724275,"DATE":"2022-05-20", "TIME":"05:51:06", "TEMP":7.6, "DEWP":2.7, "STP":1009.3, "SLP":1011.5, "VISIB":16.3, "WDSP":12.9, "PRCP":0.11, "SNDP":0.0, "FRSHTT":"010000", "CLDC":50.7, "WNDDIR":146},{ "STN":40970,"DATE":"2022-05-20", "TIME":"05:51:06", "TEMP":2.5, "DEWP":-0.2, "STP":1011.1, "SLP":1014.4, "VISIB":43.1, "WDSP":22.6, "PRCP":0.06, "SNDP":0.0, "FRSHTT":"010000", "CLDC":70.0, "WNDDIR":120},{ "STN":538680,"DATE":"2022-05-20", "TIME":"05:51:06", "TEMP":6.2, "DEWP":-8.1, "STP":1021.1, "SLP":1012.8, "VISIB":20.6, "WDSP":3.7, "PRCP":0.00, "SNDP":0.0, "FRSHTT":"000000", "CLDC":63.2, "WNDDIR":84}]}
,{"WEATHERDATA": [ {"STN":512880,"DATE":"2022-05-20", "TIME":"05:51:06", "TEMP":4.9, "DEWP":-9.7, "STP":833.9, "SLP":832.5, "VISIB":32.3, "WDSP":14.6, "PRCP":0.02, "SNDP":0.0, "FRSHTT":"010000", "CLDC":50.5, "WNDDIR":55},{ "STN":971200,"DATE":"2022-05-20", "TIME":"05:51:06", "TEMP":17.6, "DEWP":13.0, "STP":1006.1, "SLP":1009.4, "VISIB":10.3, "WDSP":7.5, "PRCP":0.00, "SNDP":0.0, "FRSHTT":"000000", "CLDC":27.6, "WNDDIR":81},{ "STN":722780,"DATE":"2022-05-20", "TIME":"05:51:06", "TEMP":20.7, "DEWP":-6.9, "STP":974.2, "SLP":1008.4, "VISIB":45.5, "WDSP":14.8, "PRCP":0.02, "SNDP":0.0, "FRSHTT":"010000", "CLDC":55.7, "WNDDIR":115},{ "STN":722783,"DATE":"2022-05-20", "TIME":"05:51:06", "TEMP":24.4, "DEWP":-8.5, "STP":1003.4, "SLP":1009.0, "VISIB":66.2, "WDSP":11.6, "PRCP":0.00, "SNDP":0.0, "FRSHTT":"000000", "CLDC":39.7, "WNDDIR":82},{ "STN":722786,"DATE":"2022-05-20", "TIME":"05:51:06", "TEMP":17.7, "DEWP":-6.9, "STP":983.3, "SLP":1009.1, "VISIB":47.5, "WDSP":6.0, "PRCP":0.00, "SNDP":0.0, "FRSHTT":"000000", "CLDC":1.1, "WNDDIR":102},{ "STN":710950,"DATE":"2022-05-20", "TIME":"05:51:06", "TEMP":-6.6, "DEWP":-9.1, "STP":1008.2, "SLP":1015.6, "VISIB":24.5, "WDSP":8.2, "PRCP":0.01, "SNDP":2.7, "FRSHTT":"111000", "CLDC":50.8, "WNDDIR":318},{ "STN":971260,"DATE":"2022-05-20", "TIME":"05:51:06", "TEMP":12.1, "DEWP":9.1, "STP":1005.7, "SLP":1011.7, "VISIB":10.8, "WDSP":4.6, "PRCP":0.78, "SNDP":0.0, "FRSHTT":"010000", "CLDC":50.6, "WNDDIR":130},{ "STN":722784,"DATE":"2022-05-20", "TIME":"05:51:06", "TEMP":20.2, "DEWP":-6.5, "STP":1013.7, "SLP":1007.8, "VISIB":14.4, "WDSP":5.1, "PRCP":0.00, "SNDP":0.0, "FRSHTT":"000000", "CLDC":29.7, "WNDDIR":207},{ "STN":598380,"DATE":"2022-05-20", "TIME":"05:51:06", "TEMP":23.0, "DEWP":17.9, "STP":1009.0, "SLP":1006.6, "VISIB":29.8, "WDSP":14.4, "PRCP":0.09, "SNDP":0.0, "FRSHTT":"010000", "CLDC":50.2, "WNDDIR":199},{ "STN":722785,"DATE":"2022-05-20", "TIME":"05:51:06", "TEMP":18.7, "DEWP":-6.4, "STP":988.0, "SLP":1008.5, "VISIB":48.9, "WDSP":10.7, "PRCP":0.00, "SNDP":0.0, "FRSHTT":"000000", "CLDC":32.5, "WNDDIR":61}]}
,{"WEATHERDATA": [ {"STN":474210,"DATE":"2022-05-20", "TIME":"05:51:06", "TEMP":2.4, "DEWP":-1.7, "STP":1008.8, "SLP":1008.7, "VISIB":22.3, "WDSP":18.4, "PRCP":0.07, "SNDP":0.0, "FRSHTT":"010000", "CLDC":58.6, "WNDDIR":106},{ "STN":841115,"DATE":"2022-05-20", "TIME":"05:51:06", "TEMP":15.0, "DEWP":6.8, "STP":997.2, "SLP":973.7, "VISIB":12.0, "WDSP":7.7, "PRCP":0.00, "SNDP":0.0, "FRSHTT":"000000", "CLDC":63.8, "WNDDIR":100},{ "STN":810010,"DATE":"2022-05-20", "TIME":"05:51:06", "TEMP":14.7, "DEWP":13.3, "STP":1014.6, "SLP":1012.3, "VISIB":54.4, "WDSP":5.0, "PRCP":0.00, "SNDP":0.0, "FRSHTT":"000000", "CLDC":71.4, "WNDDIR":41},{ "STN":872220,"DATE":"2022-05-20", "TIME":"05:51:06", "TEMP":7.8, "DEWP":0.2, "STP":970.5, "SLP":1014.1, "VISIB":19.8, "WDSP":15.1, "PRCP":0.02, "SNDP":0.0, "FRSHTT":"010000", "CLDC":50.5, "WNDDIR":128},{ "STN":719690,"DATE":"2022-05-20", "TIME":"05:51:06", "TEMP":-5.9, "DEWP":-6.5, "STP":1023.1, "SLP":1024.7, "VISIB":11.4, "WDSP":14.5, "PRCP":0.00, "SNDP":2.9, "FRSHTT":"101000", "CLDC":50.8, "WNDDIR":119},{ "STN":105260,"DATE":"2022-05-20", "TIME":"05:51:06", "TEMP":8.7, "DEWP":2.9, "STP":983.1, "SLP":1015.4, "VISIB":24.7, "WDSP":13.0, "PRCP":0.03, "SNDP":0.0, "FRSHTT":"010000", "CLDC":50.6, "WNDDIR":106},{ "STN":260580,"DATE":"2022-05-20", "TIME":"05:51:06", "TEMP":4.2, "DEWP":-1.7, "STP":1010.4, "SLP":1013.4, "VISIB":24.6, "WDSP":11.6, "PRCP":0.01, "SNDP":0.0, "FRSHTT":"010000", "CLDC":68.9, "WNDDIR":353},{ "STN":489660,"DATE":"2022-05-20", "TIME":"05:51:06", "TEMP":19.0, "DEWP":12.7, "STP":1006.3, "SLP":1018.6, "VISIB":12.0, "WDSP":7.5, "PRCP":0.00, "SNDP":0.0, "FRSHTT":"000000", "CLDC":19.8, "WNDDIR":334},{ "STN":745940,"DATE":"2022-05-20", "TIME":"05:51:06", "TEMP":8.7, "DEWP":2.3, "STP":1009.7, "SLP":1015.7, "VISIB":12.7, "WDSP":11.3, "PRCP":0.05, "SNDP":0.0, "FRSHTT":"010000", "CLDC":50.2, "WNDDIR":117},{ "STN":745946,"DATE":"2022-05-20", "TIME":"05:51:06", "TEMP":5.9, "DEWP":-2.9, "STP":1030.4, "SLP":1014.5, "VISIB":17.1, "WDSP":10.7, "PRCP":0.04, "SNDP":0.0, "FRSHTT":"010000", "CLDC":76.5, "WNDDIR":235}]}
,{"WEATHERDATA": [ {"STN":711250,"DATE":"2022-05-20", "TIME":"05:51:06", "TEMP":5.3, "DEWP":-5.6, "STP":954.8, "SLP":1012.8, "VISIB":20.6, "WDSP":13.4, "PRCP":0.03, "SNDP":0.0, "FRSHTT":"010000", "CLDC":50.3, "WNDDIR":276},{ "STN":25710,"DATE":"2022-05-20", "TIME":"05:51:06", "TEMP":5.4, "DEWP":-2.4, "STP":1002.0, "SLP":998.8, "VISIB":12.0, "WDSP":13.0, "PRCP":0.00, "SNDP":0.0, "FRSHTT":"000000", "CLDC":60.6, "WNDDIR":352},{ "STN":598550,"DATE":"2022-05-20", "TIME":"05:51:06", "TEMP":19.4, "DEWP":14.9, "STP":1005.6, "SLP":1006.8, "VISIB":23.8, "WDSP":8.2, "PRCP":0.30, "SNDP":0.0, "FRSHTT":"010000", "CLDC":52.8, "WNDDIR":355},{ "STN":360380,"DATE":"2022-05-20", "TIME":"05:51:06", "TEMP":8.4, "DEWP":-8.8, "STP":967.3, "SLP":1004.5, "VISIB":15.1, "WDSP":10.6, "PRCP":0.00, "SNDP":0.0, "FRSHTT":"000000", "CLDC":98.7, "WNDDIR":258},{ "STN":25700,"DATE":"2022-05-20", "TIME":"05:51:06", "TEMP":6.3, "DEWP":-1.2, "STP":1019.6, "SLP":1018.3, "VISIB":44.6, "WDSP":14.8, "PRCP":0.03, "SNDP":0.0, "FRSHTT":"010000", "CLDC":50.2, "WNDDIR":2},{ "STN":43300,"DATE":"2022-05-20", "TIME":"05:51:06", "TEMP":-4.1, "DEWP":-5.2, "STP":1025.2, "SLP":1010.7, "VISIB":39.8, "WDSP":8.4, "PRCP":0.00, "SNDP":0.0, "FRSHTT":"100000", "CLDC":6.8, "WNDDIR":16},{ "STN":25720,"DATE":"2022-05-20", "TIME":"05:51:06", "TEMP":5.8, "DEWP":0.1, "STP":1021.1, "SLP":1020.6, "VISIB":21.3, "WDSP":12.1, "PRCP":0.01, "SNDP":0.0, "FRSHTT":"010000", "CLDC":50.2, "WNDDIR":39},{ "STN":132790,"DATE":"2022-05-20", "TIME":"05:51:06", "TEMP":10.1, "DEWP":3.4, "STP":1005.7, "SLP":1015.2, "VISIB":14.6, "WDSP":7.0, "PRCP":0.18, "SNDP":0.0, "FRSHTT":"010000", "CLDC":51.6, "WNDDIR":18},{ "STN":711233,"DATE":"2022-05-20", "TIME":"05:51:06", "TEMP":6.8, "DEWP":-2.0, "STP":1022.2, "SLP":1010.9, "VISIB":23.0, "WDSP":18.8, "PRCP":0.00, "SNDP":0.0, "FRSHTT":"000000", "CLDC":11.0, "WNDDIR":169},{ "STN":443170,"DATE":"2022-05-20", "TIME":"05:51:06", "TEMP":3.9, "DEWP":-11.8, "STP":878.8, "SLP":999.6, "VISIB":20.0, "WDSP":28.2, "PRCP":0.00, "SNDP":0.0, "FRSHTT":"000000", "CLDC":19.0, "WNDDIR":240}]}
,{"WEATHERDATA": [ {"STN":722865,"DATE":"2022-05-20", "TIME":"05:51:07", "TEMP":14.0, "DEWP":6.0, "STP":1006.0, "SLP":1006.9, "VISIB":13.7, "WDSP":12.3, "PRCP":0.00, "SNDP":0.0, "FRSHTT":"000000", "CLDC":53.0, "WNDDIR":292},{ "STN":832480,"DATE":"2022-05-20", "TIME":"05:51:07", "TEMP":9.9, "DEWP":5.7, "STP":1012.6, "SLP":1011.0, "VISIB":12.6, "WDSP":14.7, "PRCP":0.13, "SNDP":0.0, "FRSHTT":"010000", "CLDC":50.3, "WNDDIR":13},{ "STN":722764,"DATE":"2022-05-20", "TIME":"05:51:07", "TEMP":4.7, "DEWP":-11.7, "STP":998.6, "SLP":1011.8, "VISIB":16.5, "WDSP":16.0, "PRCP":0.09, "SNDP":0.0, "FRSHTT":"010000", "CLDC":56.8, "WNDDIR":195},{ "STN":252860,"DATE":"2022-05-20", "TIME":"05:51:07", "TEMP":-7.5, "DEWP":-8.8, "STP":1016.7, "SLP":1018.3, "VISIB":5.5, "WDSP":25.0, "PRCP":0.07, "SNDP":0.0, "FRSHTT":"110000", "CLDC":93.4, "WNDDIR":57},{ "STN":26410,"DATE":"2022-05-20", "TIME":"05:51:07", "TEMP":4.2, "DEWP":-3.4, "STP":994.2, "SLP":990.7, "VISIB":9.7, "WDSP":8.5, "PRCP":0.00, "SNDP":0.0, "FRSHTT":"000000", "CLDC":49.6, "WNDDIR":344},{ "STN":710934,"DATE":"2022-05-20", "TIME":"05:51:07", "TEMP":-1.1, "DEWP":-4.0, "STP":1024.9, "SLP":1017.9, "VISIB":20.9, "WDSP":12.7, "PRCP":0.00, "SNDP":0.0, "FRSHTT":"100000", "CLDC":32.4, "WNDDIR":36},{ "STN":61100,"DATE":"2022-05-20", "TIME":"05:51:07", "TEMP":6.3, "DEWP":2.9, "STP":1012.6, "SLP":1014.0, "VISIB":13.0, "WDSP":17.9, "PRCP":0.04, "SNDP":0.0, "FRSHTT":"010000", "CLDC":50.0, "WNDDIR":25},{ "STN":710940,"DATE":"2022-05-20", "TIME":"05:51:07", "TEMP":-5.3, "DEWP":-8.1, "STP":964.7, "SLP":1014.8, "VISIB":21.2, "WDSP":13.6, "PRCP":0.05, "SNDP":15.1, "FRSHTT":"111000", "CLDC":51.9, "WNDDIR":15},{ "STN":572370,"DATE":"2022-05-20", "TIME":"05:51:07", "TEMP":10.1, "DEWP":-2.8, "STP":984.5, "SLP":1009.8, "VISIB":20.8, "WDSP":4.6, "PRCP":0.00, "SNDP":0.0, "FRSHTT":"000000", "CLDC":47.0, "WNDDIR":236},{ "STN":26400,"DATE":"2022-05-20", "TIME":"05:51:07", "TEMP":6.3, "DEWP":0.1, "STP":1018.5, "SLP":1016.5, "VISIB":19.0, "WDSP":7.7, "PRCP":0.04, "SNDP":0.0, "FRSHTT":"010000", "CLDC":50.7, "WNDDIR":323}]}
,{"WEATHERDATA": [ {"STN":728560,"DATE":"2022-05-20", "TIME":"05:51:07", "TEMP":7.9, "DEWP":-4.9, "STP":981.3, "SLP":1007.7, "VISIB":23.9, "WDSP":17.2, "PRCP":0.00, "SNDP":0.0, "FRSHTT":"000000", "CLDC":3.5, "WNDDIR":18},{ "STN":124690,"DATE":"2022-05-20", "TIME":"05:51:07", "TEMP":6.3, "DEWP":1.1, "STP":1002.7, "SLP":1017.1, "VISIB":18.3, "WDSP":10.8, "PRCP":0.13, "SNDP":0.0, "FRSHTT":"010000", "CLDC":80.3, "WNDDIR":183},{ "STN":32150,"DATE":"2022-05-20", "TIME":"05:51:07", "TEMP":7.8, "DEWP":2.8, "STP":1004.4, "SLP":1009.6, "VISIB":21.1, "WDSP":17.7, "PRCP":0.07, "SNDP":0.0, "FRSHTT":"010000", "CLDC":51.3, "WNDDIR":174},{ "STN":475200,"DATE":"2022-05-20", "TIME":"05:51:07", "TEMP":7.8, "DEWP":2.0, "STP":997.7, "SLP":1010.0, "VISIB":19.7, "WDSP":13.1, "PRCP":0.11, "SNDP":0.0, "FRSHTT":"010000", "CLDC":89.2, "WNDDIR":200},{ "STN":728550,"DATE":"2022-05-20", "TIME":"05:51:07", "TEMP":7.0, "DEWP":-8.2, "STP":972.8, "SLP":1008.0, "VISIB":23.8, "WDSP":23.0, "PRCP":0.00, "SNDP":0.0, "FRSHTT":"000000", "CLDC":90.0, "WNDDIR":49},{ "STN":93850,"DATE":"2022-05-20", "TIME":"05:51:07", "TEMP":7.9, "DEWP":0.6, "STP":1024.7, "SLP":1017.4, "VISIB":10.6, "WDSP":14.0, "PRCP":0.04, "SNDP":0.0, "FRSHTT":"010000", "CLDC":50.1, "WNDDIR":223},{ "STN":76380,"DATE":"2022-05-20", "TIME":"05:51:07", "TEMP":12.1, "DEWP":5.4, "STP":1003.1, "SLP":1004.9, "VISIB":20.5, "WDSP":19.5, "PRCP":0.00, "SNDP":0.0, "FRSHTT":"000000", "CLDC":7.3, "WNDDIR":256},{ "STN":690020,"DATE":"2022-05-20", "TIME":"05:51:07", "TEMP":19.9, "DEWP":17.9, "STP":979.3, "SLP":1016.6, "VISIB":23.6, "WDSP":5.4, "PRCP":0.00, "SNDP":0.0, "FRSHTT":"000000", "CLDC":21.2, "WNDDIR":351},{ "STN":353860,"DATE":"2022-05-20", "TIME":"05:51:07", "TEMP":2.4, "DEWP":-3.4, "STP":986.6, "SLP":1001.3, "VISIB":20.1, "WDSP":9.7, "PRCP":0.00, "SNDP":0.0, "FRSHTT":"000000", "CLDC":98.8, "WNDDIR":130},{ "STN":107430,"DATE":"2022-05-20", "TIME":"05:51:07", "TEMP":8.0, "DEWP":3.3, "STP":972.0, "SLP":1000.0, "VISIB":16.6, "WDSP":12.1, "PRCP":0.05, "SNDP":0.0, "FRSHTT":"010000", "CLDC":92.4, "WNDDIR":359}]}
,{"WEATHERDATA": [ {"STN":704540,"DATE":"2022-05-20", "TIME":"05:51:07", "TEMP":5.8, "DEWP":3.0, "STP":1009.7, "SLP":1009.8, "VISIB":12.7, "WDSP":20.5, "PRCP":0.07, "SNDP":0.0, "FRSHTT":"010000", "CLDC":51.2, "WNDDIR":42},{ "STN":728670,"DATE":"2022-05-20", "TIME":"05:51:07", "TEMP":7.4, "DEWP":-3.1, "STP":976.2, "SLP": "None" , "VISIB":19.6, "WDSP":21.3, "PRCP":0.00, "SNDP":0.0, "FRSHTT":"000000", "CLDC":23.8, "WNDDIR":169},{ "STN":476040,"DATE":"2022-05-20", "TIME":"05:51:07", "TEMP":7.7, "DEWP":2.4, "STP":1009.0, "SLP":1010.9, "VISIB":15.1, "WDSP":13.6, "PRCP":0.10, "SNDP":0.0, "FRSHTT":"010000", "CLDC":51.7, "WNDDIR":221},{ "STN":728610,"DATE":"2022-05-20", "TIME":"05:51:07", "TEMP":5.3, "DEWP":-7.4, "STP":940.8, "SLP":1011.1, "VISIB":21.5, "WDSP":15.6, "PRCP":0.00, "SNDP":0.0, "FRSHTT":"000000", "CLDC":56.0, "WNDDIR":234},{ "STN":728620,"DATE":"2022-05-20", "TIME":"05:51:07", "TEMP":7.7, "DEWP":-5.0, "STP":944.6, "SLP":1011.0, "VISIB":32.1, "WDSP":19.0, "PRCP":0.00, "SNDP":0.0, "FRSHTT":"000000", "CLDC":51.5, "WNDDIR":307},{ "STN":63440,"DATE":"2022-05-20", "TIME":"05:51:07", "TEMP":7.8, "DEWP":3.4, "STP":1013.0, "SLP":1013.0, "VISIB":11.6, "WDSP":19.0, "PRCP":0.06, "SNDP":0.0, "FRSHTT":"010000", "CLDC":84.2, "WNDDIR":289},{ "STN":476060,"DATE":"2022-05-20", "TIME":"05:51:07", "TEMP":8.1, "DEWP":1.1, "STP":1009.0, "SLP":1010.3, "VISIB":16.7, "WDSP":7.0, "PRCP":0.12, "SNDP":0.0, "FRSHTT":"010000", "CLDC":95.5, "WNDDIR":148},{ "STN":728630,"DATE":"2022-05-20", "TIME":"05:51:07", "TEMP":3.5, "DEWP":-10.3, "STP":944.7, "SLP":1013.0, "VISIB":23.8, "WDSP":22.2, "PRCP":0.00, "SNDP":0.0, "FRSHTT":"000000", "CLDC":69.8, "WNDDIR":98},{ "STN":336210,"DATE":"2022-05-20", "TIME":"05:51:07", "TEMP":6.9, "DEWP":2.7, "STP":998.5, "SLP":1012.6, "VISIB":28.5, "WDSP":9.9, "PRCP":0.73, "SNDP":0.0, "FRSHTT":"010000", "CLDC":50.9, "WNDDIR":14},{ "STN":847520,"DATE":"2022-05-20", "TIME":"05:51:07", "TEMP":6.4, "DEWP":-12.0, "STP":753.8, "SLP":748.1, "VISIB":12.2, "WDSP":14.6, "PRCP":0.00, "SNDP":0.0, "FRSHTT":"000000", "CLDC":95.9, "WNDDIR":51}]}
,{"WEATHERDATA": [ {"STN":488840,"DATE":"2022-05-20", "TIME":"05:51:07", "TEMP":10.4, "DEWP":8.0, "STP":917.6, "SLP":962.6, "VISIB":6.8, "WDSP":2.1, "PRCP":0.00, "SNDP":0.0, "FRSHTT":"000000", "CLDC":37.9, "WNDDIR":256},{ "STN":593450,"DATE":"2022-05-20", "TIME":"05:51:07", "TEMP":12.2, "DEWP":8.7, "STP":999.4, "SLP":1008.2, "VISIB":9.0, "WDSP":22.5, "PRCP":0.86, "SNDP":0.0, "FRSHTT":"010000", "CLDC":50.1, "WNDDIR":55},{ "STN":718460,"DATE":"2022-05-20", "TIME":"05:51:07", "TEMP":1.3, "DEWP":-4.2, "STP":986.6, "SLP":1018.2, "VISIB":22.5, "WDSP":10.4, "PRCP":0.03, "SNDP":0.0, "FRSHTT":"010000", "CLDC":67.4, "WNDDIR":2},{ "STN":34054,"DATE":"2022-05-20", "TIME":"05:51:07", "TEMP":5.0, "DEWP":-2.3, "STP":1014.3, "SLP":1037.7, "VISIB":11.8, "WDSP":11.0, "PRCP":0.00, "SNDP":0.0, "FRSHTT":"000000", "CLDC":27.0, "WNDDIR":4},{ "STN":298460,"DATE":"2022-05-20", "TIME":"05:51:07", "TEMP":5.9, "DEWP":-3.7, "STP":1001.1, "SLP":1011.8, "VISIB":13.4, "WDSP":12.4, "PRCP":0.03, "SNDP":0.0, "FRSHTT":"010000", "CLDC":56.2, "WNDDIR":120},{ "STN":471380,"DATE":"2022-05-20", "TIME":"05:51:07", "TEMP":6.6, "DEWP":-2.5, "STP":1010.1, "SLP":1011.2, "VISIB":19.3, "WDSP":11.7, "PRCP":0.04, "SNDP":0.0, "FRSHTT":"010000", "CLDC":51.0, "WNDDIR":283},{ "STN":718454,"DATE":"2022-05-20", "TIME":"05:51:07", "TEMP":3.3, "DEWP":-5.5, "STP":1018.9, "SLP":1015.4, "VISIB":22.2, "WDSP":16.5, "PRCP":0.00, "SNDP":0.0, "FRSHTT":"000000", "CLDC":63.1, "WNDDIR":194},{ "STN":471390,"DATE":"2022-05-20", "TIME":"05:51:07", "TEMP":6.3, "DEWP":-2.2, "STP":998.5, "SLP":1001.6, "VISIB":12.0, "WDSP":13.2, "PRCP":0.00, "SNDP":0.0, "FRSHTT":"000000", "CLDC":55.9, "WNDDIR":169},{ "STN":718450,"DATE":"2022-05-20", "TIME":"05:51:07", "TEMP":4.7, "DEWP":-2.1, "STP":968.8, "SLP":1014.6, "VISIB":23.2, "WDSP":13.6, "PRCP":0.03, "SNDP":0.0, "FRSHTT":"010000", "CLDC":65.9, "WNDDIR":178},{ "STN":172800,"DATE":"2022-05-20", "TIME":"05:51:07", "TEMP":9.9, "DEWP":-1.7, "STP":972.2, "SLP":1011.4, "VISIB":13.7, "WDSP":6.6, "PRCP":0.01, "SNDP":0.0, "FRSHTT":"010000", "CLDC":68.9, "WNDDIR":348}]}
,{"WEATHERDATA": [ {"STN":313110,"DATE":"2022-05-20", "TIME":"05:51:07", "TEMP":-0.6, "DEWP":-10.6, "STP":1017.3, "SLP":1008.5, "VISIB":50.1, "WDSP":6.9, "PRCP":0.13, "SNDP":0.0, "FRSHTT":"110000", "CLDC":89.7, "WNDDIR":220},{ "STN":607480,"DATE":"2022-05-20", "TIME":"05:51:07", "TEMP":14.7, "DEWP":2.5, "STP":974.7, "SLP":1015.0, "VISIB":15.0, "WDSP":11.4, "PRCP":0.00, "SNDP":0.0, "FRSHTT":"000000", "CLDC":62.5, "WNDDIR":56},{ "STN":718960,"DATE":"2022-05-20", "TIME":"05:51:07", "TEMP":4.8, "DEWP":-4.3, "STP":932.5, "SLP":1013.6, "VISIB":63.7, "WDSP":8.3, "PRCP":0.04, "SNDP":0.0, "FRSHTT":"010000", "CLDC":50.8, "WNDDIR":138},{ "STN":70030,"DATE":"2022-05-20", "TIME":"05:51:07", "TEMP":11.2, "DEWP":8.1, "STP":1002.1, "SLP":1001.0, "VISIB":9.6, "WDSP":16.2, "PRCP":0.00, "SNDP":0.0, "FRSHTT":"000000", "CLDC":35.9, "WNDDIR":17},{ "STN":35590,"DATE":"2022-05-20", "TIME":"05:51:07", "TEMP":5.3, "DEWP":0.5, "STP":1012.5, "SLP":1015.0, "VISIB":16.7, "WDSP":15.1, "PRCP":0.04, "SNDP":0.0, "FRSHTT":"010000", "CLDC":50.8, "WNDDIR":167},{ "STN":841390,"DATE":"2022-05-20", "TIME":"05:51:07", "TEMP":6.3, "DEWP":-0.5, "STP":755.1, "SLP":757.1, "VISIB":16.5, "WDSP":5.0, "PRCP":0.00, "SNDP":0.0, "FRSHTT":"000000", "CLDC":61.2, "WNDDIR":102},{ "STN":122050,"DATE":"2022-05-20", "TIME":"05:51:07", "TEMP":7.6, "DEWP":1.9, "STP":1013.3, "SLP":1016.4, "VISIB":18.0, "WDSP":13.9, "PRCP":0.02, "SNDP":0.0, "FRSHTT":"010000", "CLDC":64.0, "WNDDIR":347},{ "STN":381980,"DATE":"2022-05-20", "TIME":"05:51:07", "TEMP":8.9, "DEWP":-8.6, "STP":1005.8, "SLP":1013.7, "VISIB":41.3, "WDSP":13.5, "PRCP":0.00, "SNDP":0.0, "FRSHTT":"000000", "CLDC":55.0, "WNDDIR":223},{ "STN":70020,"DATE":"2022-05-20", "TIME":"05:51:07", "TEMP":9.0, "DEWP":4.8, "STP":1000.5, "SLP":1013.9, "VISIB":16.2, "WDSP":17.6, "PRCP":0.01, "SNDP":0.0, "FRSHTT":"010000", "CLDC":86.3, "WNDDIR":84},{ "STN":703650,"DATE":"2022-05-20", "TIME":"05:51:07", "TEMP":4.1, "DEWP":2.2, "STP":1010.2, "SLP":1013.9, "VISIB":24.1, "WDSP":19.0, "PRCP":0.00, "SNDP":0.0, "FRSHTT":"000000", "CLDC":59.6, "WNDDIR":127}]}
,{"WEATHERDATA": [ {"STN":102180,"DATE":"2022-05-20", "TIME":"05:51:07", "TEMP":8.5, "DEWP":3.1, "STP":1000.0, "SLP":998.7, "VISIB":7.6, "WDSP":16.2, "PRCP":0.00, "SNDP":0.0, "FRSHTT":"000000", "CLDC":39.0, "WNDDIR":262},{ "STN":525330,"DATE":"2022-05-20", "TIME":"05:51:07", "TEMP":7.7, "DEWP":-8.5, "STP":890.0, "SLP":1009.9, "VISIB":26.8, "WDSP":11.6, "PRCP":0.01, "SNDP":0.0, "FRSHTT":"010000", "CLDC":93.5, "WNDDIR":97},{ "STN":525331,"DATE":"2022-05-20", "TIME":"05:51:07", "TEMP":8.4, "DEWP":-8.6, "STP":996.9, "SLP":1015.6, "VISIB":9.6, "WDSP":10.1, "PRCP":0.00, "SNDP":0.0, "FRSHTT":"000000", "CLDC":68.0, "WNDDIR":150},{ "STN":425910,"DATE":"2022-05-20", "TIME":"05:51:07", "TEMP":24.2, "DEWP":10.8, "STP":1005.4, "SLP":1000.4, "VISIB":131.7, "WDSP":13.0, "PRCP":0.00, "SNDP":0.0, "FRSHTT":"000000", "CLDC":19.1, "WNDDIR":139},{ "STN":300280,"DATE":"2022-05-20", "TIME":"05:51:07", "TEMP":-1.6, "DEWP":-6.4, "STP":1015.7, "SLP":1013.3, "VISIB":35.0, "WDSP":6.7, "PRCP":0.10, "SNDP":0.0, "FRSHTT":"110000", "CLDC":55.6, "WNDDIR":263},{ "STN":945670,"DATE":"2022-05-20", "TIME":"05:51:07", "TEMP":23.1, "DEWP":17.5, "STP":1015.5, "SLP":1016.8, "VISIB":23.5, "WDSP":9.4, "PRCP":0.00, "SNDP":0.0, "FRSHTT":"000000", "CLDC":11.5, "WNDDIR":283},{ "STN":117740,"DATE":"2022-05-20", "TIME":"05:51:07", "TEMP":8.9, "DEWP":3.1, "STP":999.9, "SLP":1015.2, "VISIB":19.3, "WDSP":12.1, "PRCP":0.07, "SNDP":0.0, "FRSHTT":"010000", "CLDC":63.0, "WNDDIR":125},{ "STN":20840,"DATE":"2022-05-20", "TIME":"05:51:07", "TEMP":7.1, "DEWP":-5.1, "STP":1007.2, "SLP":1015.4, "VISIB":14.2, "WDSP":15.8, "PRCP":0.00, "SNDP":0.0, "FRSHTT":"000000", "CLDC":58.4, "WNDDIR":37},{ "STN":789700,"DATE":"2022-05-20", "TIME":"05:51:07", "TEMP":15.0, "DEWP":10.3, "STP":1012.1, "SLP":1013.2, "VISIB":29.6, "WDSP":12.6, "PRCP":0.05, "SNDP":0.0, "FRSHTT":"010000", "CLDC":50.7, "WNDDIR":77},{ "STN":575840,"DATE":"2022-05-20", "TIME":"05:51:07", "TEMP":10.5, "DEWP":6.3, "STP":1011.4, "SLP":1009.6, "VISIB":14.8, "WDSP":10.7, "PRCP":0.11, "SNDP":0.0, "FRSHTT":"010000", "CLDC":50.7, "WNDDIR":243}]}
,{"WEATHERDATA": [ {"STN":701940,"DATE":"2022-05-20", "TIME":"05:51:07", "TEMP":3.4, "DEWP":-6.6, "STP":985.7, "SLP":1003.8, "VISIB":48.1, "WDSP":15.9, "PRCP":0.00, "SNDP":0.0, "FRSHTT":"000000", "CLDC":99.5, "WNDDIR":317},{ "STN":717110,"DATE":"2022-05-20", "TIME":"05:51:07", "TEMP":2.7, "DEWP":-3.9, "STP":1010.1, "SLP":1014.4, "VISIB":21.4, "WDSP":16.1, "PRCP":0.06, "SNDP":0.0, "FRSHTT":"010000", "CLDC":74.6, "WNDDIR":336},{ "STN":33350,"DATE":"2022-05-20", "TIME":"05:51:07", "TEMP":10.0, "DEWP":3.1, "STP":1005.9, "SLP":1006.0, "VISIB":8.2, "WDSP":8.9, "PRCP":0.00, "SNDP":0.0, "FRSHTT":"000000", "CLDC":21.8, "WNDDIR":51},{ "STN":102720,"DATE":"2022-05-20", "TIME":"05:51:07", "TEMP":9.1, "DEWP":8.9, "STP":995.5, "SLP":1004.4, "VISIB":7.9, "WDSP":17.0, "PRCP":0.05, "SNDP":0.0, "FRSHTT":"010000", "CLDC":70.4, "WNDDIR":310},{ "STN":71900,"DATE":"2022-05-20", "TIME":"05:51:07", "TEMP":9.5, "DEWP":3.2, "STP":1006.1, "SLP":1015.7, "VISIB":9.8, "WDSP":8.5, "PRCP":0.05, "SNDP":0.0, "FRSHTT":"010000", "CLDC":50.6, "WNDDIR":338},{ "STN":402700,"DATE":"2022-05-20", "TIME":"05:51:07", "TEMP":14.2, "DEWP":-0.8, "STP":947.4, "SLP":1009.5, "VISIB":11.0, "WDSP":15.2, "PRCP":0.00, "SNDP":0.0, "FRSHTT":"000000", "CLDC":92.0, "WNDDIR":307},{ "STN":717094,"DATE":"2022-05-20", "TIME":"05:51:07", "TEMP":2.9, "DEWP":0.4, "STP":1009.2, "SLP":1014.4, "VISIB":15.3, "WDSP":19.5, "PRCP":0.00, "SNDP":0.0, "FRSHTT":"000000", "CLDC":13.7, "WNDDIR":12},{ "STN":142800,"DATE":"2022-05-20", "TIME":"05:51:07", "TEMP":12.5, "DEWP":4.3, "STP":995.0, "SLP":1005.0, "VISIB":10.8, "WDSP":5.3, "PRCP":0.00, "SNDP":0.0, "FRSHTT":"000000", "CLDC":64.0, "WNDDIR":275},{ "STN":717090,"DATE":"2022-05-20", "TIME":"05:51:07", "TEMP":1.8, "DEWP":-1.0, "STP":1012.5, "SLP":1013.8, "VISIB":18.1, "WDSP":24.1, "PRCP":0.18, "SNDP":0.0, "FRSHTT":"010000", "CLDC":71.7, "WNDDIR":221},{ "STN":670830,"DATE":"2022-05-20", "TIME":"05:51:07", "TEMP":9.6, "DEWP":6.1, "STP":879.3, "SLP":890.7, "VISIB":16.0, "WDSP":9.1, "PRCP":0.00, "SNDP":0.0, "FRSHTT":"000000", "CLDC":62.4, "WNDDIR":78}]}
,{"WEATHERDATA": [ {"STN":725107,"DATE":"2022-05-20", "TIME":"05:51:07", "TEMP":5.2, "DEWP":-3.8, "STP":1015.4, "SLP":1013.1, "VISIB":15.9, "WDSP":10.2, "PRCP":0.09, "SNDP":0.0, "FRSHTT":"010000", "CLDC":50.6, "WNDDIR":110},{ "STN":725101,"DATE":"2022-05-20", "TIME":"05:51:07", "TEMP":9.7, "DEWP":6.9, "STP":998.4, "SLP":1009.5, "VISIB":12.0, "WDSP":13.3, "PRCP":0.00, "SNDP":0.0, "FRSHTT":"000000", "CLDC":21.2, "WNDDIR":183},{ "STN":308620,"DATE":"2022-05-20", "TIME":"05:51:07", "TEMP":3.2, "DEWP":-11.6, "STP":957.6, "SLP":1006.0, "VISIB":39.4, "WDSP":18.5, "PRCP":0.02, "SNDP":0.0, "FRSHTT":"010000", "CLDC":52.0, "WNDDIR":268},{ "STN":170840,"DATE":"2022-05-20", "TIME":"05:51:07", "TEMP":6.9, "DEWP":-0.6, "STP":938.1, "SLP":1013.4, "VISIB":19.0, "WDSP":4.7, "PRCP":0.06, "SNDP":0.0, "FRSHTT":"010000", "CLDC":57.6, "WNDDIR":67},{ "STN":725103,"DATE":"2022-05-20", "TIME":"05:51:07", "TEMP":5.8, "DEWP":-0.5, "STP":1006.6, "SLP":1003.1, "VISIB":20.1, "WDSP":9.4, "PRCP":0.07, "SNDP":0.0, "FRSHTT":"010000", "CLDC":69.1, "WNDDIR":170},{ "STN":28690,"DATE":"2022-05-20", "TIME":"05:51:07", "TEMP":0.7, "DEWP":-6.4, "STP":1014.3, "SLP":1015.2, "VISIB":26.9, "WDSP":12.3, "PRCP":0.07, "SNDP":0.1, "FRSHTT":"011000", "CLDC":50.1, "WNDDIR":234},{ "STN":725097,"DATE":"2022-05-20", "TIME":"05:51:07", "TEMP":6.2, "DEWP":-0.3, "STP":1008.7, "SLP":1016.2, "VISIB":8.7, "WDSP":8.3, "PRCP":0.07, "SNDP":0.0, "FRSHTT":"010000", "CLDC":50.5, "WNDDIR":14},{ "STN":725098,"DATE":"2022-05-20", "TIME":"05:51:07", "TEMP":4.8, "DEWP":-0.8, "STP":1014.4, "SLP":1013.5, "VISIB":14.6, "WDSP":10.4, "PRCP":0.11, "SNDP":0.0, "FRSHTT":"010000", "CLDC":50.5, "WNDDIR":19},{ "STN":725095,"DATE":"2022-05-20", "TIME":"05:51:07", "TEMP":5.5, "DEWP":-2.7, "STP":990.7, "SLP":1014.2, "VISIB":22.2, "WDSP":20.6, "PRCP":0.10, "SNDP":0.0, "FRSHTT":"010000", "CLDC":50.4, "WNDDIR":128},{ "STN":549290,"DATE":"2022-05-20", "TIME":"05:51:07", "TEMP":12.7, "DEWP":1.8, "STP":1002.7, "SLP":1007.8, "VISIB":20.2, "WDSP":8.6, "PRCP":0.05, "SNDP":0.0, "FRSHTT":"010000", "CLDC":60.8, "WNDDIR":122}]}
,{"WEATHERDATA": [ {"STN":478720,"DATE":"2022-05-20", "TIME":"05:51:07", "TEMP":16.6, "DEWP":10.9, "STP":997.6, "SLP":993.6, "VISIB":12.1, "WDSP":18.3, "PRCP":0.00, "SNDP":0.0, "FRSHTT":"000000", "CLDC":92.2, "WNDDIR":294},{ "STN":29650,"DATE":"2022-05-20", "TIME":"05:51:07", "TEMP":3.3, "DEWP":-3.8, "STP":1013.2, "SLP":1014.9, "VISIB":21.2, "WDSP":6.7, "PRCP":0.04, "SNDP":0.0, "FRSHTT":"010000", "CLDC":50.3, "WNDDIR":189},{ "STN":638010,"DATE":"2022-05-20", "TIME":"05:51:07", "TEMP":18.1, "DEWP":13.6, "STP":919.7, "SLP":929.0, "VISIB":18.0, "WDSP":1.5, "PRCP":0.00, "SNDP":0.0, "FRSHTT":"000000", "CLDC":30.9, "WNDDIR":40},{ "STN":74760,"DATE":"2022-05-20", "TIME":"05:51:07", "TEMP":13.8, "DEWP":5.6, "STP":1000.7, "SLP":997.7, "VISIB":12.5, "WDSP":19.5, "PRCP":0.00, "SNDP":0.0, "FRSHTT":"000000", "CLDC":0.4, "WNDDIR":116},{ "STN":29640,"DATE":"2022-05-20", "TIME":"05:51:07", "TEMP":6.7, "DEWP":3.5, "STP":1014.8, "SLP":1015.9, "VISIB":21.9, "WDSP":25.8, "PRCP":0.00, "SNDP":0.0, "FRSHTT":"000000", "CLDC":82.3, "WNDDIR":181},{ "STN":534200,"DATE":"2022-05-20", "TIME":"05:51:07", "TEMP":4.5, "DEWP":-18.5, "STP":993.5, "SLP":1015.2, "VISIB":31.7, "WDSP":5.1, "PRCP":0.00, "SNDP":0.0, "FRSHTT":"000000", "CLDC":45.5, "WNDDIR":239},{ "STN":370008,"DATE":"2022-05-20", "TIME":"05:51:07", "TEMP":7.5, "DEWP":1.1, "STP":999.6, "SLP":1020.7, "VISIB":10.5, "WDSP":15.0, "PRCP":0.00, "SNDP":0.0, "FRSHTT":"000000", "CLDC":80.5, "WNDDIR":164},{ "STN":64070,"DATE":"2022-05-20", "TIME":"05:51:07", "TEMP":8.7, "DEWP":5.5, "STP":1015.5, "SLP":1016.8, "VISIB":10.4, "WDSP":22.1, "PRCP":0.10, "SNDP":0.0, "FRSHTT":"010000", "CLDC":50.3, "WNDDIR":294},{ "STN":370010,"DATE":"2022-05-20", "TIME":"05:51:07", "TEMP":9.1, "DEWP":5.1, "STP":1012.1, "SLP":1003.6, "VISIB":11.3, "WDSP":13.7, "PRCP":0.00, "SNDP":0.0, "FRSHTT":"000000", "CLDC":27.7, "WNDDIR":232},{ "STN":725946,"DATE":"2022-05-20", "TIME":"05:51:07", "TEMP":9.0, "DEWP":6.3, "STP":1020.3, "SLP":1017.7, "VISIB":26.1, "WDSP":19.0, "PRCP":0.05, "SNDP":0.0, "FRSHTT":"010000", "CLDC":50.9, "WNDDIR":278}]}
,{"WEATHERDATA": [ {"STN":106330,"DATE":"2022-05-20", "TIME":"05:51:08", "TEMP":9.2, "DEWP":2.5, "STP":1002.9, "SLP":1015.5, "VISIB":14.7, "WDSP":9.2, "PRCP":0.00, "SNDP":0.0, "FRSHTT":"000000", "CLDC":13.3, "WNDDIR":9},{ "STN":626410,"DATE":"2022-05-20", "TIME":"05:51:08", "TEMP":18.8, "DEWP":9.0, "STP":1001.3, "SLP":1005.6, "VISIB":17.5, "WDSP":9.6, "PRCP":0.00, "SNDP":0.0, "FRSHTT":"000000", "CLDC":48.3, "WNDDIR":55},{ "STN":140240,"DATE":"2022-05-20", "TIME":"05:51:08", "TEMP":8.3, "DEWP":4.4, "STP":908.2, "SLP":913.9, "VISIB":15.6, "WDSP":10.3, "PRCP":0.25, "SNDP":0.0, "FRSHTT":"010000", "CLDC":92.8, "WNDDIR":313},{ "STN":729440,"DATE":"2022-05-20", "TIME":"05:51:08", "TEMP":-0.1, "DEWP":-8.9, "STP":937.8, "SLP":1020.2, "VISIB":24.1, "WDSP":10.6, "PRCP":0.00, "SNDP":0.0, "FRSHTT":"100000", "CLDC":41.0, "WNDDIR":335},{ "STN":71390,"DATE":"2022-05-20", "TIME":"05:51:08", "TEMP":9.0, "DEWP":5.6, "STP":1008.4, "SLP":1014.0, "VISIB":11.7, "WDSP":14.7, "PRCP":0.08, "SNDP":0.0, "FRSHTT":"010000", "CLDC":68.8, "WNDDIR":121},{ "STN":607150,"DATE":"2022-05-20", "TIME":"05:51:08", "TEMP":14.5, "DEWP":6.0, "STP":1018.0, "SLP":1016.1, "VISIB":17.7, "WDSP":16.6, "PRCP":0.01, "SNDP":0.0, "FRSHTT":"010000", "CLDC":50.1, "WNDDIR":61},{ "STN":746940,"DATE":"2022-05-20", "TIME":"05:51:08", "TEMP":10.9, "DEWP":4.2, "STP":984.7, "SLP":971.5, "VISIB":14.8, "WDSP":13.2, "PRCP":0.00, "SNDP":0.0, "FRSHTT":"000000", "CLDC":92.0, "WNDDIR":218},{ "STN":746941,"DATE":"2022-05-20", "TIME":"05:51:08", "TEMP":12.2, "DEWP":5.8, "STP":1014.3, "SLP":1016.2, "VISIB":12.2, "WDSP":14.8, "PRCP":0.09, "SNDP":0.0, "FRSHTT":"010000", "CLDC":50.6, "WNDDIR":233},{ "STN":746943,"DATE":"2022-05-20", "TIME":"05:51:08", "TEMP":21.5, "DEWP":16.6, "STP":1022.1, "SLP":1018.7, "VISIB":16.0, "WDSP":16.2, "PRCP":0.04, "SNDP":0.0, "FRSHTT":"010000", "CLDC":50.1, "WNDDIR":280},{ "STN":746936,"DATE":"2022-05-20", "TIME":"05:51:08", "TEMP":13.5, "DEWP":8.9, "STP":974.3, "SLP":954.8, "VISIB":14.9, "WDSP":9.9, "PRCP":0.00, "SNDP":0.0, "FRSHTT":"000000", "CLDC":11.8, "WNDDIR":319}]}
,{"WEATHERDATA": [ {"STN":717493,"DATE":"2022-05-20", "TIME":"05:51:08", "TEMP":5.3, "DEWP":-1.9, "STP":1008.8, "SLP":1012.3, "VISIB":21.1, "WDSP":11.4, "PRCP":0.00, "SNDP":0.0, "FRSHTT":"000000", "CLDC":18.0, "WNDDIR":304},{ "STN":297260,"DATE":"2022-05-20", "TIME":"05:51:08", "TEMP":6.9, "DEWP":-3.0, "STP":1001.0, "SLP":1013.2, "VISIB":24.4, "WDSP":7.1, "PRCP":0.00, "SNDP":0.0, "FRSHTT":"000000", "CLDC":42.1, "WNDDIR":203},{ "STN":702031,"DATE":"2022-05-20", "TIME":"05:51:08", "TEMP":2.0, "DEWP":-1.3, "STP":1010.9, "SLP":1010.3, "VISIB":42.9, "WDSP":15.8, "PRCP":0.00, "SNDP":0.0, "FRSHTT":"000000", "CLDC":75.4, "WNDDIR":111},{ "STN":262310,"DATE":"2022-05-20", "TIME":"05:51:08", "TEMP":5.3, "DEWP":-0.6, "STP":1017.3, "SLP":1015.0, "VISIB":18.0, "WDSP":18.1, "PRCP":0.05, "SNDP":0.0, "FRSHTT":"010000", "CLDC":51.2, "WNDDIR":344},{ "STN":72570,"DATE":"2022-05-20", "TIME":"05:51:08", "TEMP":9.8, "DEWP":5.0, "STP":1013.1, "SLP":1015.0, "VISIB":11.2, "WDSP":16.2, "PRCP":0.09, "SNDP":0.0, "FRSHTT":"010000", "CLDC":50.7, "WNDDIR":133},{ "STN":72550,"DATE":"2022-05-20", "TIME":"05:51:08", "TEMP":10.6, "DEWP":5.6, "STP":1003.8, "SLP":1015.0, "VISIB":12.7, "WDSP":12.7, "PRCP":0.08, "SNDP":0.0, "FRSHTT":"010000", "CLDC":96.5, "WNDDIR":7},{ "STN":103140,"DATE":"2022-05-20", "TIME":"05:51:08", "TEMP":9.0, "DEWP":3.3, "STP":996.7, "SLP":996.8, "VISIB":10.7, "WDSP":13.1, "PRCP":0.01, "SNDP":0.0, "FRSHTT":"010000", "CLDC":50.5, "WNDDIR":338},{ "STN":72553,"DATE":"2022-05-20", "TIME":"05:51:08", "TEMP":7.9, "DEWP":3.6, "STP":1014.6, "SLP":984.4, "VISIB":9.4, "WDSP":21.7, "PRCP":0.00, "SNDP":0.0, "FRSHTT":"000000", "CLDC":81.6, "WNDDIR":135},{ "STN":747540,"DATE":"2022-05-20", "TIME":"05:51:08", "TEMP":16.4, "DEWP":9.3, "STP":1011.4, "SLP":1014.4, "VISIB":13.5, "WDSP":10.1, "PRCP":0.05, "SNDP":0.0, "FRSHTT":"010000", "CLDC":50.8, "WNDDIR":307},{ "STN":72554,"DATE":"2022-05-20", "TIME":"05:51:08", "TEMP":10.5, "DEWP":5.4, "STP":991.2, "SLP":1023.3, "VISIB":9.7, "WDSP":23.8, "PRCP":0.00, "SNDP":0.0, "FRSHTT":"000000", "CLDC":34.0, "WNDDIR":41}]}
,{"WEATHERDATA": [ {"STN":133766,"DATE":"2022-05-20", "TIME":"05:51:08", "TEMP":10.1, "DEWP":-0.5, "STP":1008.6, "SLP":984.3, "VISIB":11.1, "WDSP":8.0, "PRCP":0.00, "SNDP":0.0, "FRSHTT":"000000", "CLDC":73.4, "WNDDIR":81},{ "STN":983275,"DATE":"2022-05-20", "TIME":"05:51:08", "TEMP":18.7, "DEWP":15.4, "STP":989.4, "SLP":966.8, "VISIB":7.3, "WDSP":8.4, "PRCP":0.00, "SNDP":0.0, "FRSHTT":"000000", "CLDC":6.4, "WNDDIR":107},{ "STN":26700,"DATE":"2022-05-20", "TIME":"05:51:08", "TEMP":-1.0, "DEWP":-4.8, "STP":1014.0, "SLP":1015.3, "VISIB":37.0, "WDSP":10.2, "PRCP":0.00, "SNDP":0.0, "FRSHTT":"100000", "CLDC":8.5, "WNDDIR":353},{ "STN":133760,"DATE":"2022-05-20", "TIME":"05:51:08", "TEMP":10.1, "DEWP":3.4, "STP":991.1, "SLP":1016.6, "VISIB":20.9, "WDSP":5.3, "PRCP":0.11, "SNDP":0.0, "FRSHTT":"010000", "CLDC":50.5, "WNDDIR":181},{ "STN":983250,"DATE":"2022-05-20", "TIME":"05:51:08", "TEMP":21.0, "DEWP":13.0, "STP":1004.0, "SLP":1008.2, "VISIB":17.5, "WDSP":10.9, "PRCP":0.32, "SNDP":0.0, "FRSHTT":"010000", "CLDC":50.5, "WNDDIR":358},{ "STN":722955,"DATE":"2022-05-20", "TIME":"05:51:08", "TEMP":15.9, "DEWP":9.9, "STP":1009.1, "SLP":1009.0, "VISIB":21.9, "WDSP":9.3, "PRCP":0.00, "SNDP":0.0, "FRSHTT":"000000", "CLDC":3.2, "WNDDIR":98},{ "STN":800220,"DATE":"2022-05-20", "TIME":"05:51:08", "TEMP":17.2, "DEWP":13.2, "STP":1010.9, "SLP":1009.6, "VISIB":11.1, "WDSP":6.3, "PRCP":0.01, "SNDP":0.0, "FRSHTT":"010000", "CLDC":50.2, "WNDDIR":55},{ "STN":357290,"DATE":"2022-05-20", "TIME":"05:51:08", "TEMP":2.0, "DEWP":-6.6, "STP":1053.9, "SLP":1020.6, "VISIB":20.3, "WDSP":20.9, "PRCP":0.00, "SNDP":0.0, "FRSHTT":"000000", "CLDC":62.7, "WNDDIR":320},{ "STN":722956,"DATE":"2022-05-20", "TIME":"05:51:08", "TEMP":15.7, "DEWP":9.4, "STP":1007.9, "SLP":1013.9, "VISIB":15.1, "WDSP":13.5, "PRCP":0.01, "SNDP":0.0, "FRSHTT":"010000", "CLDC":66.6, "WNDDIR":247},{ "STN":601600,"DATE":"2022-05-20", "TIME":"05:51:08", "TEMP":2.1, "DEWP":-7.1, "STP":1007.0, "SLP":1019.1, "VISIB":63.0, "WDSP":15.9, "PRCP":0.00, "SNDP":0.0, "FRSHTT":"000000", "CLDC":10.0, "WNDDIR":124}]}
,{"WEATHERDATA": [ {"STN":569850,"DATE":"2022-05-20", "TIME":"05:51:08", "TEMP":13.2, "DEWP":6.8, "STP":901.8, "SLP":1005.4, "VISIB":26.1, "WDSP":12.9, "PRCP":0.13, "SNDP":0.0, "FRSHTT":"010000", "CLDC":73.7, "WNDDIR":199},{ "STN":724338,"DATE":"2022-05-20", "TIME":"05:51:08", "TEMP":12.3, "DEWP":6.0, "STP":1008.9, "SLP":1015.4, "VISIB":22.4, "WDSP":10.8, "PRCP":0.02, "SNDP":0.0, "FRSHTT":"010000", "CLDC":50.1, "WNDDIR":276},{ "STN":724336,"DATE":"2022-05-20", "TIME":"05:51:08", "TEMP":13.7, "DEWP":8.2, "STP":1006.0, "SLP":1005.6, "VISIB":14.7, "WDSP":10.6, "PRCP":0.03, "SNDP":0.0, "FRSHTT":"010000", "CLDC":59.3, "WNDDIR":45},{ "STN":724350,"DATE":"2022-05-20", "TIME":"05:51:08", "TEMP":11.1, "DEWP":5.0, "STP":1002.7, "SLP":1014.9, "VISIB":12.0, "WDSP":10.3, "PRCP":0.06, "SNDP":0.0, "FRSHTT":"010000", "CLDC":50.5, "WNDDIR":72},{ "STN":724347,"DATE":"2022-05-20", "TIME":"05:51:08", "TEMP":13.6, "DEWP":8.0, "STP":1013.4, "SLP":1015.6, "VISIB":16.0, "WDSP":15.2, "PRCP":0.29, "SNDP":0.0, "FRSHTT":"010000", "CLDC":51.0, "WNDDIR":315},{ "STN":724345,"DATE":"2022-05-20", "TIME":"05:51:08", "TEMP":11.5, "DEWP":5.3, "STP":1009.8, "SLP":1015.2, "VISIB":15.4, "WDSP":11.4, "PRCP":0.07, "SNDP":0.0, "FRSHTT":"010000", "CLDC":54.9, "WNDDIR":161},{ "STN":128920,"DATE":"2022-05-20", "TIME":"05:51:08", "TEMP":11.4, "DEWP":3.8, "STP":1008.1, "SLP":1015.9, "VISIB":21.5, "WDSP":9.6, "PRCP":0.02, "SNDP":0.0, "FRSHTT":"010000", "CLDC":95.1, "WNDDIR":124},{ "STN":429710,"DATE":"2022-05-20", "TIME":"05:51:08", "TEMP":26.0, "DEWP":18.9, "STP":1001.2, "SLP":1001.9, "VISIB":3.4, "WDSP":16.3, "PRCP":0.01, "SNDP":0.0, "FRSHTT":"010000", "CLDC":50.4, "WNDDIR":255},{ "STN":724320,"DATE":"2022-05-20", "TIME":"05:51:08", "TEMP":9.3, "DEWP":3.2, "STP":1001.7, "SLP":1015.1, "VISIB":12.2, "WDSP":14.0, "PRCP": "None" , "SNDP":0.0, "FRSHTT":"010000", "CLDC":84.6, "WNDDIR":200},{ "STN":165460,"DATE":"2022-05-20", "TIME":"05:51:08", "TEMP":11.7, "DEWP":-2.3, "STP":1010.2, "SLP":1010.5, "VISIB":10.0, "WDSP":14.9, "PRCP":0.01, "SNDP":0.0, "FRSHTT":"010000", "CLDC":51.8, "WNDDIR":60}]}
,{"WEATHERDATA": [ {"STN":698064,"DATE":"2022-05-20", "TIME":"05:51:08", "TEMP":37.6, "DEWP":10.6, "STP":1020.0, "SLP":1026.6, "VISIB":9.0, "WDSP":14.4, "PRCP":0.00, "SNDP":0.0, "FRSHTT":"000000", "CLDC":31.0, "WNDDIR":256},{ "STN":266290,"DATE":"2022-05-20", "TIME":"05:51:08", "TEMP":6.0, "DEWP":-0.8, "STP":1008.0, "SLP":1015.4, "VISIB":18.6, "WDSP":11.3, "PRCP":0.02, "SNDP":0.0, "FRSHTT":"010000", "CLDC":50.3, "WNDDIR":237},{ "STN":767441,"DATE":"2022-05-20", "TIME":"05:51:08", "TEMP":19.7, "DEWP":15.4, "STP":998.3, "SLP":1004.8, "VISIB":14.1, "WDSP":10.0, "PRCP":0.00, "SNDP":0.0, "FRSHTT":"000000", "CLDC":89.3, "WNDDIR":149},{ "STN":804160,"DATE":"2022-05-20", "TIME":"05:51:08", "TEMP":11.1, "DEWP":4.0, "STP":919.6, "SLP":946.1, "VISIB":11.8, "WDSP":8.9, "PRCP":0.00, "SNDP":0.0, "FRSHTT":"000000", "CLDC":28.7, "WNDDIR":189},{ "STN":407090,"DATE":"2022-05-20", "TIME":"05:51:08", "TEMP":10.1, "DEWP":3.7, "STP":993.9, "SLP":969.5, "VISIB":22.0, "WDSP":5.8, "PRCP":0.05, "SNDP":0.0, "FRSHTT":"010000", "CLDC":70.9, "WNDDIR":288},{ "STN":782623,"DATE":"2022-05-20", "TIME":"05:51:08", "TEMP":14.1, "DEWP":11.9, "STP":985.8, "SLP":985.7, "VISIB":10.2, "WDSP":9.8, "PRCP":0.00, "SNDP":0.0, "FRSHTT":"000000", "CLDC":30.1, "WNDDIR":333},{ "STN":442290,"DATE":"2022-05-20", "TIME":"05:51:08", "TEMP":-1.3, "DEWP":-12.1, "STP":794.8, "SLP":1017.3, "VISIB":50.9, "WDSP":6.6, "PRCP":0.00, "SNDP":0.0, "FRSHTT":"100000", "CLDC":46.3, "WNDDIR":145},{ "STN":483830,"DATE":"2022-05-20", "TIME":"05:51:08", "TEMP":17.1, "DEWP":14.5, "STP":1024.2, "SLP":1009.6, "VISIB":11.1, "WDSP":0.2, "PRCP":0.29, "SNDP":0.0, "FRSHTT":"010000", "CLDC":50.3, "WNDDIR":177},{ "STN":162350,"DATE":"2022-05-20", "TIME":"05:51:08", "TEMP":11.5, "DEWP":7.1, "STP":1005.1, "SLP":1007.4, "VISIB":10.9, "WDSP":8.4, "PRCP":0.00, "SNDP":0.0, "FRSHTT":"000000", "CLDC":96.4, "WNDDIR":254},{ "STN":162320,"DATE":"2022-05-20", "TIME":"05:51:08", "TEMP":15.5, "DEWP":10.9, "STP":1011.1, "SLP":1016.5, "VISIB":16.1, "WDSP":14.8, "PRCP":0.00, "SNDP":0.0, "FRSHTT":"000000", "CLDC":3.5, "WNDDIR":108}]}
,{"WEATHERDATA": [ {"STN":35771,"DATE":"2022-05-20", "TIME":"05:51:08", "TEMP":7.0, "DEWP":2.1, "STP":999.5, "SLP":1007.0, "VISIB":8.5, "WDSP":14.7, "PRCP":0.01, "SNDP":0.0, "FRSHTT":"010000", "CLDC":82.7, "WNDDIR":283},{ "STN":282140,"DATE":"2022-05-20", "TIME":"05:51:08", "TEMP":4.6, "DEWP":-4.4, "STP":1003.9, "SLP":1013.4, "VISIB":42.0, "WDSP":12.8, "PRCP":0.04, "SNDP":0.0, "FRSHTT":"010000", "CLDC":50.2, "WNDDIR":287},{ "STN":948640,"DATE":"2022-05-20", "TIME":"05:51:08", "TEMP":12.8, "DEWP":9.7, "STP":1008.6, "SLP":1008.3, "VISIB":26.6, "WDSP":17.5, "PRCP":0.02, "SNDP":0.0, "FRSHTT":"010000", "CLDC":76.0, "WNDDIR":336},{ "STN":35715,"DATE":"2022-05-20", "TIME":"05:51:08", "TEMP":5.0, "DEWP":-2.4, "STP":1021.2, "SLP":997.2, "VISIB":9.3, "WDSP":10.8, "PRCP":0.00, "SNDP":0.0, "FRSHTT":"000000", "CLDC":81.8, "WNDDIR":197},{ "STN":607350,"DATE":"2022-05-20", "TIME":"05:51:08", "TEMP":14.4, "DEWP":3.1, "STP":1013.6, "SLP":1016.2, "VISIB":12.4, "WDSP":12.1, "PRCP":0.00, "SNDP":0.0, "FRSHTT":"000000", "CLDC":45.9, "WNDDIR":243},{ "STN":719100,"DATE":"2022-05-20", "TIME":"05:51:08", "TEMP":-5.0, "DEWP":-6.6, "STP":1010.3, "SLP":1016.5, "VISIB":16.4, "WDSP":19.7, "PRCP":0.02, "SNDP":7.4, "FRSHTT":"111000", "CLDC":65.5, "WNDDIR":87},{ "STN":334290,"DATE":"2022-05-20", "TIME":"05:51:08", "TEMP":9.3, "DEWP":2.6, "STP":990.6, "SLP":1015.2, "VISIB":9.0, "WDSP":12.4, "PRCP":0.02, "SNDP":0.0, "FRSHTT":"010000", "CLDC":50.8, "WNDDIR":253},{ "STN":719090,"DATE":"2022-05-20", "TIME":"05:51:08", "TEMP":-4.7, "DEWP":-7.4, "STP":1012.2, "SLP":1015.9, "VISIB":27.7, "WDSP":15.9, "PRCP":0.03, "SNDP":2.8, "FRSHTT":"111000", "CLDC":72.8, "WNDDIR":181},{ "STN":948650,"DATE":"2022-05-20", "TIME":"05:51:08", "TEMP":14.5, "DEWP":9.9, "STP":1018.5, "SLP":1018.9, "VISIB":23.4, "WDSP":15.1, "PRCP":0.03, "SNDP":0.0, "FRSHTT":"010000", "CLDC":50.0, "WNDDIR":257},{ "STN":435550,"DATE":"2022-05-20", "TIME":"05:51:08", "TEMP":15.0, "DEWP":11.6, "STP":1014.3, "SLP":1010.0, "VISIB":13.1, "WDSP":15.4, "PRCP":0.08, "SNDP":0.0, "FRSHTT":"010000", "CLDC":50.1, "WNDDIR":140}]}
,{"WEATHERDATA": [ {"STN":983240,"DATE":"2022-05-20", "TIME":"05:51:08", "TEMP":18.1, "DEWP":13.4, "STP":1008.3, "SLP":1009.0, "VISIB":19.1, "WDSP":6.5, "PRCP":0.00, "SNDP":0.0, "FRSHTT":"000000", "CLDC":69.8, "WNDDIR":357},{ "STN":740561,"DATE":"2022-05-20", "TIME":"05:51:08", "TEMP":2.3, "DEWP":-6.4, "STP":1001.2, "SLP":1015.3, "VISIB":21.9, "WDSP":16.7, "PRCP":0.00, "SNDP":0.0, "FRSHTT":"000000", "CLDC":39.1, "WNDDIR":292},{ "STN":127720,"DATE":"2022-05-20", "TIME":"05:51:08", "TEMP":9.5, "DEWP":2.4, "STP":996.4, "SLP":1015.5, "VISIB":21.8, "WDSP":9.0, "PRCP":0.05, "SNDP":0.0, "FRSHTT":"010000", "CLDC":98.0, "WNDDIR":334},{ "STN":723055,"DATE":"2022-05-20", "TIME":"05:51:08", "TEMP":6.0, "DEWP":-12.8, "STP":1000.3, "SLP":1037.1, "VISIB":15.9, "WDSP":5.5, "PRCP":0.00, "SNDP":0.0, "FRSHTT":"000000", "CLDC":81.2, "WNDDIR":258},{ "STN":164700,"DATE":"2022-05-20", "TIME":"05:51:08", "TEMP":14.2, "DEWP":6.9, "STP":1005.5, "SLP":1015.1, "VISIB":11.3, "WDSP":14.2, "PRCP":0.01, "SNDP":0.0, "FRSHTT":"010000", "CLDC":80.7, "WNDDIR":33},{ "STN":26640,"DATE":"2022-05-20", "TIME":"05:51:08", "TEMP":4.6, "DEWP":-2.1, "STP":1019.4, "SLP":1017.9, "VISIB":22.3, "WDSP":12.8, "PRCP":0.02, "SNDP":0.0, "FRSHTT":"010000", "CLDC":50.3, "WNDDIR":309},{ "STN":321860,"DATE":"2022-05-20", "TIME":"05:51:08", "TEMP":0.5, "DEWP":-1.0, "STP":1013.0, "SLP":1009.8, "VISIB":18.6, "WDSP":25.2, "PRCP":0.03, "SNDP":0.0, "FRSHTT":"010000", "CLDC":51.7, "WNDDIR":160},{ "STN":723046,"DATE":"2022-05-20", "TIME":"05:51:08", "TEMP":12.6, "DEWP":5.2, "STP":1005.7, "SLP":1001.7, "VISIB":16.1, "WDSP":12.4, "PRCP":0.00, "SNDP":0.0, "FRSHTT":"000000", "CLDC":74.8, "WNDDIR":231},{ "STN":133840,"DATE":"2022-05-20", "TIME":"05:51:08", "TEMP":8.9, "DEWP":4.1, "STP":1001.2, "SLP":1015.0, "VISIB":16.2, "WDSP":4.2, "PRCP":0.22, "SNDP":0.0, "FRSHTT":"010000", "CLDC":54.9, "WNDDIR":224},{ "STN":723040,"DATE":"2022-05-20", "TIME":"05:51:08", "TEMP":10.2, "DEWP":6.2, "STP":1016.3, "SLP":1016.6, "VISIB":11.1, "WDSP":17.4, "PRCP":0.05, "SNDP":0.0, "FRSHTT":"010000", "CLDC":86.0, "WNDDIR":162}]}
,{"WEATHERDATA": [ {"STN":402500,"DATE":"2022-05-20", "TIME":"05:51:08", "TEMP":13.4, "DEWP":-2.5, "STP":932.4, "SLP":1008.2, "VISIB":15.5, "WDSP":12.6, "PRCP":0.00, "SNDP":0.0, "FRSHTT":"000000", "CLDC":79.7, "WNDDIR":45},{ "STN":102420,"DATE":"2022-05-20", "TIME":"05:51:08", "TEMP":3.7, "DEWP":-4.5, "STP":1027.8, "SLP":1020.4, "VISIB":26.6, "WDSP":20.2, "PRCP":0.00, "SNDP":0.0, "FRSHTT":"000000", "CLDC":36.5, "WNDDIR":78},{ "STN":33550,"DATE":"2022-05-20", "TIME":"05:51:08", "TEMP":-1.3, "DEWP":-7.0, "STP":1008.7, "SLP":1004.5, "VISIB":17.3, "WDSP":15.4, "PRCP":0.02, "SNDP":0.0, "FRSHTT":"110000", "CLDC":89.8, "WNDDIR":160},{ "STN":384020,"DATE":"2022-05-20", "TIME":"05:51:08", "TEMP":-3.5, "DEWP":-6.5, "STP":1002.4, "SLP":1019.8, "VISIB":7.1, "WDSP":19.2, "PRCP":0.00, "SNDP":0.0, "FRSHTT":"100000", "CLDC":67.4, "WNDDIR":4},{ "STN":701620,"DATE":"2022-05-20", "TIME":"05:51:08", "TEMP":-9.3, "DEWP":-12.6, "STP":1001.8, "SLP":1015.0, "VISIB":21.2, "WDSP":10.7, "PRCP":0.00, "SNDP":0.0, "FRSHTT":"100000", "CLDC":58.4, "WNDDIR":193},{ "STN":33540,"DATE":"2022-05-20", "TIME":"05:51:08", "TEMP":6.3, "DEWP":1.4, "STP":1017.3, "SLP":1016.0, "VISIB":14.8, "WDSP":11.2, "PRCP":0.09, "SNDP":0.0, "FRSHTT":"010000", "CLDC":51.6, "WNDDIR":58},{ "STN":262750,"DATE":"2022-05-20", "TIME":"05:51:08", "TEMP":6.5, "DEWP":-0.4, "STP":1010.2, "SLP":1013.1, "VISIB":21.2, "WDSP":8.9, "PRCP":0.08, "SNDP":0.0, "FRSHTT":"010000", "CLDC":51.3, "WNDDIR":29},{ "STN":72070,"DATE":"2022-05-20", "TIME":"05:51:08", "TEMP":10.9, "DEWP":8.3, "STP":1015.6, "SLP":1015.8, "VISIB":16.9, "WDSP":25.5, "PRCP":0.02, "SNDP":0.0, "FRSHTT":"010000", "CLDC":50.9, "WNDDIR":333},{ "STN":384031,"DATE":"2022-05-20", "TIME":"05:51:08", "TEMP":12.5, "DEWP":-4.0, "STP":991.7, "SLP":973.4, "VISIB":10.5, "WDSP":11.7, "PRCP":0.00, "SNDP":0.0, "FRSHTT":"000000", "CLDC":34.1, "WNDDIR":45},{ "STN":384030,"DATE":"2022-05-20", "TIME":"05:51:08", "TEMP":8.4, "DEWP":-9.9, "STP":1032.8, "SLP":1020.5, "VISIB":14.7, "WDSP":4.2, "PRCP":0.00, "SNDP":0.0, "FRSHTT":"000000", "CLDC":97.1, "WNDDIR":232}]}
,{"WEATHERDATA": [ {"STN":722045,"DATE":"2022-05-20", "TIME":"05:51:08", "TEMP":14.8, "DEWP":10.2, "STP":1014.8, "SLP":1016.4, "VISIB":13.2, "WDSP":18.1, "PRCP":0.05, "SNDP":0.0, "FRSHTT":"010000", "CLDC":50.1, "WNDDIR":276},{ "STN":722044,"DATE":"2022-05-20", "TIME":"05:51:08", "TEMP":16.3, "DEWP":-1.3, "STP":998.7, "SLP":988.9, "VISIB":17.8, "WDSP":16.8, "PRCP":0.00, "SNDP":0.0, "FRSHTT":"000000", "CLDC":33.2, "WNDDIR":97},{ "STN":236620,"DATE":"2022-05-20", "TIME":"05:51:08", "TEMP":3.4, "DEWP":1.0, "STP":1007.0, "SLP":1003.7, "VISIB":43.5, "WDSP":11.8, "PRCP":0.01, "SNDP":0.0, "FRSHTT":"010000", "CLDC":63.8, "WNDDIR":150},{ "STN":722041,"DATE":"2022-05-20", "TIME":"05:51:08", "TEMP":10.3, "DEWP":-28.2, "STP":1003.7, "SLP":1040.0, "VISIB":12.4, "WDSP":14.4, "PRCP":0.00, "SNDP":0.0, "FRSHTT":"000000", "CLDC":38.5, "WNDDIR":82},{ "STN":722040,"DATE":"2022-05-20", "TIME":"05:51:08", "TEMP":13.8, "DEWP":8.4, "STP":1007.7, "SLP":1009.0, "VISIB":14.9, "WDSP":16.0, "PRCP":0.03, "SNDP":0.0, "FRSHTT":"010000", "CLDC":84.4, "WNDDIR":359},{ "STN":60800,"DATE":"2022-05-20", "TIME":"05:51:08", "TEMP":7.0, "DEWP":2.2, "STP":1013.0, "SLP":1017.4, "VISIB":14.5, "WDSP":16.8, "PRCP":0.00, "SNDP":0.0, "FRSHTT":"000000", "CLDC":75.5, "WNDDIR":174},{ "STN":722042,"DATE":"2022-05-20", "TIME":"05:51:08", "TEMP":15.8, "DEWP":7.8, "STP":1011.7, "SLP":1023.4, "VISIB":13.5, "WDSP":11.3, "PRCP":0.00, "SNDP":0.0, "FRSHTT":"000000", "CLDC":25.9, "WNDDIR":10},{ "STN":711230,"DATE":"2022-05-20", "TIME":"05:51:08", "TEMP":4.5, "DEWP":-4.0, "STP":927.8, "SLP":1012.8, "VISIB":21.1, "WDSP":15.9, "PRCP":0.02, "SNDP":0.1, "FRSHTT":"011000", "CLDC":50.5, "WNDDIR":18},{ "STN":722020,"DATE":"2022-05-20", "TIME":"05:51:08", "TEMP":18.4, "DEWP":11.5, "STP":1015.3, "SLP":1016.1, "VISIB":14.1, "WDSP":12.7, "PRCP":0.08, "SNDP":0.0, "FRSHTT":"010000", "CLDC":50.5, "WNDDIR":283},{ "STN":711200,"DATE":"2022-05-20", "TIME":"05:51:08", "TEMP":5.0, "DEWP":-4.1, "STP":948.4, "SLP":1013.1, "VISIB":21.5, "WDSP":12.7, "PRCP":0.04, "SNDP":0.0, "FRSHTT":"010000", "CLDC":67.1, "WNDDIR":151}]}
,{"WEATHERDATA": [ {"STN":387990,"DATE":"2022-05-20", "TIME":"05:51:09", "TEMP":13.0, "DEWP":-4.5, "STP":992.7, "SLP":1009.4, "VISIB":8.9, "WDSP":10.9, "PRCP":0.00, "SNDP":0.0, "FRSHTT":"000000", "CLDC":99.7, "WNDDIR":104},{ "STN":31180,"DATE":"2022-05-20", "TIME":"05:51:09", "TEMP":8.0, "DEWP":5.1, "STP":1002.6, "SLP":1007.9, "VISIB":33.5, "WDSP":13.9, "PRCP":0.00, "SNDP":0.0, "FRSHTT":"000000", "CLDC":13.1, "WNDDIR":209},{ "STN":830950,"DATE":"2022-05-20", "TIME":"05:51:09", "TEMP":14.9, "DEWP":11.9, "STP":975.1, "SLP":1014.3, "VISIB":13.6, "WDSP":9.5, "PRCP":0.00, "SNDP":0.0, "FRSHTT":"000000", "CLDC":11.5, "WNDDIR":239},{ "STN":727478,"DATE":"2022-05-20", "TIME":"05:51:09", "TEMP":6.1, "DEWP":-2.7, "STP":995.3, "SLP":1002.8, "VISIB":15.0, "WDSP":14.6, "PRCP":0.00, "SNDP":0.0, "FRSHTT":"000000", "CLDC":58.8, "WNDDIR":342},{ "STN":727477,"DATE":"2022-05-20", "TIME":"05:51:09", "TEMP":4.8, "DEWP":-0.4, "STP":997.0, "SLP":1006.4, "VISIB":15.9, "WDSP":18.1, "PRCP":0.00, "SNDP":0.0, "FRSHTT":"000000", "CLDC":81.7, "WNDDIR":234},{ "STN":727476,"DATE":"2022-05-20", "TIME":"05:51:09", "TEMP":4.8, "DEWP":-1.9, "STP":1013.9, "SLP":1016.1, "VISIB":16.1, "WDSP":15.7, "PRCP":0.07, "SNDP":0.0, "FRSHTT":"010000", "CLDC":50.0, "WNDDIR":283},{ "STN":727480,"DATE":"2022-05-20", "TIME":"05:51:09", "TEMP":-1.6, "DEWP":-12.4, "STP":965.0, "SLP":1011.9, "VISIB":22.5, "WDSP":7.9, "PRCP":0.05, "SNDP":0.0, "FRSHTT":"110000", "CLDC":50.2, "WNDDIR":350},{ "STN":216270,"DATE":"2022-05-20", "TIME":"05:51:09", "TEMP":-5.9, "DEWP":-7.5, "STP":1025.6, "SLP":1013.7, "VISIB":16.3, "WDSP":31.3, "PRCP":0.03, "SNDP":0.0, "FRSHTT":"110000", "CLDC":58.9, "WNDDIR":258},{ "STN":727486,"DATE":"2022-05-20", "TIME":"05:51:09", "TEMP":5.3, "DEWP":-1.4, "STP":995.4, "SLP":973.0, "VISIB":15.7, "WDSP":15.2, "PRCP":0.00, "SNDP":0.0, "FRSHTT":"000000", "CLDC":93.1, "WNDDIR":274},{ "STN":476180,"DATE":"2022-05-20", "TIME":"05:51:09", "TEMP":6.8, "DEWP":-2.2, "STP":962.3, "SLP":1009.7, "VISIB":16.3, "WDSP":8.5, "PRCP":0.06, "SNDP":0.0, "FRSHTT":"010000", "CLDC":51.5, "WNDDIR":190}]}
,{"WEATHERDATA": [ {"STN":722251,"DATE":"2022-05-20", "TIME":"05:51:09", "TEMP":7.0, "DEWP":-1.3, "STP":977.1, "SLP":949.9, "VISIB":17.5, "WDSP":5.9, "PRCP":0.00, "SNDP":0.0, "FRSHTT":"000000", "CLDC":75.0, "WNDDIR":347},{ "STN":722261,"DATE":"2022-05-20", "TIME":"05:51:09", "TEMP":15.7, "DEWP":12.0, "STP":988.2, "SLP":985.3, "VISIB":13.6, "WDSP":14.6, "PRCP":0.00, "SNDP":0.0, "FRSHTT":"000000", "CLDC":69.9, "WNDDIR":254},{ "STN":722260,"DATE":"2022-05-20", "TIME":"05:51:09", "TEMP":12.0, "DEWP":7.0, "STP":1009.9, "SLP":1016.0, "VISIB":14.7, "WDSP":6.3, "PRCP":0.12, "SNDP":0.0, "FRSHTT":"010000", "CLDC":65.4, "WNDDIR":341},{ "STN":25900,"DATE":"2022-05-20", "TIME":"05:51:09", "TEMP":5.0, "DEWP":0.3, "STP":1012.6, "SLP":1015.5, "VISIB":14.2, "WDSP":21.0, "PRCP":0.02, "SNDP":0.0, "FRSHTT":"010000", "CLDC":50.3, "WNDDIR":128},{ "STN":60590,"DATE":"2022-05-20", "TIME":"05:51:09", "TEMP":6.5, "DEWP":2.9, "STP":1016.0, "SLP":1014.5, "VISIB":13.3, "WDSP":27.3, "PRCP":0.45, "SNDP":0.0, "FRSHTT":"010000", "CLDC":50.4, "WNDDIR":15},{ "STN":217120,"DATE":"2022-05-20", "TIME":"05:51:09", "TEMP":-7.7, "DEWP":-8.9, "STP":1011.0, "SLP":1023.6, "VISIB":17.1, "WDSP":24.0, "PRCP":0.00, "SNDP":7.8, "FRSHTT":"101000", "CLDC":50.1, "WNDDIR":185},{ "STN":722256,"DATE":"2022-05-20", "TIME":"05:51:09", "TEMP":6.5, "DEWP":6.3, "STP":1001.9, "SLP":1014.3, "VISIB":9.6, "WDSP":6.9, "PRCP":0.00, "SNDP":0.0, "FRSHTT":"000000", "CLDC":41.7, "WNDDIR":3},{ "STN":722269,"DATE":"2022-05-20", "TIME":"05:51:09", "TEMP":14.4, "DEWP":6.5, "STP":1010.8, "SLP":1016.5, "VISIB":12.7, "WDSP":6.2, "PRCP":0.08, "SNDP":0.0, "FRSHTT":"010000", "CLDC":62.1, "WNDDIR":41},{ "STN":60580,"DATE":"2022-05-20", "TIME":"05:51:09", "TEMP":9.9, "DEWP":6.2, "STP":1013.9, "SLP":1014.2, "VISIB":20.4, "WDSP":25.1, "PRCP":0.07, "SNDP":0.0, "FRSHTT":"010000", "CLDC":50.1, "WNDDIR":274},{ "STN":722268,"DATE":"2022-05-20", "TIME":"05:51:09", "TEMP":12.5, "DEWP":7.0, "STP":1011.8, "SLP":1015.4, "VISIB":24.5, "WDSP":12.0, "PRCP":0.06, "SNDP":0.0, "FRSHTT":"010000", "CLDC":70.4, "WNDDIR":277}]}
,{"WEATHERDATA": [ {"STN":24860,"DATE":"2022-05-20", "TIME":"05:51:09", "TEMP":-1.6, "DEWP":-8.4, "STP":976.2, "SLP":955.1, "VISIB":36.6, "WDSP":8.1, "PRCP":0.01, "SNDP":0.0, "FRSHTT":"110000", "CLDC":50.0, "WNDDIR":132},{ "STN":985530,"DATE":"2022-05-20", "TIME":"05:51:09", "TEMP":15.1, "DEWP":13.8, "STP":1043.6, "SLP":1009.8, "VISIB":16.6, "WDSP":4.2, "PRCP":0.05, "SNDP":0.0, "FRSHTT":"010000", "CLDC":50.7, "WNDDIR":167},{ "STN":129920,"DATE":"2022-05-20", "TIME":"05:51:09", "TEMP":9.5, "DEWP":2.3, "STP":1009.1, "SLP":1015.1, "VISIB":23.0, "WDSP":10.5, "PRCP":0.06, "SNDP":0.0, "FRSHTT":"010000", "CLDC":50.5, "WNDDIR":209},{ "STN":114500,"DATE":"2022-05-20", "TIME":"05:51:09", "TEMP":8.2, "DEWP":5.6, "STP":969.0, "SLP":1012.6, "VISIB":14.6, "WDSP":9.9, "PRCP":0.33, "SNDP":0.0, "FRSHTT":"010000", "CLDC":96.7, "WNDDIR":320},{ "STN":273690,"DATE":"2022-05-20", "TIME":"05:51:09", "TEMP":6.5, "DEWP":-0.9, "STP":999.6, "SLP":1012.5, "VISIB":28.7, "WDSP":10.9, "PRCP":0.00, "SNDP":0.0, "FRSHTT":"000000", "CLDC":20.2, "WNDDIR":42},{ "STN":343570,"DATE":"2022-05-20", "TIME":"05:51:09", "TEMP":10.0, "DEWP":0.0, "STP":1012.9, "SLP":1014.1, "VISIB":18.6, "WDSP":16.1, "PRCP":0.01, "SNDP":0.0, "FRSHTT":"010000", "CLDC":87.5, "WNDDIR":172},{ "STN":537720,"DATE":"2022-05-20", "TIME":"05:51:09", "TEMP":7.2, "DEWP":-5.4, "STP":971.8, "SLP":1009.9, "VISIB":15.7, "WDSP":9.0, "PRCP":0.01, "SNDP":0.0, "FRSHTT":"010000", "CLDC":60.8, "WNDDIR":9},{ "STN":132090,"DATE":"2022-05-20", "TIME":"05:51:09", "TEMP":10.9, "DEWP":4.7, "STP":1012.3, "SLP":1015.6, "VISIB":10.4, "WDSP":5.4, "PRCP":0.02, "SNDP":0.0, "FRSHTT":"010000", "CLDC":50.1, "WNDDIR":320},{ "STN":24880,"DATE":"2022-05-20", "TIME":"05:51:09", "TEMP":5.7, "DEWP":3.9, "STP":994.5, "SLP":995.7, "VISIB":19.4, "WDSP":12.6, "PRCP":0.00, "SNDP":0.0, "FRSHTT":"000000", "CLDC":38.9, "WNDDIR":289},{ "STN":985500,"DATE":"2022-05-20", "TIME":"05:51:09", "TEMP":13.7, "DEWP":8.9, "STP":1004.8, "SLP":1009.2, "VISIB":39.9, "WDSP":7.8, "PRCP":0.00, "SNDP":0.0, "FRSHTT":"000000", "CLDC":15.3, "WNDDIR":83}]}
,{"WEATHERDATA": [ {"STN":226950,"DATE":"2022-05-20", "TIME":"05:51:09", "TEMP":-5.4, "DEWP":-12.3, "STP":981.7, "SLP":1001.0, "VISIB":51.9, "WDSP":8.0, "PRCP":0.00, "SNDP":0.0, "FRSHTT":"100000", "CLDC":79.9, "WNDDIR":108},{ "STN":720317,"DATE":"2022-05-20", "TIME":"05:51:09", "TEMP":4.2, "DEWP":-5.6, "STP":1019.6, "SLP":1039.8, "VISIB":15.9, "WDSP":6.1, "PRCP":0.00, "SNDP":0.0, "FRSHTT":"000000", "CLDC":2.2, "WNDDIR":50},{ "STN":747320,"DATE":"2022-05-20", "TIME":"05:51:09", "TEMP":13.1, "DEWP":-7.5, "STP":942.9, "SLP":1009.5, "VISIB":67.6, "WDSP":10.3, "PRCP":0.01, "SNDP":0.0, "FRSHTT":"010000", "CLDC":50.3, "WNDDIR":227},{ "STN":720318,"DATE":"2022-05-20", "TIME":"05:51:09", "TEMP":12.8, "DEWP":6.1, "STP":989.9, "SLP":984.2, "VISIB":15.1, "WDSP":7.0, "PRCP":0.00, "SNDP":0.0, "FRSHTT":"000000", "CLDC":24.3, "WNDDIR":7},{ "STN":720319,"DATE":"2022-05-20", "TIME":"05:51:09", "TEMP":10.7, "DEWP":-6.0, "STP":1011.2, "SLP":1009.8, "VISIB":15.4, "WDSP":11.4, "PRCP":0.00, "SNDP":0.0, "FRSHTT":"000000", "CLDC":13.8, "WNDDIR":18},{ "STN":720313,"DATE":"2022-05-20", "TIME":"05:51:09", "TEMP":12.6, "DEWP":7.4, "STP":1012.0, "SLP":989.8, "VISIB":12.5, "WDSP":22.8, "PRCP":0.00, "SNDP":0.0, "FRSHTT":"000000", "CLDC":58.7, "WNDDIR":122},{ "STN":720314,"DATE":"2022-05-20", "TIME":"05:51:09", "TEMP":12.6, "DEWP":2.5, "STP":996.0, "SLP":1013.5, "VISIB":16.9, "WDSP":8.5, "PRCP":0.00, "SNDP":0.0, "FRSHTT":"000000", "CLDC":94.7, "WNDDIR":42},{ "STN":36551,"DATE":"2022-05-20", "TIME":"05:51:09", "TEMP":7.0, "DEWP":2.8, "STP":996.8, "SLP":991.1, "VISIB":7.7, "WDSP":8.7, "PRCP":0.06, "SNDP":0.0, "FRSHTT":"010000", "CLDC":82.5, "WNDDIR":184},{ "STN":685120,"DATE":"2022-05-20", "TIME":"05:51:09", "TEMP":10.1, "DEWP":2.4, "STP":917.7, "SLP":919.2, "VISIB":26.0, "WDSP":13.7, "PRCP":0.07, "SNDP":0.0, "FRSHTT":"010000", "CLDC":79.5, "WNDDIR":255},{ "STN":949400,"DATE":"2022-05-20", "TIME":"05:51:09", "TEMP":16.6, "DEWP":15.3, "STP":1015.1, "SLP":1025.3, "VISIB":28.1, "WDSP":6.6, "PRCP":0.01, "SNDP":0.0, "FRSHTT":"010000", "CLDC":50.3, "WNDDIR":330}]}
,{"WEATHERDATA": [ {"STN":471620,"DATE":"2022-05-20", "TIME":"05:51:09", "TEMP":10.8, "DEWP":5.6, "STP":1012.8, "SLP":1011.7, "VISIB":19.6, "WDSP":8.9, "PRCP":0.02, "SNDP":0.0, "FRSHTT":"010000", "CLDC":50.1, "WNDDIR":252},{ "STN":298700,"DATE":"2022-05-20", "TIME":"05:51:09", "TEMP":5.0, "DEWP":-6.6, "STP":1024.4, "SLP":1011.8, "VISIB":51.8, "WDSP":3.2, "PRCP":0.00, "SNDP":0.0, "FRSHTT":"000000", "CLDC":86.9, "WNDDIR":190},{ "STN":718190,"DATE":"2022-05-20", "TIME":"05:51:09", "TEMP":0.0, "DEWP":-2.6, "STP":1003.0, "SLP":1015.3, "VISIB":14.1, "WDSP":21.1, "PRCP":0.04, "SNDP":0.9, "FRSHTT":"111000", "CLDC":55.8, "WNDDIR":164},{ "STN":489100,"DATE":"2022-05-20", "TIME":"05:51:09", "TEMP":20.8, "DEWP":18.0, "STP":1008.0, "SLP":1017.6, "VISIB":11.0, "WDSP":7.8, "PRCP":0.00, "SNDP":0.0, "FRSHTT":"000000", "CLDC":57.2, "WNDDIR":87},{ "STN":172050,"DATE":"2022-05-20", "TIME":"05:51:09", "TEMP":4.8, "DEWP":-6.7, "STP":835.3, "SLP":832.6, "VISIB":29.2, "WDSP":2.7, "PRCP":0.00, "SNDP":0.0, "FRSHTT":"000000", "CLDC":0.1, "WNDDIR":32},{ "STN":718180,"DATE":"2022-05-20", "TIME":"05:51:09", "TEMP":-0.3, "DEWP":-4.5, "STP":1014.4, "SLP":1015.4, "VISIB":20.4, "WDSP":19.2, "PRCP":0.03, "SNDP":4.1, "FRSHTT":"111000", "CLDC":50.2, "WNDDIR":177},{ "STN":762530,"DATE":"2022-05-20", "TIME":"05:51:09", "TEMP":21.8, "DEWP":3.8, "STP":1005.9, "SLP":1011.8, "VISIB":18.5, "WDSP":8.9, "PRCP":0.00, "SNDP":0.0, "FRSHTT":"000000", "CLDC":45.2, "WNDDIR":81},{ "STN":749538,"DATE":"2022-05-20", "TIME":"05:51:09", "TEMP":3.7, "DEWP":-4.2, "STP":945.3, "SLP":1013.8, "VISIB":32.8, "WDSP":8.0, "PRCP":0.00, "SNDP":0.0, "FRSHTT":"000000", "CLDC":17.9, "WNDDIR":255},{ "STN":298690,"DATE":"2022-05-20", "TIME":"05:51:09", "TEMP":7.1, "DEWP":-7.4, "STP":987.1, "SLP":1010.5, "VISIB":17.4, "WDSP":4.9, "PRCP":0.00, "SNDP":0.0, "FRSHTT":"000000", "CLDC":61.4, "WNDDIR":317},{ "STN":947260,"DATE":"2022-05-20", "TIME":"05:51:09", "TEMP":12.7, "DEWP":8.6, "STP":910.6, "SLP":1019.6, "VISIB":30.8, "WDSP":9.5, "PRCP":0.00, "SNDP":0.0, "FRSHTT":"000000", "CLDC":53.0, "WNDDIR":103}]}
,{"WEATHERDATA": [ {"STN":728340,"DATE":"2022-05-20", "TIME":"05:51:09", "TEMP":-3.6, "DEWP":-13.2, "STP":973.2, "SLP":1014.0, "VISIB":22.0, "WDSP":9.5, "PRCP":0.00, "SNDP":0.0, "FRSHTT":"100000", "CLDC":87.4, "WNDDIR":23},{ "STN":32110,"DATE":"2022-05-20", "TIME":"05:51:09", "TEMP":8.8, "DEWP":6.9, "STP":1010.1, "SLP":998.4, "VISIB":17.2, "WDSP":12.0, "PRCP":0.00, "SNDP":0.0, "FRSHTT":"000000", "CLDC":50.6, "WNDDIR":258},{ "STN":371710,"DATE":"2022-05-20", "TIME":"05:51:09", "TEMP":11.3, "DEWP":7.3, "STP":1011.9, "SLP":1015.4, "VISIB":15.5, "WDSP":8.6, "PRCP":0.07, "SNDP":0.0, "FRSHTT":"010000", "CLDC":97.4, "WNDDIR":255},{ "STN":124900,"DATE":"2022-05-20", "TIME":"05:51:09", "TEMP":9.3, "DEWP":1.0, "STP":1017.0, "SLP":1010.0, "VISIB":10.5, "WDSP":8.5, "PRCP":0.00, "SNDP":0.0, "FRSHTT":"000000", "CLDC":36.9, "WNDDIR":112},{ "STN":62690,"DATE":"2022-05-20", "TIME":"05:51:09", "TEMP":7.3, "DEWP":2.7, "STP":1013.1, "SLP":1012.8, "VISIB":18.8, "WDSP":17.0, "PRCP":0.07, "SNDP":0.0, "FRSHTT":"010000", "CLDC":50.9, "WNDDIR":117},{ "STN":62693,"DATE":"2022-05-20", "TIME":"05:51:09", "TEMP":7.9, "DEWP":0.8, "STP":990.5, "SLP":979.7, "VISIB":10.0, "WDSP":22.2, "PRCP":0.00, "SNDP":0.0, "FRSHTT":"000000", "CLDC":81.3, "WNDDIR":132},{ "STN":76450,"DATE":"2022-05-20", "TIME":"05:51:09", "TEMP":11.8, "DEWP":6.0, "STP":1006.4, "SLP":1014.4, "VISIB":19.5, "WDSP":12.9, "PRCP":0.05, "SNDP":0.0, "FRSHTT":"010000", "CLDC":51.6, "WNDDIR":151},{ "STN":274790,"DATE":"2022-05-20", "TIME":"05:51:09", "TEMP":7.6, "DEWP":-2.0, "STP":1010.6, "SLP":1014.6, "VISIB":39.8, "WDSP":10.7, "PRCP":0.02, "SNDP":0.0, "FRSHTT":"010000", "CLDC":74.0, "WNDDIR":196},{ "STN":107320,"DATE":"2022-05-20", "TIME":"05:51:09", "TEMP":4.8, "DEWP":4.5, "STP":1046.1, "SLP":1012.0, "VISIB":1.5, "WDSP":13.7, "PRCP":0.17, "SNDP":0.0, "FRSHTT":"010000", "CLDC":67.1, "WNDDIR":244},{ "STN":14770,"DATE":"2022-05-20", "TIME":"05:51:09", "TEMP":5.1, "DEWP":-5.5, "STP":1006.0, "SLP":1016.7, "VISIB":52.9, "WDSP":12.9, "PRCP":0.04, "SNDP":0.0, "FRSHTT":"010000", "CLDC":50.2, "WNDDIR":248}]}
,{"WEATHERDATA": [ {"STN":572970,"DATE":"2022-05-20", "TIME":"05:51:10", "TEMP":14.2, "DEWP":8.1, "STP":1006.9, "SLP":1009.8, "VISIB":15.7, "WDSP":6.7, "PRCP":0.08, "SNDP":0.0, "FRSHTT":"010000", "CLDC":50.7, "WNDDIR":192},{ "STN":941500,"DATE":"2022-05-20", "TIME":"05:51:10", "TEMP":10.2, "DEWP":5.1, "STP":1006.1, "SLP":1012.2, "VISIB":38.8, "WDSP":12.5, "PRCP":0.22, "SNDP":0.0, "FRSHTT":"010000", "CLDC":80.0, "WNDDIR":46},{ "STN":25300,"DATE":"2022-05-20", "TIME":"05:51:10", "TEMP":0.9, "DEWP":-8.8, "STP":1013.8, "SLP":1038.0, "VISIB":29.6, "WDSP":18.3, "PRCP":0.00, "SNDP":0.0, "FRSHTT":"000000", "CLDC":58.2, "WNDDIR":325},{ "STN":60240,"DATE":"2022-05-20", "TIME":"05:51:10", "TEMP":6.7, "DEWP":4.2, "STP":1007.4, "SLP":1015.7, "VISIB":10.7, "WDSP":23.1, "PRCP":0.05, "SNDP":0.0, "FRSHTT":"010000", "CLDC":50.0, "WNDDIR":2},{ "STN":25260,"DATE":"2022-05-20", "TIME":"05:51:10", "TEMP":5.8, "DEWP":-1.0, "STP":1014.6, "SLP":1015.5, "VISIB":9.1, "WDSP":13.2, "PRCP":0.03, "SNDP":0.0, "FRSHTT":"010000", "CLDC":84.8, "WNDDIR":150},{ "STN":513790,"DATE":"2022-05-20", "TIME":"05:51:10", "TEMP":7.7, "DEWP":-6.6, "STP":995.0, "SLP":1014.1, "VISIB":31.5, "WDSP":11.0, "PRCP":0.04, "SNDP":0.0, "FRSHTT":"010000", "CLDC":51.2, "WNDDIR":189},{ "STN":614420,"DATE":"2022-05-20", "TIME":"05:51:10", "TEMP":19.9, "DEWP":9.8, "STP":1002.2, "SLP":1012.2, "VISIB":8.7, "WDSP":20.4, "PRCP":0.00, "SNDP":0.0, "FRSHTT":"000000", "CLDC":30.6, "WNDDIR":314},{ "STN":304930,"DATE":"2022-05-20", "TIME":"05:51:10", "TEMP":-1.4, "DEWP":-12.3, "STP":978.1, "SLP":1012.7, "VISIB":45.5, "WDSP":13.1, "PRCP":0.00, "SNDP":0.0, "FRSHTT":"100000", "CLDC":36.2, "WNDDIR":147},{ "STN":60210,"DATE":"2022-05-20", "TIME":"05:51:10", "TEMP":6.9, "DEWP":4.4, "STP":1018.7, "SLP":1016.6, "VISIB":22.3, "WDSP":22.5, "PRCP":0.00, "SNDP":0.0, "FRSHTT":"000000", "CLDC":81.2, "WNDDIR":248},{ "STN":711820,"DATE":"2022-05-20", "TIME":"05:51:10", "TEMP":-0.6, "DEWP":-7.6, "STP":961.2, "SLP":1014.5, "VISIB":19.3, "WDSP":14.0, "PRCP":0.03, "SNDP":4.2, "FRSHTT":"111000", "CLDC":82.7, "WNDDIR":309}]}
,{"WEATHERDATA": [ {"STN":725527,"DATE":"2022-05-20", "TIME":"05:51:10", "TEMP":11.1, "DEWP":2.9, "STP":1015.4, "SLP":1013.7, "VISIB":13.9, "WDSP":22.8, "PRCP":0.07, "SNDP":0.0, "FRSHTT":"010000", "CLDC":50.7, "WNDDIR":68},{ "STN":725524,"DATE":"2022-05-20", "TIME":"05:51:10", "TEMP":9.1, "DEWP":-0.7, "STP":1008.1, "SLP":1004.6, "VISIB":17.8, "WDSP":19.7, "PRCP":0.02, "SNDP":0.0, "FRSHTT":"010000", "CLDC":50.4, "WNDDIR":42},{ "STN":109610,"DATE":"2022-05-20", "TIME":"05:51:10", "TEMP":-4.5, "DEWP":-6.3, "STP":945.8, "SLP":964.3, "VISIB":20.8, "WDSP":22.5, "PRCP":0.10, "SNDP":7.0, "FRSHTT":"111000", "CLDC":51.4, "WNDDIR":103},{ "STN":725525,"DATE":"2022-05-20", "TIME":"05:51:10", "TEMP":11.1, "DEWP":2.2, "STP":1007.8, "SLP":1007.4, "VISIB":16.3, "WDSP":20.8, "PRCP":0.00, "SNDP":0.0, "FRSHTT":"000000", "CLDC":20.8, "WNDDIR":129},{ "STN":64490,"DATE":"2022-05-20", "TIME":"05:51:10", "TEMP":8.9, "DEWP":4.5, "STP":1006.3, "SLP":1016.2, "VISIB":11.1, "WDSP":11.0, "PRCP":0.05, "SNDP":0.0, "FRSHTT":"010000", "CLDC":63.6, "WNDDIR":254},{ "STN":725520,"DATE":"2022-05-20", "TIME":"05:51:10", "TEMP":10.9, "DEWP":2.7, "STP":958.7, "SLP":1014.0, "VISIB":19.0, "WDSP":14.8, "PRCP":0.11, "SNDP":0.0, "FRSHTT":"010000", "CLDC":50.2, "WNDDIR":140},{ "STN":29290,"DATE":"2022-05-20", "TIME":"05:51:10", "TEMP":3.4, "DEWP":-3.2, "STP":1019.2, "SLP":1015.4, "VISIB":27.7, "WDSP":11.8, "PRCP":0.02, "SNDP":0.0, "FRSHTT":"010000", "CLDC":60.3, "WNDDIR":180},{ "STN":293550,"DATE":"2022-05-20", "TIME":"05:51:10", "TEMP":2.7, "DEWP":-7.8, "STP":1026.7, "SLP":1020.6, "VISIB":20.5, "WDSP":7.3, "PRCP":0.00, "SNDP":0.0, "FRSHTT":"000000", "CLDC":10.9, "WNDDIR":334},{ "STN":64500,"DATE":"2022-05-20", "TIME":"05:51:10", "TEMP":9.0, "DEWP":4.9, "STP":1012.3, "SLP":1016.9, "VISIB":9.6, "WDSP":14.8, "PRCP":0.11, "SNDP":0.0, "FRSHTT":"010000", "CLDC":50.4, "WNDDIR":328},{ "STN":109620,"DATE":"2022-05-20", "TIME":"05:51:10", "TEMP":7.9, "DEWP":1.3, "STP":972.5, "SLP":973.0, "VISIB":30.6, "WDSP":14.7, "PRCP":0.09, "SNDP":0.0, "FRSHTT":"010000", "CLDC":89.5, "WNDDIR":190}]}
,{"WEATHERDATA": [ {"STN":722480,"DATE":"2022-05-20", "TIME":"05:51:10", "TEMP":16.4, "DEWP":10.8, "STP":1005.6, "SLP":1014.2, "VISIB":16.9, "WDSP":10.5, "PRCP":0.04, "SNDP":0.0, "FRSHTT":"010000", "CLDC":53.2, "WNDDIR":217},{ "STN":132230,"DATE":"2022-05-20", "TIME":"05:51:10", "TEMP":7.8, "DEWP":5.4, "STP":953.2, "SLP":1018.8, "VISIB":8.0, "WDSP":5.3, "PRCP":0.17, "SNDP":0.0, "FRSHTT":"010000", "CLDC":64.0, "WNDDIR":96},{ "STN":710774,"DATE":"2022-05-20", "TIME":"05:51:10", "TEMP":6.4, "DEWP":-2.3, "STP":1018.5, "SLP":1014.2, "VISIB":22.9, "WDSP":11.8, "PRCP":0.00, "SNDP":0.0, "FRSHTT":"000000", "CLDC":27.7, "WNDDIR":142},{ "STN":130240,"DATE":"2022-05-20", "TIME":"05:51:10", "TEMP":7.7, "DEWP":6.0, "STP":911.6, "SLP":925.0, "VISIB":4.1, "WDSP":5.8, "PRCP":0.54, "SNDP":0.0, "FRSHTT":"010000", "CLDC":53.0, "WNDDIR":285},{ "STN":722489,"DATE":"2022-05-20", "TIME":"05:51:10", "TEMP":15.0, "DEWP":6.7, "STP":1007.3, "SLP":1012.6, "VISIB":16.0, "WDSP":10.5, "PRCP":0.05, "SNDP":0.0, "FRSHTT":"010000", "CLDC":50.5, "WNDDIR":197},{ "STN":167180,"DATE":"2022-05-20", "TIME":"05:51:10", "TEMP":15.2, "DEWP":4.3, "STP":1002.8, "SLP":998.6, "VISIB":10.1, "WDSP":13.1, "PRCP":0.00, "SNDP":0.0, "FRSHTT":"000000", "CLDC":72.6, "WNDDIR":292},{ "STN":722488,"DATE":"2022-05-20", "TIME":"05:51:10", "TEMP":14.5, "DEWP":7.1, "STP":1005.8, "SLP":1016.1, "VISIB":14.0, "WDSP":12.3, "PRCP":0.04, "SNDP":0.0, "FRSHTT":"010000", "CLDC":50.0, "WNDDIR":323},{ "STN":710780,"DATE":"2022-05-20", "TIME":"05:51:10", "TEMP":1.5, "DEWP":-5.5, "STP":971.2, "SLP":1014.9, "VISIB":20.9, "WDSP":11.5, "PRCP":0.05, "SNDP":0.1, "FRSHTT":"011000", "CLDC":50.8, "WNDDIR":49},{ "STN":722469,"DATE":"2022-05-20", "TIME":"05:51:10", "TEMP":16.4, "DEWP":11.9, "STP":1032.4, "SLP":1011.7, "VISIB":14.1, "WDSP":11.9, "PRCP":0.00, "SNDP":0.0, "FRSHTT":"000000", "CLDC":58.9, "WNDDIR":181},{ "STN":132240,"DATE":"2022-05-20", "TIME":"05:51:10", "TEMP":10.6, "DEWP":3.7, "STP":1010.1, "SLP":1014.9, "VISIB":17.0, "WDSP":10.0, "PRCP":0.02, "SNDP":0.0, "FRSHTT":"010000", "CLDC":62.9, "WNDDIR":319}]}
,{"WEATHERDATA": [ {"STN":262890,"DATE":"2022-05-20", "TIME":"05:51:10", "TEMP":5.4, "DEWP":0.4, "STP":1020.0, "SLP":1015.7, "VISIB":12.2, "WDSP":5.8, "PRCP":0.00, "SNDP":0.0, "FRSHTT":"000000", "CLDC":85.0, "WNDDIR":227},{ "STN":119930,"DATE":"2022-05-20", "TIME":"05:51:10", "TEMP":8.5, "DEWP":3.1, "STP":993.0, "SLP":1013.3, "VISIB":26.1, "WDSP":3.7, "PRCP":0.26, "SNDP":0.0, "FRSHTT":"010000", "CLDC":50.8, "WNDDIR":179},{ "STN":946590,"DATE":"2022-05-20", "TIME":"05:51:10", "TEMP":4.7, "DEWP":-2.9, "STP":1002.0, "SLP":1008.2, "VISIB":40.5, "WDSP":13.7, "PRCP":0.01, "SNDP":0.0, "FRSHTT":"010000", "CLDC":50.9, "WNDDIR":161},{ "STN":71970,"DATE":"2022-05-20", "TIME":"05:51:10", "TEMP":9.8, "DEWP":4.6, "STP":1020.0, "SLP":1015.2, "VISIB":10.4, "WDSP":10.7, "PRCP":0.02, "SNDP":0.0, "FRSHTT":"010000", "CLDC":93.3, "WNDDIR":129},{ "STN":946560,"DATE":"2022-05-20", "TIME":"05:51:10", "TEMP":4.5, "DEWP":2.4, "STP":1021.0, "SLP":1021.5, "VISIB":26.8, "WDSP":6.7, "PRCP":0.05, "SNDP":0.0, "FRSHTT":"010000", "CLDC":50.3, "WNDDIR":98},{ "STN":717020,"DATE":"2022-05-20", "TIME":"05:51:10", "TEMP":4.5, "DEWP":0.2, "STP":1012.9, "SLP":1015.9, "VISIB":20.3, "WDSP":24.8, "PRCP":0.03, "SNDP":0.0, "FRSHTT":"010000", "CLDC":50.2, "WNDDIR":86},{ "STN":946570,"DATE":"2022-05-20", "TIME":"05:51:10", "TEMP":3.9, "DEWP":-1.3, "STP":1014.1, "SLP":1021.0, "VISIB":41.7, "WDSP":6.4, "PRCP":0.01, "SNDP":0.0, "FRSHTT":"010000", "CLDC":78.9, "WNDDIR":268},{ "STN":717010,"DATE":"2022-05-20", "TIME":"05:51:10", "TEMP":5.5, "DEWP":-1.4, "STP":1005.8, "SLP":1011.1, "VISIB":14.2, "WDSP":12.2, "PRCP":0.10, "SNDP":0.0, "FRSHTT":"010000", "CLDC":63.3, "WNDDIR":204},{ "STN":349490,"DATE":"2022-05-20", "TIME":"05:51:10", "TEMP":8.3, "DEWP":1.3, "STP":998.8, "SLP":995.6, "VISIB":9.9, "WDSP":23.1, "PRCP":0.00, "SNDP":0.0, "FRSHTT":"000000", "CLDC":21.2, "WNDDIR":278},{ "STN":20200,"DATE":"2022-05-20", "TIME":"05:51:10", "TEMP":0.0, "DEWP":-3.3, "STP":990.9, "SLP":1011.6, "VISIB":31.6, "WDSP":12.1, "PRCP":0.10, "SNDP":14.1, "FRSHTT":"011000", "CLDC":60.6, "WNDDIR":219}]}
,{"WEATHERDATA": [ {"STN":122260,"DATE":"2022-05-20", "TIME":"05:51:10", "TEMP":9.7, "DEWP":4.0, "STP":1035.4, "SLP":1017.7, "VISIB":8.6, "WDSP":14.3, "PRCP":0.00, "SNDP":0.0, "FRSHTT":"000000", "CLDC":43.1, "WNDDIR":339},{ "STN":719150,"DATE":"2022-05-20", "TIME":"05:51:10", "TEMP":-8.2, "DEWP":-10.4, "STP":1009.3, "SLP":1017.7, "VISIB":20.8, "WDSP":11.4, "PRCP":0.01, "SNDP":6.4, "FRSHTT":"111000", "CLDC":50.7, "WNDDIR":277},{ "STN":948340,"DATE":"2022-05-20", "TIME":"05:51:10", "TEMP":5.0, "DEWP":0.3, "STP":985.2, "SLP":1020.7, "VISIB":34.6, "WDSP":9.8, "PRCP":0.03, "SNDP":0.0, "FRSHTT":"010000", "CLDC":55.1, "WNDDIR":319},{ "STN":35413,"DATE":"2022-05-20", "TIME":"05:51:10", "TEMP":8.3, "DEWP":3.2, "STP":995.8, "SLP":999.6, "VISIB":11.6, "WDSP":15.7, "PRCP":0.00, "SNDP":0.0, "FRSHTT":"000000", "CLDC":19.7, "WNDDIR":119},{ "STN":719145,"DATE":"2022-05-20", "TIME":"05:51:10", "TEMP":-4.7, "DEWP":-7.4, "STP":1002.8, "SLP":1020.5, "VISIB":23.0, "WDSP":6.4, "PRCP":0.00, "SNDP":0.0, "FRSHTT":"100000", "CLDC":93.9, "WNDDIR":97},{ "STN":607650,"DATE":"2022-05-20", "TIME":"05:51:10", "TEMP":16.9, "DEWP":9.8, "STP":1011.0, "SLP":1014.9, "VISIB":10.4, "WDSP":12.4, "PRCP":0.00, "SNDP":0.0, "FRSHTT":"000000", "CLDC":55.1, "WNDDIR":270},{ "STN":871780,"DATE":"2022-05-20", "TIME":"05:51:10", "TEMP":8.5, "DEWP":4.5, "STP":1006.0, "SLP":1015.5, "VISIB":13.9, "WDSP":12.7, "PRCP":0.08, "SNDP":0.0, "FRSHTT":"010000", "CLDC":50.0, "WNDDIR":93},{ "STN":245570,"DATE":"2022-05-20", "TIME":"05:51:10", "TEMP":2.5, "DEWP":-11.1, "STP":966.0, "SLP":995.8, "VISIB":50.9, "WDSP":13.1, "PRCP":0.00, "SNDP":0.0, "FRSHTT":"000000", "CLDC":70.8, "WNDDIR":110},{ "STN":719156,"DATE":"2022-05-20", "TIME":"05:51:10", "TEMP":-7.3, "DEWP":-9.2, "STP":1019.4, "SLP":1016.1, "VISIB":12.9, "WDSP":22.9, "PRCP":0.00, "SNDP":0.0, "FRSHTT":"100000", "CLDC":54.4, "WNDDIR":136},{ "STN":295570,"DATE":"2022-05-20", "TIME":"05:51:10", "TEMP":3.3, "DEWP":-5.4, "STP":1010.4, "SLP":1013.6, "VISIB":31.2, "WDSP":14.7, "PRCP":0.08, "SNDP":0.0, "FRSHTT":"010000", "CLDC":51.1, "WNDDIR":5}]}
,{"WEATHERDATA": [ {"STN":316510,"DATE":"2022-05-20", "TIME":"05:51:10", "TEMP":2.1, "DEWP":-0.6, "STP":993.0, "SLP":1009.0, "VISIB":25.6, "WDSP":9.1, "PRCP":0.02, "SNDP":0.0, "FRSHTT":"010000", "CLDC":50.4, "WNDDIR":184},{ "STN":160520,"DATE":"2022-05-20", "TIME":"05:51:10", "TEMP":-6.7, "DEWP":-7.8, "STP":661.0, "SLP":642.1, "VISIB":5.2, "WDSP":10.0, "PRCP":0.05, "SNDP":0.0, "FRSHTT":"110000", "CLDC":73.4, "WNDDIR":41},{ "STN":330270,"DATE":"2022-05-20", "TIME":"05:51:10", "TEMP":8.6, "DEWP":1.3, "STP":1009.3, "SLP":1015.7, "VISIB":11.8, "WDSP":5.1, "PRCP":0.03, "SNDP":0.0, "FRSHTT":"010000", "CLDC":50.4, "WNDDIR":137},{ "STN":21760,"DATE":"2022-05-20", "TIME":"05:51:10", "TEMP":4.2, "DEWP":0.1, "STP":1005.2, "SLP":991.8, "VISIB":42.3, "WDSP":7.4, "PRCP":0.00, "SNDP":0.0, "FRSHTT":"000000", "CLDC":52.2, "WNDDIR":135},{ "STN":21730,"DATE":"2022-05-20", "TIME":"05:51:10", "TEMP":0.5, "DEWP":-1.2, "STP":1025.2, "SLP":1028.3, "VISIB":27.8, "WDSP":6.1, "PRCP":0.08, "SNDP":0.0, "FRSHTT":"010000", "CLDC":50.2, "WNDDIR":210},{ "STN":485680,"DATE":"2022-05-20", "TIME":"05:51:10", "TEMP":19.5, "DEWP":15.9, "STP":1008.5, "SLP":1008.3, "VISIB":10.0, "WDSP":5.4, "PRCP":0.11, "SNDP":0.0, "FRSHTT":"010000", "CLDC":50.3, "WNDDIR":353},{ "STN":299390,"DATE":"2022-05-20", "TIME":"05:51:10", "TEMP":6.2, "DEWP":-3.6, "STP":995.0, "SLP":1014.7, "VISIB":14.2, "WDSP":6.1, "PRCP":0.03, "SNDP":0.0, "FRSHTT":"010000", "CLDC":50.2, "WNDDIR":45},{ "STN":784860,"DATE":"2022-05-20", "TIME":"05:51:10", "TEMP":12.9, "DEWP":10.2, "STP":1014.9, "SLP":1014.6, "VISIB":25.4, "WDSP":5.9, "PRCP":0.07, "SNDP":0.0, "FRSHTT":"010000", "CLDC":50.3, "WNDDIR":75},{ "STN":784850,"DATE":"2022-05-20", "TIME":"05:51:10", "TEMP":13.5, "DEWP":9.2, "STP":1016.9, "SLP":1014.5, "VISIB":11.1, "WDSP":11.8, "PRCP":0.02, "SNDP":0.0, "FRSHTT":"010000", "CLDC":51.8, "WNDDIR":13},{ "STN":470520,"DATE":"2022-05-20", "TIME":"05:51:10", "TEMP":4.9, "DEWP":-6.9, "STP":1028.6, "SLP":1012.6, "VISIB":15.0, "WDSP":14.8, "PRCP":0.00, "SNDP":0.0, "FRSHTT":"000000", "CLDC":78.0, "WNDDIR":346}]}
,{"WEATHERDATA": [ {"STN":725404,"DATE":"2022-05-20", "TIME":"05:51:10", "TEMP":7.9, "DEWP":1.9, "STP":1013.6, "SLP":1015.3, "VISIB":15.2, "WDSP":13.6, "PRCP":0.02, "SNDP":0.0, "FRSHTT":"010000", "CLDC":98.3, "WNDDIR":44},{ "STN":725407,"DATE":"2022-05-20", "TIME":"05:51:10", "TEMP":2.7, "DEWP":-4.0, "STP":1019.9, "SLP":1016.3, "VISIB":16.3, "WDSP":12.9, "PRCP":0.00, "SNDP":0.0, "FRSHTT":"000000", "CLDC":49.2, "WNDDIR":242},{ "STN":725406,"DATE":"2022-05-20", "TIME":"05:51:10", "TEMP":3.4, "DEWP":-0.6, "STP":1007.0, "SLP":1002.0, "VISIB":16.6, "WDSP":13.6, "PRCP":0.00, "SNDP":0.0, "FRSHTT":"000000", "CLDC":95.1, "WNDDIR":26},{ "STN":308290,"DATE":"2022-05-20", "TIME":"05:51:10", "TEMP":3.1, "DEWP":-8.3, "STP":983.2, "SLP":1012.3, "VISIB":45.9, "WDSP":12.7, "PRCP":0.01, "SNDP":0.0, "FRSHTT":"010000", "CLDC":50.2, "WNDDIR":66},{ "STN":725408,"DATE":"2022-05-20", "TIME":"05:51:10", "TEMP":2.9, "DEWP":-3.6, "STP":1012.7, "SLP":998.8, "VISIB":17.4, "WDSP":15.0, "PRCP":0.00, "SNDP":0.0, "FRSHTT":"000000", "CLDC":20.8, "WNDDIR":162},{ "STN":725409,"DATE":"2022-05-20", "TIME":"05:51:10", "TEMP":7.0, "DEWP":0.9, "STP":996.4, "SLP":997.4, "VISIB":12.9, "WDSP":9.5, "PRCP":0.00, "SNDP":0.0, "FRSHTT":"000000", "CLDC":32.7, "WNDDIR":49},{ "STN":725414,"DATE":"2022-05-20", "TIME":"05:51:10", "TEMP":7.5, "DEWP":2.1, "STP":994.8, "SLP":994.9, "VISIB":13.0, "WDSP":11.3, "PRCP":0.00, "SNDP":0.0, "FRSHTT":"000000", "CLDC":6.3, "WNDDIR":159},{ "STN":725415,"DATE":"2022-05-20", "TIME":"05:51:10", "TEMP":6.5, "DEWP":-0.9, "STP":1000.4, "SLP":990.5, "VISIB":13.9, "WDSP":8.7, "PRCP":0.00, "SNDP":0.0, "FRSHTT":"000000", "CLDC":1.2, "WNDDIR":328},{ "STN":478220,"DATE":"2022-05-20", "TIME":"05:51:10", "TEMP":8.7, "DEWP":2.8, "STP":1008.1, "SLP":1010.7, "VISIB":15.4, "WDSP":7.9, "PRCP":0.38, "SNDP":0.0, "FRSHTT":"010000", "CLDC":70.6, "WNDDIR":184},{ "STN":29150,"DATE":"2022-05-20", "TIME":"05:51:10", "TEMP":4.1, "DEWP":-3.4, "STP":1014.3, "SLP":1016.7, "VISIB":29.9, "WDSP":8.2, "PRCP":0.01, "SNDP":0.0, "FRSHTT":"010000", "CLDC":83.2, "WNDDIR":252}]}
,{"WEATHERDATA": [ {"STN":38300,"DATE":"2022-05-20", "TIME":"05:51:10", "TEMP":6.3, "DEWP":6.2, "STP":990.7, "SLP":1000.0, "VISIB":5.9, "WDSP":9.2, "PRCP":0.00, "SNDP":0.0, "FRSHTT":"000000", "CLDC":59.6, "WNDDIR":18},{ "STN":484610,"DATE":"2022-05-20", "TIME":"05:51:10", "TEMP":22.3, "DEWP":18.6, "STP":1000.2, "SLP":1007.2, "VISIB":10.7, "WDSP":11.6, "PRCP":0.17, "SNDP":0.0, "FRSHTT":"010000", "CLDC":68.2, "WNDDIR":86},{ "STN":84950,"DATE":"2022-05-20", "TIME":"05:51:10", "TEMP":15.0, "DEWP":9.7, "STP":1018.3, "SLP":1014.9, "VISIB":12.8, "WDSP":16.9, "PRCP":0.02, "SNDP":0.0, "FRSHTT":"010000", "CLDC":50.5, "WNDDIR":179},{ "STN":766250,"DATE":"2022-05-20", "TIME":"05:51:10", "TEMP":13.9, "DEWP":1.7, "STP":898.9, "SLP":983.5, "VISIB":10.8, "WDSP":15.7, "PRCP":0.00, "SNDP":0.0, "FRSHTT":"000000", "CLDC":89.4, "WNDDIR":294},{ "STN":22740,"DATE":"2022-05-20", "TIME":"05:51:10", "TEMP":-1.7, "DEWP":-7.7, "STP":990.8, "SLP":1016.7, "VISIB":51.0, "WDSP":7.9, "PRCP":0.02, "SNDP":0.0, "FRSHTT":"110000", "CLDC":89.6, "WNDDIR":255},{ "STN":406210,"DATE":"2022-05-20", "TIME":"05:51:10", "TEMP":20.7, "DEWP":-2.7, "STP":1029.9, "SLP":1003.6, "VISIB":9.2, "WDSP":25.5, "PRCP":0.12, "SNDP":0.0, "FRSHTT":"010000", "CLDC":65.8, "WNDDIR":19},{ "STN":944040,"DATE":"2022-05-20", "TIME":"05:51:10", "TEMP":3.7, "DEWP":-1.9, "STP":981.5, "SLP":1021.9, "VISIB":49.5, "WDSP":1.8, "PRCP":0.00, "SNDP":0.0, "FRSHTT":"000000", "CLDC":40.8, "WNDDIR":347},{ "STN":224710,"DATE":"2022-05-20", "TIME":"05:51:10", "TEMP":0.3, "DEWP":-4.7, "STP":1015.9, "SLP":1014.7, "VISIB":26.5, "WDSP":15.5, "PRCP":0.03, "SNDP":0.0, "FRSHTT":"010000", "CLDC":52.0, "WNDDIR":246},{ "STN":467410,"DATE":"2022-05-20", "TIME":"05:51:10", "TEMP":15.1, "DEWP":10.6, "STP":1006.1, "SLP":1009.2, "VISIB":11.9, "WDSP":12.0, "PRCP":0.00, "SNDP":0.0, "FRSHTT":"000000", "CLDC":49.2, "WNDDIR":180},{ "STN":38273,"DATE":"2022-05-20", "TIME":"05:51:10", "TEMP":11.0, "DEWP":10.6, "STP":987.8, "SLP":979.2, "VISIB":9.4, "WDSP":15.2, "PRCP":0.00, "SNDP":0.0, "FRSHTT":"000000", "CLDC":92.7, "WNDDIR":191}]}
,{"WEATHERDATA": [ {"STN":28480,"DATE":"2022-05-20", "TIME":"05:51:39", "TEMP":-0.3, "DEWP":-7.0, "STP":1016.3, "SLP":1015.1, "VISIB":34.8, "WDSP":7.2, "PRCP":0.04, "SNDP":1.6, "FRSHTT":"111000", "CLDC":80.6, "WNDDIR":327},{ "STN":11160,"DATE":"2022-05-20", "TIME":"05:51:39", "TEMP":6.5, "DEWP":0.3, "STP":997.5, "SLP":995.7, "VISIB":11.1, "WDSP":15.7, "PRCP":0.00, "SNDP":0.0, "FRSHTT":"000000", "CLDC":75.1, "WNDDIR":117},{ "STN":724769,"DATE":"2022-05-20", "TIME":"05:51:39", "TEMP":11.7, "DEWP":-4.7, "STP":1018.9, "SLP":1004.0, "VISIB":16.0, "WDSP":10.0, "PRCP":0.00, "SNDP":0.0, "FRSHTT":"000000", "CLDC":94.4, "WNDDIR":123},{ "STN":724776,"DATE":"2022-05-20", "TIME":"05:51:39", "TEMP":11.6, "DEWP":-14.2, "STP":1024.0, "SLP":1009.0, "VISIB":17.0, "WDSP":11.2, "PRCP":0.00, "SNDP":0.0, "FRSHTT":"000000", "CLDC":14.3, "WNDDIR":357},{ "STN":80020,"DATE":"2022-05-20", "TIME":"05:51:39", "TEMP":10.9, "DEWP":5.8, "STP":1005.2, "SLP":1001.9, "VISIB":10.5, "WDSP":14.4, "PRCP":0.00, "SNDP":0.0, "FRSHTT":"000000", "CLDC":17.8, "WNDDIR":220},{ "STN":724955,"DATE":"2022-05-20", "TIME":"05:51:39", "TEMP":8.6, "DEWP":2.6, "STP":1016.8, "SLP":1013.8, "VISIB":16.9, "WDSP":16.0, "PRCP":0.01, "SNDP":0.0, "FRSHTT":"010000", "CLDC":62.2, "WNDDIR":187},{ "STN":878030,"DATE":"2022-05-20", "TIME":"05:51:39", "TEMP":-0.3, "DEWP":-3.9, "STP":920.3, "SLP":1013.8, "VISIB":23.0, "WDSP":16.0, "PRCP":0.03, "SNDP":0.0, "FRSHTT":"110000", "CLDC":50.0, "WNDDIR":89},{ "STN":724956,"DATE":"2022-05-20", "TIME":"05:51:39", "TEMP":11.0, "DEWP":4.2, "STP":1016.3, "SLP":1015.0, "VISIB":37.7, "WDSP":18.9, "PRCP":0.00, "SNDP":0.0, "FRSHTT":"000000", "CLDC":19.1, "WNDDIR":283},{ "STN":219820,"DATE":"2022-05-20", "TIME":"05:51:39", "TEMP":-2.7, "DEWP":-4.5, "STP":1021.0, "SLP":1022.6, "VISIB":24.1, "WDSP":23.9, "PRCP":0.00, "SNDP":0.0, "FRSHTT":"100000", "CLDC":14.3, "WNDDIR":6},{ "STN":724957,"DATE":"2022-05-20", "TIME":"05:51:39", "TEMP":10.0, "DEWP":2.4, "STP":1010.4, "SLP":1007.4, "VISIB":24.6, "WDSP":9.6, "PRCP":0.02, "SNDP":0.0, "FRSHTT":"010000", "CLDC":51.7, "WNDDIR":352}]}
,{"WEATHERDATA": [ {"STN":407470,"DATE":"2022-05-20", "TIME":"05:51:39", "TEMP":7.2, "DEWP":-2.3, "STP":864.7, "SLP":1012.4, "VISIB":8.3, "WDSP":8.0, "PRCP":0.00, "SNDP":0.0, "FRSHTT":"000000", "CLDC":62.0, "WNDDIR":32},{ "STN":804050,"DATE":"2022-05-20", "TIME":"05:51:39", "TEMP":11.9, "DEWP":9.3, "STP":1017.0, "SLP":1013.9, "VISIB":22.5, "WDSP":23.0, "PRCP":0.00, "SNDP":0.0, "FRSHTT":"000000", "CLDC":28.8, "WNDDIR":284},{ "STN":239090,"DATE":"2022-05-20", "TIME":"05:51:39", "TEMP":2.6, "DEWP":-4.7, "STP":1003.0, "SLP":1013.6, "VISIB":17.0, "WDSP":9.3, "PRCP":0.01, "SNDP":0.0, "FRSHTT":"010000", "CLDC":93.0, "WNDDIR":226},{ "STN":116480,"DATE":"2022-05-20", "TIME":"05:51:39", "TEMP":7.6, "DEWP":0.9, "STP":1003.7, "SLP":1017.7, "VISIB":14.3, "WDSP":13.4, "PRCP":0.01, "SNDP":0.0, "FRSHTT":"010000", "CLDC":50.7, "WNDDIR":77},{ "STN":162700,"DATE":"2022-05-20", "TIME":"05:51:39", "TEMP":12.9, "DEWP":5.8, "STP":1010.7, "SLP":1012.6, "VISIB":13.0, "WDSP":13.0, "PRCP":0.00, "SNDP":0.0, "FRSHTT":"", "CLDC":54.0, "WNDDIR":139},{ "STN":804070,"DATE":"2022-05-20", "TIME":"05:51:39", "TEMP":19.1, "DEWP":13.5, "STP":1015.7, "SLP":1011.3, "VISIB":22.6, "WDSP":10.3, "PRCP":0.00, "SNDP":0.0, "FRSHTT":"000000", "CLDC":89.3, "WNDDIR":18},{ "STN":407450,"DATE":"2022-05-20", "TIME":"05:51:39", "TEMP":10.1, "DEWP":-5.7, "STP":943.4, "SLP":1009.6, "VISIB":18.4, "WDSP":13.1, "PRCP":0.00, "SNDP":0.0, "FRSHTT":"000000", "CLDC":12.3, "WNDDIR":238},{ "STN":786470,"DATE":"2022-05-20", "TIME":"05:51:39", "TEMP":22.0, "DEWP":19.4, "STP":1006.3, "SLP":1008.8, "VISIB":45.2, "WDSP":2.1, "PRCP":0.51, "SNDP":0.0, "FRSHTT":"010000", "CLDC":50.3, "WNDDIR":103},{ "STN":37070,"DATE":"2022-05-20", "TIME":"05:51:39", "TEMP":9.4, "DEWP":6.2, "STP":1029.4, "SLP":998.5, "VISIB":24.1, "WDSP":23.6, "PRCP":0.06, "SNDP":0.0, "FRSHTT":"010000", "CLDC":83.8, "WNDDIR":36},{ "STN":942830,"DATE":"2022-05-20", "TIME":"05:51:39", "TEMP":6.9, "DEWP":2.3, "STP":1015.1, "SLP":1013.4, "VISIB":51.1, "WDSP":14.6, "PRCP":0.05, "SNDP":0.0, "FRSHTT":"010000", "CLDC":56.8, "WNDDIR":337}]}
,{"WEATHERDATA": [ {"STN":207660,"DATE":"2022-05-20", "TIME":"05:51:39", "TEMP":-4.9, "DEWP":-6.8, "STP":996.5, "SLP":997.9, "VISIB":21.6, "WDSP":18.9, "PRCP":0.00, "SNDP":5.8, "FRSHTT":"101000", "CLDC":51.3, "WNDDIR":141},{ "STN":405750,"DATE":"2022-05-20", "TIME":"05:51:39", "TEMP":19.9, "DEWP":14.0, "STP":1005.2, "SLP":1007.3, "VISIB":21.0, "WDSP":15.4, "PRCP":0.00, "SNDP":0.0, "FRSHTT":"000000", "CLDC":69.8, "WNDDIR":257},{ "STN":379070,"DATE":"2022-05-20", "TIME":"05:51:39", "TEMP":9.4, "DEWP":3.8, "STP":1011.4, "SLP":1017.1, "VISIB":27.6, "WDSP":5.8, "PRCP":0.08, "SNDP":0.0, "FRSHTT":"010000", "CLDC":50.0, "WNDDIR":119},{ "STN":485170,"DATE":"2022-05-20", "TIME":"05:51:39", "TEMP":21.5, "DEWP":18.4, "STP":1019.2, "SLP":1006.2, "VISIB":6.5, "WDSP":7.3, "PRCP":0.07, "SNDP":0.0, "FRSHTT":"010000", "CLDC":99.6, "WNDDIR":172},{ "STN":713951,"DATE":"2022-05-20", "TIME":"05:51:39", "TEMP":5.3, "DEWP":0.4, "STP":994.9, "SLP":1012.7, "VISIB":12.5, "WDSP":14.4, "PRCP":0.00, "SNDP":0.0, "FRSHTT":"000000", "CLDC":46.6, "WNDDIR":251},{ "STN":713950,"DATE":"2022-05-20", "TIME":"05:51:39", "TEMP":5.2, "DEWP":0.1, "STP":1006.7, "SLP":1014.5, "VISIB":18.0, "WDSP":15.3, "PRCP":0.02, "SNDP":0.0, "FRSHTT":"010000", "CLDC":50.0, "WNDDIR":180},{ "STN":442870,"DATE":"2022-05-20", "TIME":"05:51:39", "TEMP":3.6, "DEWP":-12.2, "STP":809.8, "SLP":1014.3, "VISIB":51.3, "WDSP":24.2, "PRCP":0.00, "SNDP":0.0, "FRSHTT":"000000", "CLDC":83.3, "WNDDIR":79},{ "STN":722650,"DATE":"2022-05-20", "TIME":"05:51:39", "TEMP":14.3, "DEWP":-0.2, "STP":927.5, "SLP":1010.5, "VISIB":24.2, "WDSP":17.4, "PRCP":0.02, "SNDP":0.0, "FRSHTT":"010000", "CLDC":50.1, "WNDDIR":98},{ "STN":303930,"DATE":"2022-05-20", "TIME":"05:51:39", "TEMP":-0.4, "DEWP":-7.5, "STP":919.0, "SLP":1008.2, "VISIB":26.3, "WDSP":12.8, "PRCP":0.05, "SNDP":0.3, "FRSHTT":"111000", "CLDC":50.1, "WNDDIR":260},{ "STN":722648,"DATE":"2022-05-20", "TIME":"05:51:39", "TEMP":16.7, "DEWP":0.2, "STP":1023.3, "SLP":1011.1, "VISIB":15.8, "WDSP":21.1, "PRCP":0.00, "SNDP":0.0, "FRSHTT":"000000", "CLDC":64.4, "WNDDIR":231}]}
,{"WEATHERDATA": [ {"STN":313110,"DATE":"2022-05-20", "TIME":"05:51:39", "TEMP":-0.6, "DEWP":-9.2, "STP":1017.4, "SLP":1008.6, "VISIB":50.0, "WDSP":6.5, "PRCP":0.13, "SNDP":0.0, "FRSHTT":"110000", "CLDC":89.6, "WNDDIR":217},{ "STN":607480,"DATE":"2022-05-20", "TIME":"05:51:39", "TEMP":14.7, "DEWP":1.0, "STP":974.7, "SLP":1015.0, "VISIB":15.4, "WDSP":11.6, "PRCP":0.00, "SNDP":0.0, "FRSHTT":"000000", "CLDC":63.0, "WNDDIR":59},{ "STN":718960,"DATE":"2022-05-20", "TIME":"05:51:39", "TEMP":4.8, "DEWP":-4.3, "STP":932.5, "SLP":1013.6, "VISIB":63.4, "WDSP":8.3, "PRCP":0.04, "SNDP":0.0, "FRSHTT":"010000", "CLDC":50.7, "WNDDIR":138},{ "STN":70030,"DATE":"2022-05-20", "TIME":"05:51:39", "TEMP":11.2, "DEWP":8.1, "STP":1002.3, "SLP":1001.0, "VISIB":9.4, "WDSP":15.4, "PRCP":0.00, "SNDP":0.0, "FRSHTT":"000000", "CLDC":35.8, "WNDDIR":19},{ "STN":35590,"DATE":"2022-05-20", "TIME":"05:51:39", "TEMP":5.7, "DEWP":0.5, "STP":1012.5, "SLP":1015.0, "VISIB":16.2, "WDSP":14.6, "PRCP":0.04, "SNDP":0.0, "FRSHTT":"010000", "CLDC":51.2, "WNDDIR":166},{ "STN":841390,"DATE":"2022-05-20", "TIME":"05:51:39", "TEMP":5.7, "DEWP":-1.8, "STP":755.1, "SLP":757.1, "VISIB":16.9, "WDSP":5.0, "PRCP":0.00, "SNDP":0.0, "FRSHTT":"000000", "CLDC":61.1, "WNDDIR":104},{ "STN":122050,"DATE":"2022-05-20", "TIME":"05:51:39", "TEMP":7.6, "DEWP":1.9, "STP":1013.2, "SLP":1016.3, "VISIB":18.8, "WDSP":13.6, "PRCP":0.02, "SNDP":0.0, "FRSHTT":"010000", "CLDC":64.3, "WNDDIR":347},{ "STN":381980,"DATE":"2022-05-20", "TIME":"05:51:39", "TEMP":9.5, "DEWP":-7.0, "STP":1005.6, "SLP":1013.7, "VISIB":41.7, "WDSP":12.4, "PRCP":0.00, "SNDP":0.0, "FRSHTT":"000000", "CLDC":55.0, "WNDDIR":225},{ "STN":70020,"DATE":"2022-05-20", "TIME":"05:51:39", "TEMP":9.0, "DEWP":5.5, "STP":1000.2, "SLP":1014.0, "VISIB":16.8, "WDSP":17.3, "PRCP":0.01, "SNDP":0.0, "FRSHTT":"010000", "CLDC":86.3, "WNDDIR":84},{ "STN":703650,"DATE":"2022-05-20", "TIME":"05:51:39", "TEMP":4.1, "DEWP":2.2, "STP":1009.7, "SLP":1013.6, "VISIB":25.0, "WDSP":19.5, "PRCP":0.00, "SNDP":0.0, "FRSHTT":"000000", "CLDC":59.7, "WNDDIR":128}]}
,{"WEATHERDATA": [ {"STN":727572,"DATE":"2022-05-20", "TIME":"05:51:39", "TEMP":11.2, "DEWP":-5.6, "STP":1023.8, "SLP":987.4, "VISIB":19.4, "WDSP":6.4, "PRCP":0.00, "SNDP":0.0, "FRSHTT":"000000", "CLDC":5.8, "WNDDIR":279},{ "STN":727573,"DATE":"2022-05-20", "TIME":"05:51:39", "TEMP":10.3, "DEWP":3.5, "STP":1004.4, "SLP":984.9, "VISIB":15.2, "WDSP":22.8, "PRCP":0.12, "SNDP":0.0, "FRSHTT":"010000", "CLDC":50.9, "WNDDIR":156},{ "STN":969870,"DATE":"2022-05-20", "TIME":"05:51:39", "TEMP":16.0, "DEWP":11.5, "STP":1004.6, "SLP":1010.5, "VISIB":7.8, "WDSP":3.8, "PRCP":0.00, "SNDP":0.0, "FRSHTT":"000000", "CLDC":71.8, "WNDDIR":238},{ "STN":511560,"DATE":"2022-05-20", "TIME":"05:51:39", "TEMP":6.3, "DEWP":-7.8, "STP":923.7, "SLP":1014.7, "VISIB":32.9, "WDSP":10.8, "PRCP":0.01, "SNDP":0.0, "FRSHTT":"010000", "CLDC":56.6, "WNDDIR":213},{ "STN":107610,"DATE":"2022-05-20", "TIME":"05:51:39", "TEMP":7.9, "DEWP":1.8, "STP":999.9, "SLP":1014.5, "VISIB":18.1, "WDSP":8.7, "PRCP":0.02, "SNDP":0.0, "FRSHTT":"010000", "CLDC":70.2, "WNDDIR":2},{ "STN":727675,"DATE":"2022-05-20", "TIME":"05:51:39", "TEMP":6.3, "DEWP":-3.5, "STP":997.0, "SLP":1013.8, "VISIB":22.8, "WDSP":19.4, "PRCP":0.03, "SNDP":0.0, "FRSHTT":"010000", "CLDC":72.8, "WNDDIR":356},{ "STN":229960,"DATE":"2022-05-20", "TIME":"05:51:39", "TEMP":4.1, "DEWP":-2.2, "STP":995.7, "SLP":1014.1, "VISIB":20.1, "WDSP":12.2, "PRCP":0.01, "SNDP":0.0, "FRSHTT":"010000", "CLDC":50.5, "WNDDIR":55},{ "STN":727676,"DATE":"2022-05-20", "TIME":"05:51:39", "TEMP":7.6, "DEWP":-2.1, "STP":980.6, "SLP":1011.3, "VISIB":25.5, "WDSP":12.7, "PRCP":0.04, "SNDP":0.0, "FRSHTT":"010000", "CLDC":52.5, "WNDDIR":140},{ "STN":865450,"DATE":"2022-05-20", "TIME":"05:51:39", "TEMP":-0.8, "DEWP":-4.4, "STP":1010.6, "SLP":1028.7, "VISIB":9.7, "WDSP":2.3, "PRCP":0.00, "SNDP":0.0, "FRSHTT":"100000", "CLDC":66.0, "WNDDIR":317},{ "STN":917920,"DATE":"2022-05-20", "TIME":"05:51:39", "TEMP":17.6, "DEWP":14.0, "STP":1016.9, "SLP":1015.0, "VISIB":23.3, "WDSP":14.9, "PRCP":0.20, "SNDP":0.0, "FRSHTT":"010000", "CLDC":68.6, "WNDDIR":52}]}
,{"WEATHERDATA": [ {"STN":164200,"DATE":"2022-05-20", "TIME":"05:51:39", "TEMP":16.4, "DEWP":9.8, "STP":1008.5, "SLP":1015.2, "VISIB":10.9, "WDSP":7.8, "PRCP":0.04, "SNDP":0.0, "FRSHTT":"010000", "CLDC":51.2, "WNDDIR":155},{ "STN":741010,"DATE":"2022-05-20", "TIME":"05:51:39", "TEMP":3.7, "DEWP":-1.0, "STP":1018.1, "SLP":1017.5, "VISIB":25.5, "WDSP":13.5, "PRCP":0.00, "SNDP":0.0, "FRSHTT":"000000", "CLDC":6.0, "WNDDIR":55},{ "STN":723537,"DATE":"2022-05-20", "TIME":"05:51:39", "TEMP":17.2, "DEWP":3.2, "STP":996.6, "SLP":1005.1, "VISIB":18.1, "WDSP":10.9, "PRCP":0.00, "SNDP":0.0, "FRSHTT":"000000", "CLDC":98.6, "WNDDIR":256},{ "STN":723536,"DATE":"2022-05-20", "TIME":"05:51:39", "TEMP":14.6, "DEWP":8.4, "STP":998.5, "SLP":1007.7, "VISIB":14.0, "WDSP":14.0, "PRCP":0.00, "SNDP":0.0, "FRSHTT":"000000", "CLDC":99.2, "WNDDIR":268},{ "STN":723540,"DATE":"2022-05-20", "TIME":"05:51:39", "TEMP":15.7, "DEWP":9.4, "STP":987.4, "SLP":1013.2, "VISIB":18.7, "WDSP":18.6, "PRCP":0.10, "SNDP":0.0, "FRSHTT":"010000", "CLDC":52.0, "WNDDIR":214},{ "STN":723560,"DATE":"2022-05-20", "TIME":"05:51:39", "TEMP":14.5, "DEWP":6.7, "STP":992.1, "SLP":1013.8, "VISIB":19.7, "WDSP":15.4, "PRCP":0.07, "SNDP":0.0, "FRSHTT":"010000", "CLDC":80.6, "WNDDIR":121},{ "STN":133340,"DATE":"2022-05-20", "TIME":"05:51:39", "TEMP":17.2, "DEWP":8.1, "STP":1002.4, "SLP":1014.9, "VISIB":20.3, "WDSP":33.3, "PRCP":0.00, "SNDP":0.0, "FRSHTT":"000000", "CLDC":66.3, "WNDDIR":84},{ "STN":723564,"DATE":"2022-05-20", "TIME":"05:51:39", "TEMP":15.3, "DEWP":8.3, "STP":1012.7, "SLP":1014.9, "VISIB":15.3, "WDSP":10.1, "PRCP":0.10, "SNDP":0.0, "FRSHTT":"010000", "CLDC":82.1, "WNDDIR":160},{ "STN":723565,"DATE":"2022-05-20", "TIME":"05:51:39", "TEMP":14.7, "DEWP":7.5, "STP":1011.9, "SLP":1003.1, "VISIB":15.6, "WDSP":10.5, "PRCP":0.01, "SNDP":0.0, "FRSHTT":"010000", "CLDC":50.8, "WNDDIR":348},{ "STN":723566,"DATE":"2022-05-20", "TIME":"05:51:39", "TEMP":16.2, "DEWP":10.9, "STP":1013.5, "SLP":1013.6, "VISIB":17.7, "WDSP":14.7, "PRCP":0.10, "SNDP":0.0, "FRSHTT":"010000", "CLDC":50.1, "WNDDIR":310}]}
,{"WEATHERDATA": [ {"STN":95480,"DATE":"2022-05-20", "TIME":"05:51:39", "TEMP":7.3, "DEWP":-0.3, "STP":1011.7, "SLP":1015.3, "VISIB":16.8, "WDSP":11.3, "PRCP":0.00, "SNDP":0.0, "FRSHTT":"000000", "CLDC":20.0, "WNDDIR":122},{ "STN":722820,"DATE":"2022-05-20", "TIME":"05:51:39", "TEMP":5.2, "DEWP":4.9, "STP":1022.8, "SLP":1009.1, "VISIB":13.7, "WDSP":4.6, "PRCP":0.00, "SNDP":0.0, "FRSHTT":"000000", "CLDC":38.0, "WNDDIR":149},{ "STN":537230,"DATE":"2022-05-20", "TIME":"05:51:39", "TEMP":7.3, "DEWP":-9.4, "STP":903.8, "SLP":1009.5, "VISIB":19.6, "WDSP":11.9, "PRCP":0.05, "SNDP":0.0, "FRSHTT":"010000", "CLDC":50.0, "WNDDIR":94},{ "STN":722822,"DATE":"2022-05-20", "TIME":"05:51:39", "TEMP":14.3, "DEWP":4.5, "STP":988.1, "SLP":1009.4, "VISIB":12.8, "WDSP":7.7, "PRCP":0.01, "SNDP":0.0, "FRSHTT":"010000", "CLDC":50.6, "WNDDIR":70},{ "STN":711110,"DATE":"2022-05-20", "TIME":"05:51:39", "TEMP":8.6, "DEWP":7.2, "STP":1019.7, "SLP":1028.3, "VISIB":13.5, "WDSP":6.4, "PRCP":0.05, "SNDP":0.0, "FRSHTT":"010000", "CLDC":50.3, "WNDDIR":170},{ "STN":95460,"DATE":"2022-05-20", "TIME":"05:51:39", "TEMP":6.6, "DEWP":4.7, "STP":1038.9, "SLP":1013.3, "VISIB":12.1, "WDSP":5.5, "PRCP":0.00, "SNDP":0.0, "FRSHTT":"000000", "CLDC":38.6, "WNDDIR":194},{ "STN":321210,"DATE":"2022-05-20", "TIME":"05:51:39", "TEMP":1.7, "DEWP":-1.3, "STP":1012.5, "SLP":1009.6, "VISIB":22.9, "WDSP":16.1, "PRCP":0.02, "SNDP":0.0, "FRSHTT":"010000", "CLDC":50.6, "WNDDIR":73},{ "STN":711120,"DATE":"2022-05-20", "TIME":"05:51:39", "TEMP":8.4, "DEWP":6.6, "STP":1030.5, "SLP":1018.3, "VISIB":20.9, "WDSP":14.9, "PRCP":0.00, "SNDP":0.0, "FRSHTT":"000000", "CLDC":13.4, "WNDDIR":158},{ "STN":411960,"DATE":"2022-05-20", "TIME":"05:51:39", "TEMP":18.1, "DEWP":2.9, "STP":1004.2, "SLP":1004.9, "VISIB":11.0, "WDSP":10.0, "PRCP":0.00, "SNDP":0.0, "FRSHTT":"000000", "CLDC":33.1, "WNDDIR":67},{ "STN":722860,"DATE":"2022-05-20", "TIME":"05:51:39", "TEMP":12.0, "DEWP":2.5, "STP":986.7, "SLP":1013.0, "VISIB":16.6, "WDSP":8.7, "PRCP":0.00, "SNDP":0.0, "FRSHTT":"000000", "CLDC":84.5, "WNDDIR":324}]}
,{"WEATHERDATA": [ {"STN":682630,"DATE":"2022-05-20", "TIME":"05:51:40", "TEMP":6.9, "DEWP":-1.9, "STP":851.3, "SLP":841.5, "VISIB":24.1, "WDSP":10.2, "PRCP":0.01, "SNDP":0.0, "FRSHTT":"010000", "CLDC":91.9, "WNDDIR":167},{ "STN":682635,"DATE":"2022-05-20", "TIME":"05:51:40", "TEMP":8.5, "DEWP":0.4, "STP":991.3, "SLP":1004.9, "VISIB":10.8, "WDSP":9.0, "PRCP":0.00, "SNDP":0.0, "FRSHTT":"000000", "CLDC":88.4, "WNDDIR":149},{ "STN":682675,"DATE":"2022-05-20", "TIME":"05:51:40", "TEMP":10.4, "DEWP":4.0, "STP":1002.5, "SLP":1030.0, "VISIB":9.8, "WDSP":18.3, "PRCP":0.00, "SNDP":0.0, "FRSHTT":"000000", "CLDC":16.6, "WNDDIR":121},{ "STN":407320,"DATE":"2022-05-20", "TIME":"05:51:40", "TEMP":11.0, "DEWP":6.5, "STP":1020.4, "SLP":1018.2, "VISIB":10.7, "WDSP":4.6, "PRCP":0.00, "SNDP":0.0, "FRSHTT":"000000", "CLDC":91.1, "WNDDIR":98},{ "STN":23820,"DATE":"2022-05-20", "TIME":"05:51:40", "TEMP":0.7, "DEWP":-2.5, "STP":993.5, "SLP":993.0, "VISIB":45.9, "WDSP":13.2, "PRCP":0.00, "SNDP":0.0, "FRSHTT":"000000", "CLDC":97.7, "WNDDIR":45},{ "STN":345810,"DATE":"2022-05-20", "TIME":"05:51:40", "TEMP":1.6, "DEWP":-11.8, "STP":1051.4, "SLP":1026.4, "VISIB":49.4, "WDSP":11.2, "PRCP":0.00, "SNDP":0.0, "FRSHTT":"000000", "CLDC":32.8, "WNDDIR":295},{ "STN":977900,"DATE":"2022-05-20", "TIME":"05:51:40", "TEMP":15.8, "DEWP":11.7, "STP":1006.2, "SLP":1009.1, "VISIB":10.3, "WDSP":10.3, "PRCP":0.01, "SNDP":0.0, "FRSHTT":"010000", "CLDC":50.9, "WNDDIR":64},{ "STN":483545,"DATE":"2022-05-20", "TIME":"05:51:40", "TEMP":21.2, "DEWP":17.8, "STP":1007.2, "SLP":1009.2, "VISIB":11.6, "WDSP":4.0, "PRCP":0.00, "SNDP":0.0, "FRSHTT":"000000", "CLDC":11.8, "WNDDIR":81},{ "STN":682677,"DATE":"2022-05-20", "TIME":"05:51:40", "TEMP":7.7, "DEWP":1.5, "STP":1015.7, "SLP":1039.4, "VISIB":8.3, "WDSP":6.4, "PRCP":0.00, "SNDP":0.0, "FRSHTT":"000000", "CLDC":33.1, "WNDDIR":348},{ "STN":483540,"DATE":"2022-05-20", "TIME":"05:51:40", "TEMP":15.7, "DEWP":12.3, "STP":996.2, "SLP":1003.7, "VISIB":12.1, "WDSP":8.4, "PRCP":0.10, "SNDP":0.0, "FRSHTT":"010000", "CLDC":50.6, "WNDDIR":121}]}
,{"WEATHERDATA": [ {"STN":245070,"DATE":"2022-05-20", "TIME":"05:51:40", "TEMP":2.3, "DEWP":-7.5, "STP":990.2, "SLP":1008.0, "VISIB":20.8, "WDSP":8.4, "PRCP":0.00, "SNDP":0.0, "FRSHTT":"000000", "CLDC":67.0, "WNDDIR":202},{ "STN":719674,"DATE":"2022-05-20", "TIME":"05:51:40", "TEMP":1.9, "DEWP":-6.5, "STP":1005.2, "SLP":1017.2, "VISIB":32.4, "WDSP":8.4, "PRCP":0.00, "SNDP":0.0, "FRSHTT":"000000", "CLDC":82.5, "WNDDIR":45},{ "STN":474130,"DATE":"2022-05-20", "TIME":"05:51:40", "TEMP":2.9, "DEWP":-2.1, "STP":1003.0, "SLP":1009.1, "VISIB":35.9, "WDSP":15.8, "PRCP":0.00, "SNDP":0.0, "FRSHTT":"000000", "CLDC":42.5, "WNDDIR":7},{ "STN":122810,"DATE":"2022-05-20", "TIME":"05:51:40", "TEMP":10.5, "DEWP":6.7, "STP":998.8, "SLP":1007.4, "VISIB":3.9, "WDSP":8.7, "PRCP":0.00, "SNDP":0.0, "FRSHTT":"000000", "CLDC":84.9, "WNDDIR":53},{ "STN":34940,"DATE":"2022-05-20", "TIME":"05:51:40", "TEMP":6.0, "DEWP":4.9, "STP":1032.2, "SLP":1017.5, "VISIB":1.2, "WDSP":20.9, "PRCP":0.00, "SNDP":0.0, "FRSHTT":"000000", "CLDC":78.6, "WNDDIR":180},{ "STN":841170,"DATE":"2022-05-20", "TIME":"05:51:40", "TEMP":15.8, "DEWP":12.3, "STP":995.0, "SLP":1006.8, "VISIB":13.0, "WDSP":14.7, "PRCP":0.00, "SNDP":0.0, "FRSHTT":"000000", "CLDC":22.3, "WNDDIR":93},{ "STN":122800,"DATE":"2022-05-20", "TIME":"05:51:40", "TEMP":6.8, "DEWP":1.7, "STP":1013.5, "SLP":1015.4, "VISIB":20.7, "WDSP":11.5, "PRCP":0.04, "SNDP":0.0, "FRSHTT":"010000", "CLDC":77.0, "WNDDIR":207},{ "STN":105320,"DATE":"2022-05-20", "TIME":"05:51:40", "TEMP":9.2, "DEWP":3.1, "STP":1013.9, "SLP":1015.5, "VISIB":20.2, "WDSP":11.8, "PRCP":0.02, "SNDP":0.0, "FRSHTT":"010000", "CLDC":86.5, "WNDDIR":351},{ "STN":474170,"DATE":"2022-05-20", "TIME":"05:51:40", "TEMP":3.9, "DEWP":-2.1, "STP":1004.7, "SLP":1009.9, "VISIB":12.7, "WDSP":7.6, "PRCP":0.14, "SNDP":0.0, "FRSHTT":"010000", "CLDC":70.8, "WNDDIR":83},{ "STN":34920,"DATE":"2022-05-20", "TIME":"05:51:40", "TEMP":9.3, "DEWP":4.6, "STP":1008.9, "SLP":1011.2, "VISIB":15.0, "WDSP":17.8, "PRCP":0.00, "SNDP":0.0, "FRSHTT":"000000", "CLDC":90.8, "WNDDIR":80}]}
,{"WEATHERDATA": [ {"STN":80290,"DATE":"2022-05-20", "TIME":"05:51:40", "TEMP":12.0, "DEWP":7.2, "STP":1014.0, "SLP":1014.2, "VISIB":10.5, "WDSP":9.4, "PRCP":0.11, "SNDP":0.0, "FRSHTT":"010000", "CLDC":50.7, "WNDDIR":90},{ "STN":724509,"DATE":"2022-05-20", "TIME":"05:51:40", "TEMP":17.6, "DEWP":13.0, "STP":999.8, "SLP":1021.5, "VISIB":12.9, "WDSP":18.4, "PRCP":0.00, "SNDP":0.0, "FRSHTT":"000000", "CLDC":98.1, "WNDDIR":315},{ "STN":724508,"DATE":"2022-05-20", "TIME":"05:51:40", "TEMP":11.3, "DEWP":4.0, "STP":1008.4, "SLP":1014.1, "VISIB":15.1, "WDSP":14.4, "PRCP":0.02, "SNDP":0.0, "FRSHTT":"010000", "CLDC":67.5, "WNDDIR":85},{ "STN":724507,"DATE":"2022-05-20", "TIME":"05:51:40", "TEMP":13.1, "DEWP":6.8, "STP":1014.6, "SLP":1013.5, "VISIB":16.6, "WDSP":18.1, "PRCP":0.09, "SNDP":0.0, "FRSHTT":"010000", "CLDC":56.8, "WNDDIR":278},{ "STN":306170,"DATE":"2022-05-20", "TIME":"05:51:40", "TEMP":0.6, "DEWP":-6.6, "STP":1010.4, "SLP":1015.7, "VISIB":44.6, "WDSP":16.9, "PRCP":0.00, "SNDP":0.0, "FRSHTT":"000000", "CLDC":40.0, "WNDDIR":249},{ "STN":724506,"DATE":"2022-05-20", "TIME":"05:51:40", "TEMP":12.7, "DEWP":5.3, "STP":996.5, "SLP":1004.9, "VISIB":17.1, "WDSP":17.0, "PRCP":0.02, "SNDP":0.0, "FRSHTT":"010000", "CLDC":51.0, "WNDDIR":299},{ "STN":724505,"DATE":"2022-05-20", "TIME":"05:51:40", "TEMP":13.6, "DEWP":6.1, "STP":992.1, "SLP":1013.3, "VISIB":18.0, "WDSP":17.0, "PRCP":0.03, "SNDP":0.0, "FRSHTT":"010000", "CLDC":51.9, "WNDDIR":62},{ "STN":724504,"DATE":"2022-05-20", "TIME":"05:51:40", "TEMP":12.6, "DEWP":4.7, "STP":1019.6, "SLP":1015.4, "VISIB":16.2, "WDSP":14.6, "PRCP":0.06, "SNDP":0.0, "FRSHTT":"010000", "CLDC":69.0, "WNDDIR":58},{ "STN":724516,"DATE":"2022-05-20", "TIME":"05:51:40", "TEMP":10.8, "DEWP":0.3, "STP":1001.7, "SLP":1006.7, "VISIB":40.6, "WDSP":15.7, "PRCP":0.00, "SNDP":0.0, "FRSHTT":"000000", "CLDC":64.9, "WNDDIR":355},{ "STN":724517,"DATE":"2022-05-20", "TIME":"05:51:40", "TEMP":16.3, "DEWP":4.8, "STP":1005.7, "SLP":1011.6, "VISIB":45.8, "WDSP":20.9, "PRCP":0.00, "SNDP":0.0, "FRSHTT":"000000", "CLDC":35.7, "WNDDIR":266}]}
,{"WEATHERDATA": [ {"STN":681120,"DATE":"2022-05-20", "TIME":"05:51:40", "TEMP":7.5, "DEWP":-7.3, "STP":916.6, "SLP":919.3, "VISIB":66.8, "WDSP":12.4, "PRCP":0.00, "SNDP":0.0, "FRSHTT":"000000", "CLDC":65.9, "WNDDIR":293},{ "STN":101720,"DATE":"2022-05-20", "TIME":"05:51:40", "TEMP":6.9, "DEWP":1.0, "STP":1006.1, "SLP":1013.1, "VISIB":17.8, "WDSP":16.7, "PRCP":0.04, "SNDP":0.0, "FRSHTT":"010000", "CLDC":75.7, "WNDDIR":225},{ "STN":21250,"DATE":"2022-05-20", "TIME":"05:51:40", "TEMP":3.9, "DEWP":-7.1, "STP":993.0, "SLP":1018.7, "VISIB":40.1, "WDSP":6.6, "PRCP":0.00, "SNDP":0.0, "FRSHTT":"000000", "CLDC":54.5, "WNDDIR":323},{ "STN":143820,"DATE":"2022-05-20", "TIME":"05:51:40", "TEMP":10.0, "DEWP":2.4, "STP":1004.0, "SLP":1015.4, "VISIB":17.9, "WDSP":4.5, "PRCP":0.03, "SNDP":0.0, "FRSHTT":"010000", "CLDC":77.0, "WNDDIR":11},{ "STN":101700,"DATE":"2022-05-20", "TIME":"05:51:40", "TEMP":7.3, "DEWP":2.4, "STP":1017.8, "SLP":1015.3, "VISIB":26.8, "WDSP":21.8, "PRCP":0.02, "SNDP":0.0, "FRSHTT":"010000", "CLDC":50.2, "WNDDIR":307},{ "STN":716090,"DATE":"2022-05-20", "TIME":"05:51:40", "TEMP":2.2, "DEWP":-1.4, "STP":1003.6, "SLP":1014.4, "VISIB":16.7, "WDSP":15.8, "PRCP":0.10, "SNDP":0.0, "FRSHTT":"010000", "CLDC":61.4, "WNDDIR":100},{ "STN":610750,"DATE":"2022-05-20", "TIME":"05:51:40", "TEMP":28.6, "DEWP":13.4, "STP":1018.4, "SLP":1002.0, "VISIB":19.6, "WDSP":12.5, "PRCP":0.00, "SNDP":0.0, "FRSHTT":"000000", "CLDC":16.2, "WNDDIR":15},{ "STN":681100,"DATE":"2022-05-20", "TIME":"05:51:40", "TEMP":11.1, "DEWP":-5.9, "STP":878.0, "SLP":877.5, "VISIB":58.1, "WDSP":6.8, "PRCP":0.00, "SNDP":0.0, "FRSHTT":"000000", "CLDC":72.5, "WNDDIR":352},{ "STN":40560,"DATE":"2022-05-20", "TIME":"05:51:40", "TEMP":-0.6, "DEWP":-3.4, "STP":936.3, "SLP":1013.5, "VISIB":39.7, "WDSP":25.7, "PRCP":0.00, "SNDP":1.2, "FRSHTT":"101000", "CLDC":86.4, "WNDDIR":65},{ "STN":161080,"DATE":"2022-05-20", "TIME":"05:51:40", "TEMP":11.7, "DEWP":5.6, "STP":1015.9, "SLP":1017.9, "VISIB":8.4, "WDSP":6.3, "PRCP":0.02, "SNDP":0.0, "FRSHTT":"010000", "CLDC":78.2, "WNDDIR":35}]}
,{"WEATHERDATA": [ {"STN":478550,"DATE":"2022-05-20", "TIME":"05:51:40", "TEMP":10.2, "DEWP":4.2, "STP":1002.2, "SLP":997.7, "VISIB":9.5, "WDSP":10.9, "PRCP":0.00, "SNDP":0.0, "FRSHTT":"000000", "CLDC":5.6, "WNDDIR":275},{ "STN":725246,"DATE":"2022-05-20", "TIME":"05:51:40", "TEMP":7.4, "DEWP":0.6, "STP":983.2, "SLP":1015.9, "VISIB":13.1, "WDSP":16.4, "PRCP":0.06, "SNDP":0.0, "FRSHTT":"010000", "CLDC":69.2, "WNDDIR":248},{ "STN":63750,"DATE":"2022-05-20", "TIME":"05:51:40", "TEMP":8.0, "DEWP":4.0, "STP":1014.5, "SLP":1015.2, "VISIB":13.2, "WDSP":11.9, "PRCP":0.04, "SNDP":0.0, "FRSHTT":"010000", "CLDC":53.5, "WNDDIR":149},{ "STN":725240,"DATE":"2022-05-20", "TIME":"05:51:40", "TEMP":7.7, "DEWP":2.9, "STP":988.7, "SLP":1015.8, "VISIB":16.1, "WDSP":19.3, "PRCP":0.05, "SNDP":0.0, "FRSHTT":"010000", "CLDC":57.5, "WNDDIR":93},{ "STN":400010,"DATE":"2022-05-20", "TIME":"05:51:40", "TEMP":8.2, "DEWP":-11.4, "STP":1011.5, "SLP":1008.6, "VISIB":14.9, "WDSP":17.3, "PRCP":0.00, "SNDP":0.0, "FRSHTT":"000000", "CLDC":47.7, "WNDDIR":55},{ "STN":170960,"DATE":"2022-05-20", "TIME":"05:51:40", "TEMP":1.9, "DEWP":-4.4, "STP":895.4, "SLP":890.1, "VISIB":16.4, "WDSP":14.0, "PRCP":0.05, "SNDP":0.0, "FRSHTT":"010000", "CLDC":50.1, "WNDDIR":54},{ "STN":478540,"DATE":"2022-05-20", "TIME":"05:51:40", "TEMP":7.9, "DEWP":2.9, "STP":1002.0, "SLP":1005.5, "VISIB":9.0, "WDSP":8.5, "PRCP":0.01, "SNDP":0.0, "FRSHTT":"010000", "CLDC":87.0, "WNDDIR":155},{ "STN":725216,"DATE":"2022-05-20", "TIME":"05:51:40", "TEMP":6.8, "DEWP":3.3, "STP":1017.4, "SLP":1015.9, "VISIB":13.0, "WDSP":13.7, "PRCP":0.10, "SNDP":0.0, "FRSHTT":"010000", "CLDC":51.7, "WNDDIR":21},{ "STN":725217,"DATE":"2022-05-20", "TIME":"05:51:40", "TEMP":7.9, "DEWP":2.3, "STP":1008.9, "SLP":1015.3, "VISIB":13.4, "WDSP":8.4, "PRCP":0.08, "SNDP":0.0, "FRSHTT":"010000", "CLDC":71.6, "WNDDIR":358},{ "STN":63770,"DATE":"2022-05-20", "TIME":"05:51:40", "TEMP":3.4, "DEWP":6.2, "STP":986.9, "SLP":1000.4, "VISIB":7.5, "WDSP":9.4, "PRCP":0.00, "SNDP":0.0, "FRSHTT":"000000", "CLDC":33.2, "WNDDIR":115}]}
,{"WEATHERDATA": [ {"STN":25750,"DATE":"2022-05-20", "TIME":"05:51:41", "TEMP":5.6, "DEWP":-0.1, "STP":1014.7, "SLP":1015.0, "VISIB":45.9, "WDSP":15.9, "PRCP":0.00, "SNDP":0.0, "FRSHTT":"000000", "CLDC":82.9, "WNDDIR":297},{ "STN":722156,"DATE":"2022-05-20", "TIME":"05:51:41", "TEMP":8.7, "DEWP":3.4, "STP":1038.5, "SLP":1014.0, "VISIB":15.8, "WDSP":2.0, "PRCP":0.02, "SNDP":0.0, "FRSHTT":"010000", "CLDC":63.9, "WNDDIR":253},{ "STN":722159,"DATE":"2022-05-20", "TIME":"05:51:41", "TEMP":19.6, "DEWP":14.1, "STP":1013.7, "SLP":1027.3, "VISIB":11.5, "WDSP":6.4, "PRCP":0.00, "SNDP":0.0, "FRSHTT":"000000", "CLDC":3.2, "WNDDIR":333},{ "STN":722158,"DATE":"2022-05-20", "TIME":"05:51:41", "TEMP":7.5, "DEWP":-0.2, "STP":1020.3, "SLP":1014.4, "VISIB":15.3, "WDSP":11.3, "PRCP":0.02, "SNDP":0.0, "FRSHTT":"010000", "CLDC":92.3, "WNDDIR":81},{ "STN":722152,"DATE":"2022-05-20", "TIME":"05:51:41", "TEMP":17.3, "DEWP":-7.3, "STP":1004.7, "SLP":994.8, "VISIB":16.0, "WDSP":12.7, "PRCP":0.00, "SNDP":0.0, "FRSHTT":"000000", "CLDC":93.9, "WNDDIR":330},{ "STN":722155,"DATE":"2022-05-20", "TIME":"05:51:41", "TEMP":7.1, "DEWP":-11.3, "STP":998.2, "SLP":1021.3, "VISIB":17.1, "WDSP":16.7, "PRCP":0.00, "SNDP":0.0, "FRSHTT":"000000", "CLDC":91.9, "WNDDIR":239},{ "STN":722154,"DATE":"2022-05-20", "TIME":"05:51:41", "TEMP":8.2, "DEWP":2.4, "STP":1011.0, "SLP":1016.2, "VISIB":13.8, "WDSP":1.7, "PRCP":0.00, "SNDP":0.0, "FRSHTT":"000000", "CLDC":41.8, "WNDDIR":174},{ "STN":272520,"DATE":"2022-05-20", "TIME":"05:51:41", "TEMP":5.6, "DEWP":-0.6, "STP":996.2, "SLP":1011.3, "VISIB":29.9, "WDSP":12.6, "PRCP":0.00, "SNDP":0.0, "FRSHTT":"000000", "CLDC":41.8, "WNDDIR":286},{ "STN":722149,"DATE":"2022-05-20", "TIME":"05:51:41", "TEMP":6.6, "DEWP":-4.0, "STP":1014.1, "SLP":1040.0, "VISIB":15.0, "WDSP":12.6, "PRCP":0.00, "SNDP":0.0, "FRSHTT":"000000", "CLDC":90.0, "WNDDIR":339},{ "STN":132690,"DATE":"2022-05-20", "TIME":"05:51:41", "TEMP":14.9, "DEWP":6.8, "STP":985.2, "SLP":1005.3, "VISIB":24.6, "WDSP":4.0, "PRCP":0.10, "SNDP":0.0, "FRSHTT":"010000", "CLDC":80.8, "WNDDIR":165}]}
,{"WEATHERDATA": [ {"STN":101310,"DATE":"2022-05-20", "TIME":"05:51:41", "TEMP":9.2, "DEWP":4.2, "STP":1016.6, "SLP":1016.6, "VISIB":16.5, "WDSP":19.9, "PRCP":0.01, "SNDP":0.0, "FRSHTT":"010000", "CLDC":86.4, "WNDDIR":234},{ "STN":424750,"DATE":"2022-05-20", "TIME":"05:51:41", "TEMP":25.5, "DEWP":-5.2, "STP":979.6, "SLP":1002.7, "VISIB":4.5, "WDSP":4.3, "PRCP":0.00, "SNDP":0.0, "FRSHTT":"000000", "CLDC":23.9, "WNDDIR":320},{ "STN":784580,"DATE":"2022-05-20", "TIME":"05:51:41", "TEMP":4.0, "DEWP":9.9, "STP":1002.2, "SLP":1014.6, "VISIB":16.9, "WDSP":5.5, "PRCP":0.00, "SNDP":0.0, "FRSHTT":"000000", "CLDC":83.6, "WNDDIR":153},{ "STN":680540,"DATE":"2022-05-20", "TIME":"05:51:41", "TEMP":8.6, "DEWP":0.4, "STP":1010.7, "SLP":1013.8, "VISIB":10.6, "WDSP":10.9, "PRCP":0.00, "SNDP":0.0, "FRSHTT":"000000", "CLDC":86.6, "WNDDIR":185},{ "STN":784600,"DATE":"2022-05-20", "TIME":"05:51:41", "TEMP":16.0, "DEWP":11.2, "STP":1011.7, "SLP":1014.1, "VISIB":9.1, "WDSP":11.6, "PRCP":0.00, "SNDP":0.0, "FRSHTT":"000000", "CLDC":39.6, "WNDDIR":216},{ "STN":101280,"DATE":"2022-05-20", "TIME":"05:51:41", "TEMP":6.5, "DEWP":0.9, "STP":1004.5, "SLP":1015.3, "VISIB":10.3, "WDSP":14.4, "PRCP":0.00, "SNDP":0.0, "FRSHTT":"000000", "CLDC":23.1, "WNDDIR":342},{ "STN":330490,"DATE":"2022-05-20", "TIME":"05:51:41", "TEMP":9.2, "DEWP":6.0, "STP":990.0, "SLP":1009.2, "VISIB":13.1, "WDSP":10.7, "PRCP":0.10, "SNDP":0.0, "FRSHTT":"010000", "CLDC":50.7, "WNDDIR":356},{ "STN":21990,"DATE":"2022-05-20", "TIME":"05:51:41", "TEMP":-0.4, "DEWP":-11.6, "STP":1003.2, "SLP":967.8, "VISIB":39.9, "WDSP":9.6, "PRCP":0.00, "SNDP":0.0, "FRSHTT":"100000", "CLDC":66.6, "WNDDIR":320},{ "STN":944770,"DATE":"2022-05-20", "TIME":"05:51:41", "TEMP":3.4, "DEWP":-8.9, "STP":983.1, "SLP":1021.3, "VISIB":43.4, "WDSP":3.8, "PRCP":0.00, "SNDP":0.0, "FRSHTT":"000000", "CLDC":30.7, "WNDDIR":138},{ "STN":612190,"DATE":"2022-05-20", "TIME":"05:51:41", "TEMP":28.1, "DEWP":-7.9, "STP":1015.2, "SLP":1007.3, "VISIB":25.6, "WDSP":9.3, "PRCP":0.00, "SNDP":0.0, "FRSHTT":"000000", "CLDC":70.4, "WNDDIR":203}]}
,{"WEATHERDATA": [ {"STN":726426,"DATE":"2022-05-20", "TIME":"05:51:41", "TEMP":4.0, "DEWP":-3.8, "STP":1010.4, "SLP":1015.2, "VISIB":17.2, "WDSP":17.2, "PRCP":0.00, "SNDP":0.0, "FRSHTT":"000000", "CLDC":63.5, "WNDDIR":172},{ "STN":967430,"DATE":"2022-05-20", "TIME":"05:51:41", "TEMP":21.4, "DEWP":17.7, "STP":1019.2, "SLP":1009.1, "VISIB":11.9, "WDSP":10.7, "PRCP":0.01, "SNDP":0.0, "FRSHTT":"010000", "CLDC":50.3, "WNDDIR":188},{ "STN":726430,"DATE":"2022-05-20", "TIME":"05:51:41", "TEMP":9.8, "DEWP":1.6, "STP":997.3, "SLP":1015.3, "VISIB":21.0, "WDSP":12.9, "PRCP":0.06, "SNDP":0.0, "FRSHTT":"010000", "CLDC":87.2, "WNDDIR":210},{ "STN":726417,"DATE":"2022-05-20", "TIME":"05:51:41", "TEMP":4.9, "DEWP":-2.4, "STP":993.7, "SLP":987.1, "VISIB":14.3, "WDSP":8.7, "PRCP":0.00, "SNDP":0.0, "FRSHTT":"000000", "CLDC":0.5, "WNDDIR":213},{ "STN":726416,"DATE":"2022-05-20", "TIME":"05:51:41", "TEMP":9.7, "DEWP":1.9, "STP":1005.8, "SLP":1004.4, "VISIB":13.6, "WDSP":11.0, "PRCP":0.03, "SNDP":0.0, "FRSHTT":"010000", "CLDC":50.5, "WNDDIR":169},{ "STN":655070,"DATE":"2022-05-20", "TIME":"05:51:41", "TEMP":25.6, "DEWP":12.6, "STP":1022.3, "SLP":1006.5, "VISIB":18.4, "WDSP":9.8, "PRCP":0.00, "SNDP":0.0, "FRSHTT":"000000", "CLDC":12.6, "WNDDIR":302},{ "STN":726419,"DATE":"2022-05-20", "TIME":"05:51:41", "TEMP":2.7, "DEWP":-5.4, "STP":1018.1, "SLP":1019.0, "VISIB":15.6, "WDSP":13.9, "PRCP":0.01, "SNDP":0.0, "FRSHTT":"010000", "CLDC":77.3, "WNDDIR":23},{ "STN":726418,"DATE":"2022-05-20", "TIME":"05:51:41", "TEMP":4.9, "DEWP":0.6, "STP":1013.2, "SLP":1020.6, "VISIB":15.6, "WDSP":13.4, "PRCP":0.00, "SNDP":0.0, "FRSHTT":"000000", "CLDC":57.1, "WNDDIR":307},{ "STN":109480,"DATE":"2022-05-20", "TIME":"05:51:41", "TEMP":5.8, "DEWP":-1.1, "STP":963.9, "SLP":963.9, "VISIB":33.3, "WDSP":5.0, "PRCP":0.03, "SNDP":0.0, "FRSHTT":"010000", "CLDC":50.7, "WNDDIR":43},{ "STN":109460,"DATE":"2022-05-20", "TIME":"05:51:41", "TEMP":7.0, "DEWP":-0.6, "STP":981.9, "SLP":1014.9, "VISIB":31.8, "WDSP":5.7, "PRCP":0.04, "SNDP":0.0, "FRSHTT":"010000", "CLDC":97.7, "WNDDIR":243}]}
,{"WEATHERDATA": [ {"STN":373950,"DATE":"2022-05-20", "TIME":"05:51:41", "TEMP":12.1, "DEWP":7.8, "STP":1021.6, "SLP":1015.2, "VISIB":21.3, "WDSP":17.9, "PRCP":0.02, "SNDP":0.0, "FRSHTT":"010000", "CLDC":81.4, "WNDDIR":81},{ "STN":131310,"DATE":"2022-05-20", "TIME":"05:51:41", "TEMP":10.4, "DEWP":3.5, "STP":1017.4, "SLP":1014.6, "VISIB":12.0, "WDSP":10.4, "PRCP":0.02, "SNDP":0.0, "FRSHTT":"010000", "CLDC":77.1, "WNDDIR":148},{ "STN":538450,"DATE":"2022-05-20", "TIME":"05:51:41", "TEMP":8.8, "DEWP":-4.5, "STP":931.9, "SLP":1009.9, "VISIB":15.0, "WDSP":4.8, "PRCP":0.04, "SNDP":0.0, "FRSHTT":"010000", "CLDC":50.7, "WNDDIR":32},{ "STN":289520,"DATE":"2022-05-20", "TIME":"05:51:41", "TEMP":4.0, "DEWP":-6.3, "STP":1012.3, "SLP":1016.9, "VISIB":20.6, "WDSP":13.1, "PRCP":0.01, "SNDP":0.0, "FRSHTT":"010000", "CLDC":54.1, "WNDDIR":239},{ "STN":131300,"DATE":"2022-05-20", "TIME":"05:51:41", "TEMP":10.7, "DEWP":8.1, "STP":1030.2, "SLP":1019.1, "VISIB":10.0, "WDSP":2.1, "PRCP":0.08, "SNDP":0.0, "FRSHTT":"010000", "CLDC":73.9, "WNDDIR":112},{ "STN":25130,"DATE":"2022-05-20", "TIME":"05:51:41", "TEMP":0.5, "DEWP":-7.2, "STP":1014.2, "SLP":1013.9, "VISIB":35.1, "WDSP":6.1, "PRCP":0.00, "SNDP":0.0, "FRSHTT":"000000", "CLDC":17.9, "WNDDIR":61},{ "STN":166240,"DATE":"2022-05-20", "TIME":"05:51:41", "TEMP":12.1, "DEWP":6.0, "STP":1000.8, "SLP":1000.1, "VISIB":10.7, "WDSP":5.8, "PRCP":0.00, "SNDP":0.0, "FRSHTT":"000000", "CLDC":83.6, "WNDDIR":314},{ "STN":166270,"DATE":"2022-05-20", "TIME":"05:51:41", "TEMP":11.3, "DEWP":5.0, "STP":1012.7, "SLP":1014.4, "VISIB":13.4, "WDSP":8.6, "PRCP":0.03, "SNDP":0.0, "FRSHTT":"010000", "CLDC":50.5, "WNDDIR":126},{ "STN":320360,"DATE":"2022-05-20", "TIME":"05:51:41", "TEMP":0.2, "DEWP":-2.6, "STP":1001.3, "SLP":1009.2, "VISIB":28.3, "WDSP":18.2, "PRCP":0.03, "SNDP":0.0, "FRSHTT":"010000", "CLDC":50.6, "WNDDIR":56},{ "STN":129200,"DATE":"2022-05-20", "TIME":"05:51:41", "TEMP":12.1, "DEWP":5.9, "STP":1012.1, "SLP":1016.8, "VISIB":16.9, "WDSP":6.2, "PRCP":0.08, "SNDP":0.0, "FRSHTT":"010000", "CLDC":91.8, "WNDDIR":17}]}
,{"WEATHERDATA": [ {"STN":727180,"DATE":"2022-05-20", "TIME":"05:51:41", "TEMP":2.6, "DEWP":2.5, "STP":999.8, "SLP":1003.3, "VISIB":7.6, "WDSP":22.5, "PRCP":0.09, "SNDP":0.0, "FRSHTT":"010000", "CLDC":54.5, "WNDDIR":359},{ "STN":337910,"DATE":"2022-05-20", "TIME":"05:51:41", "TEMP":10.3, "DEWP":0.7, "STP":1010.5, "SLP":1015.1, "VISIB":9.6, "WDSP":13.7, "PRCP":0.02, "SNDP":0.0, "FRSHTT":"010000", "CLDC":50.6, "WNDDIR":133},{ "STN":865860,"DATE":"2022-05-20", "TIME":"05:51:41", "TEMP":14.1, "DEWP":10.5, "STP":1034.8, "SLP":1008.4, "VISIB":11.9, "WDSP":10.0, "PRCP":0.00, "SNDP":0.0, "FRSHTT":"000000", "CLDC":96.8, "WNDDIR":78},{ "STN":61800,"DATE":"2022-05-20", "TIME":"05:51:41", "TEMP":7.2, "DEWP":2.0, "STP":1012.2, "SLP":1013.4, "VISIB":15.4, "WDSP":16.4, "PRCP":0.04, "SNDP":0.0, "FRSHTT":"010000", "CLDC":85.6, "WNDDIR":33},{ "STN":229540,"DATE":"2022-05-20", "TIME":"05:51:41", "TEMP":4.1, "DEWP":-2.9, "STP":1001.4, "SLP":1013.7, "VISIB":28.1, "WDSP":14.1, "PRCP":0.08, "SNDP":0.0, "FRSHTT":"010000", "CLDC":50.7, "WNDDIR":56},{ "STN":77610,"DATE":"2022-05-20", "TIME":"05:51:41", "TEMP":11.6, "DEWP":6.5, "STP":1016.7, "SLP":1014.4, "VISIB":11.4, "WDSP":11.8, "PRCP":0.05, "SNDP":0.0, "FRSHTT":"010000", "CLDC":50.4, "WNDDIR":157},{ "STN":372350,"DATE":"2022-05-20", "TIME":"05:51:41", "TEMP":10.9, "DEWP":3.8, "STP":1009.4, "SLP":1014.3, "VISIB":13.4, "WDSP":13.4, "PRCP":0.06, "SNDP":0.0, "FRSHTT":"010000", "CLDC":52.9, "WNDDIR":171},{ "STN":727200,"DATE":"2022-05-20", "TIME":"05:51:41", "TEMP":1.6, "DEWP":1.3, "STP":950.5, "SLP":998.0, "VISIB":13.3, "WDSP":11.4, "PRCP":0.48, "SNDP":0.0, "FRSHTT":"010000", "CLDC":50.1, "WNDDIR":212},{ "STN":155350,"DATE":"2022-05-20", "TIME":"05:51:41", "TEMP":12.9, "DEWP":6.6, "STP":1023.9, "SLP":1015.2, "VISIB":17.2, "WDSP":14.5, "PRCP":0.03, "SNDP":0.0, "FRSHTT":"010000", "CLDC":97.7, "WNDDIR":14},{ "STN":61790,"DATE":"2022-05-20", "TIME":"05:51:41", "TEMP":8.1, "DEWP":4.6, "STP":1020.2, "SLP":1016.9, "VISIB":13.6, "WDSP":20.8, "PRCP":0.01, "SNDP":0.0, "FRSHTT":"010000", "CLDC":90.9, "WNDDIR":194}]}
,{"WEATHERDATA": [ {"STN":784790,"DATE":"2022-05-20", "TIME":"05:51:41", "TEMP":10.8, "DEWP":6.1, "STP":1007.4, "SLP":1014.7, "VISIB":12.6, "WDSP":16.1, "PRCP":0.03, "SNDP":0.0, "FRSHTT":"010000", "CLDC":50.0, "WNDDIR":356},{ "STN":470460,"DATE":"2022-05-20", "TIME":"05:51:41", "TEMP":6.7, "DEWP":0.2, "STP":1010.2, "SLP":1009.8, "VISIB":13.7, "WDSP":12.0, "PRCP":0.03, "SNDP":0.0, "FRSHTT":"010000", "CLDC":50.9, "WNDDIR":324},{ "STN":784785,"DATE":"2022-05-20", "TIME":"05:51:41", "TEMP":16.9, "DEWP":12.5, "STP":973.0, "SLP":994.1, "VISIB":7.4, "WDSP":25.0, "PRCP":0.00, "SNDP":0.0, "FRSHTT":"000000", "CLDC":29.9, "WNDDIR":62},{ "STN":945100,"DATE":"2022-05-20", "TIME":"05:51:41", "TEMP":5.5, "DEWP":-3.5, "STP":989.5, "SLP":1005.0, "VISIB":52.8, "WDSP":9.8, "PRCP":0.02, "SNDP":0.0, "FRSHTT":"010000", "CLDC":50.8, "WNDDIR":148},{ "STN":876230,"DATE":"2022-05-20", "TIME":"05:51:41", "TEMP":3.3, "DEWP":-1.9, "STP":1006.2, "SLP":1016.1, "VISIB":29.0, "WDSP":10.0, "PRCP":0.01, "SNDP":0.0, "FRSHTT":"010000", "CLDC":52.0, "WNDDIR":273},{ "STN":945110,"DATE":"2022-05-20", "TIME":"05:51:41", "TEMP":20.2, "DEWP":13.1, "STP":972.6, "SLP":1018.5, "VISIB":49.8, "WDSP":7.2, "PRCP":0.00, "SNDP":0.0, "FRSHTT":"000000", "CLDC":68.1, "WNDDIR":66},{ "STN":83900,"DATE":"2022-05-20", "TIME":"05:51:41", "TEMP":11.4, "DEWP":0.0, "STP":1007.2, "SLP":1028.7, "VISIB":7.6, "WDSP":12.4, "PRCP":0.00, "SNDP":0.0, "FRSHTT":"000000", "CLDC":28.0, "WNDDIR":346},{ "STN":66430,"DATE":"2022-05-20", "TIME":"05:51:41", "TEMP":8.3, "DEWP":2.5, "STP":967.1, "SLP":1016.0, "VISIB":22.3, "WDSP":7.5, "PRCP":0.05, "SNDP":0.0, "FRSHTT":"010000", "CLDC":57.5, "WNDDIR":20},{ "STN":347980,"DATE":"2022-05-20", "TIME":"05:51:41", "TEMP":12.0, "DEWP":0.4, "STP":1020.1, "SLP":1017.0, "VISIB":12.0, "WDSP":9.6, "PRCP":0.00, "SNDP":0.0, "FRSHTT":"000000", "CLDC":21.7, "WNDDIR":266},{ "STN":424520,"DATE":"2022-05-20", "TIME":"05:51:41", "TEMP":20.4, "DEWP":-17.4, "STP":983.5, "SLP":1000.2, "VISIB":6.5, "WDSP":7.2, "PRCP":0.00, "SNDP":0.0, "FRSHTT":"000000", "CLDC":48.3, "WNDDIR":350}]}
,{"WEATHERDATA": [ {"STN":723815,"DATE":"2022-05-20", "TIME":"05:51:41", "TEMP":15.6, "DEWP":-6.4, "STP":953.4, "SLP":1009.5, "VISIB":37.8, "WDSP":23.9, "PRCP":0.00, "SNDP":0.0, "FRSHTT":"000000", "CLDC":63.8, "WNDDIR":163},{ "STN":540270,"DATE":"2022-05-20", "TIME":"05:51:41", "TEMP":6.5, "DEWP":-10.8, "STP":980.5, "SLP":1006.7, "VISIB":30.5, "WDSP":8.8, "PRCP":0.01, "SNDP":0.0, "FRSHTT":"010000", "CLDC":50.3, "WNDDIR":324},{ "STN":723860,"DATE":"2022-05-20", "TIME":"05:51:41", "TEMP":17.1, "DEWP":-8.0, "STP":941.7, "SLP":1008.1, "VISIB":42.9, "WDSP":20.3, "PRCP":0.00, "SNDP":0.0, "FRSHTT":"000000", "CLDC": "None" , "WNDDIR":65},{ "STN":164000,"DATE":"2022-05-20", "TIME":"05:51:41", "TEMP":14.1, "DEWP":10.2, "STP":1000.8, "SLP":1015.2, "VISIB":10.0, "WDSP":15.7, "PRCP":0.01, "SNDP":0.0, "FRSHTT":"010000", "CLDC":50.1, "WNDDIR":76},{ "STN":601500,"DATE":"2022-05-20", "TIME":"05:51:41", "TEMP":12.9, "DEWP":5.7, "STP":962.2, "SLP":1015.3, "VISIB":10.7, "WDSP":10.7, "PRCP":0.01, "SNDP":0.0, "FRSHTT":"010000", "CLDC":51.8, "WNDDIR":195},{ "STN":835520,"DATE":"2022-05-20", "TIME":"05:51:41", "TEMP":19.8, "DEWP":13.6, "STP":995.0, "SLP":979.5, "VISIB":9.8, "WDSP":15.0, "PRCP":0.00, "SNDP":0.0, "FRSHTT":"000000", "CLDC":33.9, "WNDDIR":273},{ "STN":741200,"DATE":"2022-05-20", "TIME":"05:51:41", "TEMP":4.6, "DEWP":-4.7, "STP":949.4, "SLP":1014.6, "VISIB":23.5, "WDSP":17.0, "PRCP":0.00, "SNDP":0.0, "FRSHTT":"000000", "CLDC":91.4, "WNDDIR":340},{ "STN":723870,"DATE":"2022-05-20", "TIME":"05:51:41", "TEMP":15.7, "DEWP":-9.0, "STP":924.0, "SLP":1008.5, "VISIB":24.0, "WDSP":17.9, "PRCP":0.00, "SNDP":0.0, "FRSHTT":"000000", "CLDC":1.3, "WNDDIR":45},{ "STN":723865,"DATE":"2022-05-20", "TIME":"05:51:41", "TEMP":17.4, "DEWP":-9.6, "STP":977.3, "SLP":1007.3, "VISIB":41.6, "WDSP":9.2, "PRCP":0.00, "SNDP":0.0, "FRSHTT":"000000", "CLDC":58.3, "WNDDIR":261},{ "STN":741210,"DATE":"2022-05-20", "TIME":"05:51:41", "TEMP":2.6, "DEWP":-3.2, "STP":932.3, "SLP":1015.3, "VISIB":24.4, "WDSP":17.5, "PRCP":0.00, "SNDP":0.0, "FRSHTT":"000000", "CLDC":81.0, "WNDDIR":44}]}
,{"WEATHERDATA": [ {"STN":24860,"DATE":"2022-05-20", "TIME":"05:51:41", "TEMP":-1.6, "DEWP":-6.8, "STP":976.5, "SLP":955.4, "VISIB":36.7, "WDSP":8.4, "PRCP":0.01, "SNDP":0.0, "FRSHTT":"110000", "CLDC":50.4, "WNDDIR":133},{ "STN":985530,"DATE":"2022-05-20", "TIME":"05:51:41", "TEMP":16.2, "DEWP":13.8, "STP":1043.1, "SLP":1009.8, "VISIB":16.7, "WDSP":4.5, "PRCP":0.05, "SNDP":0.0, "FRSHTT":"010000", "CLDC":50.4, "WNDDIR":168},{ "STN":129920,"DATE":"2022-05-20", "TIME":"05:51:41", "TEMP":10.3, "DEWP":2.3, "STP":1009.1, "SLP":1015.1, "VISIB":22.7, "WDSP":10.9, "PRCP":0.06, "SNDP":0.0, "FRSHTT":"010000", "CLDC":50.7, "WNDDIR":206},{ "STN":114500,"DATE":"2022-05-20", "TIME":"05:51:41", "TEMP":8.2, "DEWP":5.6, "STP":969.1, "SLP":1012.6, "VISIB":13.6, "WDSP":10.0, "PRCP":0.33, "SNDP":0.0, "FRSHTT":"010000", "CLDC":97.0, "WNDDIR":319},{ "STN":273690,"DATE":"2022-05-20", "TIME":"05:51:41", "TEMP":6.5, "DEWP":-0.9, "STP":999.6, "SLP":1012.4, "VISIB":28.9, "WDSP":10.8, "PRCP":0.00, "SNDP":0.0, "FRSHTT":"000000", "CLDC":20.2, "WNDDIR":42},{ "STN":343570,"DATE":"2022-05-20", "TIME":"05:51:41", "TEMP":9.4, "DEWP":1.0, "STP":1012.6, "SLP":1014.1, "VISIB":18.9, "WDSP":16.0, "PRCP":0.01, "SNDP":0.0, "FRSHTT":"010000", "CLDC":87.8, "WNDDIR":171},{ "STN":537720,"DATE":"2022-05-20", "TIME":"05:51:41", "TEMP":6.3, "DEWP":-5.4, "STP":971.8, "SLP":1009.9, "VISIB":15.9, "WDSP":9.5, "PRCP":0.01, "SNDP":0.0, "FRSHTT":"010000", "CLDC":61.0, "WNDDIR":5},{ "STN":132090,"DATE":"2022-05-20", "TIME":"05:51:41", "TEMP":10.9, "DEWP":4.6, "STP":1012.4, "SLP":1015.7, "VISIB":10.2, "WDSP":5.5, "PRCP":0.02, "SNDP":0.0, "FRSHTT":"010000", "CLDC":50.0, "WNDDIR":318},{ "STN":24880,"DATE":"2022-05-20", "TIME":"05:51:41", "TEMP":5.9, "DEWP":3.9, "STP":994.6, "SLP":995.7, "VISIB":20.1, "WDSP":12.6, "PRCP":0.00, "SNDP":0.0, "FRSHTT":"000000", "CLDC":38.9, "WNDDIR":286},{ "STN":985500,"DATE":"2022-05-20", "TIME":"05:51:41", "TEMP":13.7, "DEWP":8.9, "STP":1004.9, "SLP":1009.2, "VISIB":40.0, "WDSP":7.7, "PRCP":0.00, "SNDP":0.0, "FRSHTT":"000000", "CLDC":15.4, "WNDDIR":82}]}
,{"WEATHERDATA": [ {"STN":725395,"DATE":"2022-05-20", "TIME":"05:51:42", "TEMP":8.4, "DEWP":1.4, "STP":1018.3, "SLP":1015.4, "VISIB":17.2, "WDSP":16.6, "PRCP":0.02, "SNDP":0.0, "FRSHTT":"010000", "CLDC":60.6, "WNDDIR":135},{ "STN":725394,"DATE":"2022-05-20", "TIME":"05:51:42", "TEMP":6.3, "DEWP":-1.1, "STP":1018.2, "SLP":1017.1, "VISIB":15.1, "WDSP":15.1, "PRCP":0.05, "SNDP":0.0, "FRSHTT":"010000", "CLDC":81.9, "WNDDIR":89},{ "STN":725396,"DATE":"2022-05-20", "TIME":"05:51:42", "TEMP":7.9, "DEWP":-0.2, "STP":1008.2, "SLP":1009.6, "VISIB":23.4, "WDSP":10.7, "PRCP":0.02, "SNDP":0.0, "FRSHTT":"010000", "CLDC":74.4, "WNDDIR":310},{ "STN":478270,"DATE":"2022-05-20", "TIME":"05:51:42", "TEMP":8.7, "DEWP":4.0, "STP":1007.8, "SLP":1010.9, "VISIB":21.3, "WDSP":10.1, "PRCP":0.15, "SNDP":0.0, "FRSHTT":"010000", "CLDC":50.2, "WNDDIR":126},{ "STN":125800,"DATE":"2022-05-20", "TIME":"05:51:42", "TEMP":7.6, "DEWP":1.9, "STP":1008.9, "SLP":1014.9, "VISIB":14.6, "WDSP":13.2, "PRCP":0.06, "SNDP":0.0, "FRSHTT":"010000", "CLDC":50.6, "WNDDIR":120},{ "STN":75300,"DATE":"2022-05-20", "TIME":"05:51:42", "TEMP":10.0, "DEWP":4.5, "STP":1009.3, "SLP":1017.3, "VISIB":18.9, "WDSP":8.9, "PRCP":0.03, "SNDP":0.0, "FRSHTT":"010000", "CLDC":51.9, "WNDDIR":342},{ "STN":170670,"DATE":"2022-05-20", "TIME":"05:51:42", "TEMP":12.6, "DEWP":6.3, "STP":1012.5, "SLP":1014.0, "VISIB":15.4, "WDSP":4.6, "PRCP":0.05, "SNDP":0.0, "FRSHTT":"010000", "CLDC":76.9, "WNDDIR":157},{ "STN":170671,"DATE":"2022-05-20", "TIME":"05:51:42", "TEMP":7.4, "DEWP":-10.4, "STP":993.8, "SLP":992.4, "VISIB":9.2, "WDSP":11.3, "PRCP":0.00, "SNDP":0.0, "FRSHTT":"000000", "CLDC":0.5, "WNDDIR":144},{ "STN":509360,"DATE":"2022-05-20", "TIME":"05:51:42", "TEMP":5.1, "DEWP":2.4, "STP":1001.1, "SLP":1006.1, "VISIB":23.5, "WDSP":24.2, "PRCP":0.04, "SNDP":0.0, "FRSHTT":"010000", "CLDC":50.3, "WNDDIR":146},{ "STN":725405,"DATE":"2022-05-20", "TIME":"05:51:42", "TEMP":4.3, "DEWP":-2.9, "STP":1012.4, "SLP":1005.0, "VISIB":12.8, "WDSP":9.0, "PRCP":0.00, "SNDP":0.0, "FRSHTT":"000000", "CLDC":49.5, "WNDDIR":189}]}
,{"WEATHERDATA": [ {"STN":37750,"DATE":"2022-05-20", "TIME":"05:51:42", "TEMP":8.7, "DEWP":7.0, "STP":969.9, "SLP":1004.2, "VISIB":12.1, "WDSP":12.3, "PRCP":0.05, "SNDP":0.0, "FRSHTT":"010000", "CLDC":73.2, "WNDDIR":359},{ "STN":284400,"DATE":"2022-05-20", "TIME":"05:51:42", "TEMP":3.1, "DEWP":-3.2, "STP":999.5, "SLP":1011.6, "VISIB":8.7, "WDSP":11.0, "PRCP":0.03, "SNDP":0.0, "FRSHTT":"010000", "CLDC":95.2, "WNDDIR":119},{ "STN":24110,"DATE":"2022-05-20", "TIME":"05:51:42", "TEMP":-2.8, "DEWP":-8.5, "STP":1006.2, "SLP":1014.0, "VISIB":32.8, "WDSP":3.8, "PRCP":0.01, "SNDP":0.0, "FRSHTT":"110000", "CLDC":50.4, "WNDDIR":284},{ "STN":697564,"DATE":"2022-05-20", "TIME":"05:51:42", "TEMP":31.6, "DEWP":25.4, "STP":1002.5, "SLP":1003.5, "VISIB":9.8, "WDSP":11.7, "PRCP":0.00, "SNDP":0.0, "FRSHTT":"000000", "CLDC":66.1, "WNDDIR":315},{ "STN":239210,"DATE":"2022-05-20", "TIME":"05:51:42", "TEMP":0.2, "DEWP":-11.5, "STP":999.9, "SLP":1011.1, "VISIB":49.3, "WDSP":9.1, "PRCP":0.00, "SNDP":0.0, "FRSHTT":"000000", "CLDC":0.3, "WNDDIR":42},{ "STN":839370,"DATE":"2022-05-20", "TIME":"05:51:42", "TEMP":5.6, "DEWP":4.2, "STP":1035.3, "SLP":1016.8, "VISIB":8.7, "WDSP":18.3, "PRCP":0.00, "SNDP":0.0, "FRSHTT":"000000", "CLDC":98.7, "WNDDIR":210},{ "STN":24100,"DATE":"2022-05-20", "TIME":"05:51:42", "TEMP":2.0, "DEWP":-5.4, "STP":1014.8, "SLP":1015.3, "VISIB":54.2, "WDSP":7.2, "PRCP":0.02, "SNDP":0.0, "FRSHTT":"010000", "CLDC":94.9, "WNDDIR":119},{ "STN":406720,"DATE":"2022-05-20", "TIME":"05:51:42", "TEMP":21.1, "DEWP":3.8, "STP":970.8, "SLP":1003.7, "VISIB":14.3, "WDSP":13.4, "PRCP":0.02, "SNDP":0.0, "FRSHTT":"010000", "CLDC":51.0, "WNDDIR":117},{ "STN":37780,"DATE":"2022-05-20", "TIME":"05:51:42", "TEMP":9.9, "DEWP":4.7, "STP":1013.8, "SLP":1013.3, "VISIB":15.3, "WDSP":13.6, "PRCP":0.00, "SNDP":0.0, "FRSHTT":"000000", "CLDC":91.4, "WNDDIR":157},{ "STN":224220,"DATE":"2022-05-20", "TIME":"05:51:42", "TEMP":1.5, "DEWP":-3.1, "STP":1017.0, "SLP":1015.6, "VISIB":32.1, "WDSP":14.0, "PRCP":0.02, "SNDP":0.0, "FRSHTT":"010000", "CLDC":93.4, "WNDDIR":116}]}
,{"WEATHERDATA": [ {"STN":728740,"DATE":"2022-05-20", "TIME":"05:51:44", "TEMP":3.2, "DEWP":-11.9, "STP":906.4, "SLP":1013.0, "VISIB":98.6, "WDSP":14.7, "PRCP":0.00, "SNDP":0.0, "FRSHTT":"000000", "CLDC":36.3, "WNDDIR":79},{ "STN":63300,"DATE":"2022-05-20", "TIME":"05:51:44", "TEMP":9.6, "DEWP":6.2, "STP":1014.6, "SLP":1021.0, "VISIB":15.6, "WDSP":25.1, "PRCP":0.04, "SNDP":0.0, "FRSHTT":"010000", "CLDC":96.6, "WNDDIR":98},{ "STN":200460,"DATE":"2022-05-20", "TIME":"05:51:44", "TEMP":-9.0, "DEWP":-11.2, "STP":1022.7, "SLP":1017.3, "VISIB":19.7, "WDSP":18.9, "PRCP":0.01, "SNDP":9.0, "FRSHTT":"111000", "CLDC":51.1, "WNDDIR":137},{ "STN":475920,"DATE":"2022-05-20", "TIME":"05:51:44", "TEMP":4.1, "DEWP":-1.6, "STP":1009.4, "SLP":1011.0, "VISIB":21.0, "WDSP":13.6, "PRCP":0.04, "SNDP":0.0, "FRSHTT":"010000", "CLDC":50.5, "WNDDIR":272},{ "STN":32450,"DATE":"2022-05-20", "TIME":"05:51:44", "TEMP":7.7, "DEWP":3.0, "STP":1011.9, "SLP":1009.8, "VISIB":14.0, "WDSP":11.6, "PRCP":0.01, "SNDP":0.0, "FRSHTT":"010000", "CLDC":51.8, "WNDDIR":113},{ "STN":231050,"DATE":"2022-05-20", "TIME":"05:51:44", "TEMP":-4.4, "DEWP":-6.2, "STP":1020.8, "SLP":1018.0, "VISIB":24.0, "WDSP":20.6, "PRCP":0.00, "SNDP":0.0, "FRSHTT":"100000", "CLDC":88.5, "WNDDIR":45},{ "STN":728760,"DATE":"2022-05-20", "TIME":"05:51:44", "TEMP":4.5, "DEWP":-2.4, "STP":948.6, "SLP":1013.5, "VISIB":21.8, "WDSP":23.4, "PRCP":0.00, "SNDP":0.0, "FRSHTT":"000000", "CLDC":44.7, "WNDDIR":138},{ "STN":32460,"DATE":"2022-05-20", "TIME":"05:51:44", "TEMP":7.7, "DEWP":3.9, "STP":1015.4, "SLP":1015.1, "VISIB":18.7, "WDSP":12.3, "PRCP":0.03, "SNDP":0.0, "FRSHTT":"010000", "CLDC":84.7, "WNDDIR":167},{ "STN":275155,"DATE":"2022-05-20", "TIME":"05:51:44", "TEMP":5.6, "DEWP":-0.2, "STP":996.2, "SLP":997.8, "VISIB":8.8, "WDSP":12.8, "PRCP":0.00, "SNDP":0.0, "FRSHTT":"000000", "CLDC":7.7, "WNDDIR":318},{ "STN":535430,"DATE":"2022-05-20", "TIME":"05:51:44", "TEMP":7.6, "DEWP":-10.1, "STP":874.7, "SLP":1009.6, "VISIB":26.5, "WDSP":14.5, "PRCP":0.02, "SNDP":0.0, "FRSHTT":"010000", "CLDC":50.8, "WNDDIR":233}]}
,{"WEATHERDATA": [ {"STN":722524,"DATE":"2022-05-20", "TIME":"05:51:44", "TEMP":21.2, "DEWP":15.2, "STP":1018.0, "SLP":1014.0, "VISIB":12.6, "WDSP":17.8, "PRCP":0.01, "SNDP":0.0, "FRSHTT":"010000", "CLDC":97.6, "WNDDIR":59},{ "STN":710680,"DATE":"2022-05-20", "TIME":"05:51:44", "TEMP":4.1, "DEWP":-5.8, "STP":944.5, "SLP":1012.5, "VISIB":23.7, "WDSP":15.3, "PRCP":0.04, "SNDP":0.0, "FRSHTT":"010000", "CLDC":99.3, "WNDDIR":99},{ "STN":722499,"DATE":"2022-05-20", "TIME":"05:51:44", "TEMP":18.0, "DEWP":14.5, "STP":1022.3, "SLP":1035.0, "VISIB":17.1, "WDSP":13.8, "PRCP":0.00, "SNDP":0.0, "FRSHTT":"000000", "CLDC":70.1, "WNDDIR":357},{ "STN":710660,"DATE":"2022-05-20", "TIME":"05:51:44", "TEMP":3.3, "DEWP":-4.2, "STP":970.9, "SLP":1012.2, "VISIB":23.2, "WDSP":9.1, "PRCP":0.05, "SNDP":0.1, "FRSHTT":"011000", "CLDC":50.2, "WNDDIR":125},{ "STN":722500,"DATE":"2022-05-20", "TIME":"05:51:44", "TEMP":17.2, "DEWP":13.6, "STP":1011.1, "SLP":1012.5, "VISIB":14.9, "WDSP":20.8, "PRCP":0.04, "SNDP":0.0, "FRSHTT":"010000", "CLDC":51.9, "WNDDIR":152},{ "STN":202740,"DATE":"2022-05-20", "TIME":"05:51:44", "TEMP":-8.2, "DEWP":-9.9, "STP":1020.5, "SLP":1016.5, "VISIB":21.4, "WDSP":19.7, "PRCP":0.00, "SNDP":2.1, "FRSHTT":"101000", "CLDC":71.3, "WNDDIR":160},{ "STN":43900,"DATE":"2022-05-20", "TIME":"05:51:44", "TEMP":1.3, "DEWP":-0.9, "STP":1012.1, "SLP":1014.5, "VISIB":22.1, "WDSP":33.8, "PRCP":0.07, "SNDP":0.0, "FRSHTT":"010000", "CLDC":50.8, "WNDDIR":81},{ "STN":722506,"DATE":"2022-05-20", "TIME":"05:51:44", "TEMP":19.6, "DEWP":12.4, "STP":1011.3, "SLP":1012.2, "VISIB":18.2, "WDSP":21.5, "PRCP":0.01, "SNDP":0.0, "FRSHTT":"010000", "CLDC":50.4, "WNDDIR":301},{ "STN":26160,"DATE":"2022-05-20", "TIME":"05:51:44", "TEMP":8.5, "DEWP":4.4, "STP":1019.7, "SLP":1016.2, "VISIB":24.0, "WDSP":21.5, "PRCP":0.03, "SNDP":0.0, "FRSHTT":"010000", "CLDC":76.9, "WNDDIR":97},{ "STN":722505,"DATE":"2022-05-20", "TIME":"05:51:44", "TEMP":17.2, "DEWP":12.8, "STP":1014.4, "SLP":1008.6, "VISIB":30.8, "WDSP":17.9, "PRCP":0.00, "SNDP":0.0, "FRSHTT":"000000", "CLDC":34.0, "WNDDIR":94}]}
,{"WEATHERDATA": [ {"STN":689160,"DATE":"2022-05-20", "TIME":"05:51:44", "TEMP":10.3, "DEWP":8.7, "STP":986.8, "SLP":1015.7, "VISIB":21.5, "WDSP":33.8, "PRCP":0.06, "SNDP":0.0, "FRSHTT":"010000", "CLDC":50.7, "WNDDIR":151},{ "STN":728710,"DATE":"2022-05-20", "TIME":"05:51:44", "TEMP":1.3, "DEWP":-5.1, "STP":940.7, "SLP":1014.8, "VISIB":25.5, "WDSP":17.7, "PRCP":0.00, "SNDP":0.0, "FRSHTT":"000000", "CLDC":22.0, "WNDDIR":73},{ "STN":246390,"DATE":"2022-05-20", "TIME":"05:51:44", "TEMP":0.7, "DEWP":-8.6, "STP":991.5, "SLP":1003.8, "VISIB":29.5, "WDSP":9.8, "PRCP":0.01, "SNDP":0.0, "FRSHTT":"010000", "CLDC":89.2, "WNDDIR":357},{ "STN":124000,"DATE":"2022-05-20", "TIME":"05:51:44", "TEMP":9.2, "DEWP":1.2, "STP":1008.3, "SLP":1015.3, "VISIB":22.5, "WDSP":12.7, "PRCP":0.06, "SNDP":0.0, "FRSHTT":"010000", "CLDC":50.1, "WNDDIR":118},{ "STN":552790,"DATE":"2022-05-20", "TIME":"05:51:44", "TEMP":-1.3, "DEWP":-15.1, "STP":1002.7, "SLP":1000.4, "VISIB":27.6, "WDSP":16.7, "PRCP":0.01, "SNDP":0.0, "FRSHTT":"110000", "CLDC":69.8, "WNDDIR":66},{ "STN":583380,"DATE":"2022-05-20", "TIME":"05:51:44", "TEMP":15.0, "DEWP":8.5, "STP":1004.9, "SLP":1009.2, "VISIB":12.2, "WDSP":8.9, "PRCP":0.07, "SNDP":0.0, "FRSHTT":"010000", "CLDC":51.2, "WNDDIR":131},{ "STN":14880,"DATE":"2022-05-20", "TIME":"05:51:44", "TEMP":6.9, "DEWP":-2.4, "STP":1012.0, "SLP":1014.1, "VISIB":17.9, "WDSP":8.5, "PRCP":0.05, "SNDP":0.0, "FRSHTT":"010000", "CLDC":62.4, "WNDDIR":301},{ "STN":728730,"DATE":"2022-05-20", "TIME":"05:51:44", "TEMP":2.2, "DEWP":-5.1, "STP":921.1, "SLP":1015.6, "VISIB":23.6, "WDSP":15.1, "PRCP":0.00, "SNDP":0.0, "FRSHTT":"000000", "CLDC":2.6, "WNDDIR":17},{ "STN":76070,"DATE":"2022-05-20", "TIME":"05:51:44", "TEMP":10.6, "DEWP":6.2, "STP":1011.7, "SLP":1015.9, "VISIB":14.1, "WDSP":8.6, "PRCP":0.10, "SNDP":0.0, "FRSHTT":"010000", "CLDC":69.7, "WNDDIR":127},{ "STN":200490,"DATE":"2022-05-20", "TIME":"05:51:44", "TEMP":-7.1, "DEWP":-8.5, "STP":991.2, "SLP":999.0, "VISIB":15.0, "WDSP":17.0, "PRCP":0.00, "SNDP":9.7, "FRSHTT":"101000", "CLDC":87.4, "WNDDIR":173}]}
,{"WEATHERDATA": [ {"STN":871550,"DATE":"2022-05-20", "TIME":"05:51:44", "TEMP":9.8, "DEWP":5.3, "STP":1010.0, "SLP":1015.1, "VISIB":14.6, "WDSP":5.8, "PRCP":0.05, "SNDP":0.0, "FRSHTT":"010000", "CLDC":53.9, "WNDDIR":21},{ "STN":718895,"DATE":"2022-05-20", "TIME":"05:51:44", "TEMP":5.2, "DEWP":-6.0, "STP":1004.1, "SLP":1018.9, "VISIB":32.4, "WDSP":3.7, "PRCP":0.00, "SNDP":0.0, "FRSHTT":"000000", "CLDC":26.6, "WNDDIR":211},{ "STN":474880,"DATE":"2022-05-20", "TIME":"05:51:44", "TEMP":5.0, "DEWP":1.0, "STP":999.8, "SLP":1000.9, "VISIB":11.1, "WDSP":12.1, "PRCP":0.00, "SNDP":0.0, "FRSHTT":"000000", "CLDC":61.6, "WNDDIR":193},{ "STN":70100,"DATE":"2022-05-20", "TIME":"05:51:44", "TEMP":10.3, "DEWP":6.1, "STP":1018.4, "SLP":1016.0, "VISIB":15.0, "WDSP":21.6, "PRCP":0.02, "SNDP":0.0, "FRSHTT":"010000", "CLDC":79.4, "WNDDIR":84},{ "STN":122000,"DATE":"2022-05-20", "TIME":"05:51:44", "TEMP":8.1, "DEWP":3.4, "STP":1019.5, "SLP":1016.0, "VISIB":23.1, "WDSP":11.4, "PRCP":0.01, "SNDP":0.0, "FRSHTT":"010000", "CLDC":66.9, "WNDDIR":269},{ "STN":404480,"DATE":"2022-05-20", "TIME":"05:51:44", "TEMP":18.5, "DEWP":7.4, "STP":1003.4, "SLP":1007.2, "VISIB":12.5, "WDSP":5.0, "PRCP":0.00, "SNDP":0.0, "FRSHTT":"000000", "CLDC":99.0, "WNDDIR":229},{ "STN":718890,"DATE":"2022-05-20", "TIME":"05:51:44", "TEMP":7.6, "DEWP":-2.1, "STP":972.3, "SLP":1013.1, "VISIB":23.0, "WDSP":9.0, "PRCP":0.02, "SNDP":0.2, "FRSHTT":"011000", "CLDC":58.3, "WNDDIR":120},{ "STN":104530,"DATE":"2022-05-20", "TIME":"05:51:44", "TEMP":2.1, "DEWP":0.1, "STP":988.5, "SLP":993.1, "VISIB":11.7, "WDSP":38.7, "PRCP":0.10, "SNDP":0.0, "FRSHTT":"010000", "CLDC":58.9, "WNDDIR":68},{ "STN":104880,"DATE":"2022-05-20", "TIME":"05:51:44", "TEMP":7.1, "DEWP":1.4, "STP":1020.3, "SLP":1015.9, "VISIB":12.7, "WDSP":13.4, "PRCP":0.07, "SNDP":0.0, "FRSHTT":"010000", "CLDC":50.3, "WNDDIR":269},{ "STN":295530,"DATE":"2022-05-20", "TIME":"05:51:44", "TEMP":1.7, "DEWP":-6.4, "STP":1015.5, "SLP":1011.5, "VISIB":28.8, "WDSP":11.1, "PRCP":0.03, "SNDP":0.0, "FRSHTT":"010000", "CLDC":50.2, "WNDDIR":112}]}
,{"WEATHERDATA": [ {"STN":727180,"DATE":"2022-05-20", "TIME":"05:51:46", "TEMP":2.9, "DEWP":2.8, "STP":999.9, "SLP":1003.3, "VISIB":7.7, "WDSP":22.2, "PRCP":0.09, "SNDP":0.0, "FRSHTT":"010000", "CLDC":54.6, "WNDDIR":358},{ "STN":337910,"DATE":"2022-05-20", "TIME":"05:51:46", "TEMP":10.0, "DEWP":2.0, "STP":1010.5, "SLP":1015.1, "VISIB":9.8, "WDSP":13.6, "PRCP":0.02, "SNDP":0.0, "FRSHTT":"010000", "CLDC":50.7, "WNDDIR":133},{ "STN":865860,"DATE":"2022-05-20", "TIME":"05:51:46", "TEMP":14.7, "DEWP":10.5, "STP":1035.1, "SLP":1008.4, "VISIB":11.9, "WDSP":10.0, "PRCP":0.00, "SNDP":0.0, "FRSHTT":"000000", "CLDC":96.8, "WNDDIR":77},{ "STN":61800,"DATE":"2022-05-20", "TIME":"05:51:46", "TEMP":7.2, "DEWP":1.2, "STP":1012.0, "SLP":1013.4, "VISIB":15.4, "WDSP":16.9, "PRCP":0.04, "SNDP":0.0, "FRSHTT":"010000", "CLDC":85.5, "WNDDIR":32},{ "STN":229540,"DATE":"2022-05-20", "TIME":"05:51:46", "TEMP":4.1, "DEWP":-2.9, "STP":1001.3, "SLP":1013.7, "VISIB":28.0, "WDSP":14.2, "PRCP":0.08, "SNDP":0.0, "FRSHTT":"010000", "CLDC":50.6, "WNDDIR":58},{ "STN":77610,"DATE":"2022-05-20", "TIME":"05:51:46", "TEMP":11.6, "DEWP":6.5, "STP":1016.6, "SLP":1014.4, "VISIB":11.4, "WDSP":12.2, "PRCP":0.05, "SNDP":0.0, "FRSHTT":"010000", "CLDC":50.6, "WNDDIR":155},{ "STN":372350,"DATE":"2022-05-20", "TIME":"05:51:46", "TEMP":10.9, "DEWP":4.9, "STP":1009.4, "SLP":1014.3, "VISIB":13.5, "WDSP":13.2, "PRCP":0.06, "SNDP":0.0, "FRSHTT":"010000", "CLDC":52.7, "WNDDIR":171},{ "STN":727200,"DATE":"2022-05-20", "TIME":"05:51:46", "TEMP":1.9, "DEWP":1.3, "STP":950.5, "SLP":998.0, "VISIB":13.2, "WDSP":11.5, "PRCP":0.48, "SNDP":0.0, "FRSHTT":"010000", "CLDC":50.0, "WNDDIR":212},{ "STN":155350,"DATE":"2022-05-20", "TIME":"05:51:46", "TEMP":13.4, "DEWP":5.5, "STP":1024.0, "SLP":1015.2, "VISIB":17.3, "WDSP":14.6, "PRCP":0.03, "SNDP":0.0, "FRSHTT":"010000", "CLDC":97.6, "WNDDIR":13},{ "STN":61790,"DATE":"2022-05-20", "TIME":"05:51:46", "TEMP":7.8, "DEWP":4.6, "STP":1020.2, "SLP":1016.8, "VISIB":13.5, "WDSP":20.9, "PRCP":0.01, "SNDP":0.0, "FRSHTT":"010000", "CLDC":90.9, "WNDDIR":193}]}
,{"WEATHERDATA": [ {"STN":479810,"DATE":"2022-05-20", "TIME":"05:51:46", "TEMP":15.8, "DEWP":12.2, "STP":1001.8, "SLP":1006.9, "VISIB":22.5, "WDSP":20.3, "PRCP":0.02, "SNDP":0.0, "FRSHTT":"010000", "CLDC":85.8, "WNDDIR":291},{ "STN":724970,"DATE":"2022-05-20", "TIME":"05:51:46", "TEMP":14.6, "DEWP":3.7, "STP":1034.1, "SLP":1014.5, "VISIB":21.4, "WDSP":11.6, "PRCP":0.00, "SNDP":0.0, "FRSHTT":"000000", "CLDC":69.8, "WNDDIR":1},{ "STN":724975,"DATE":"2022-05-20", "TIME":"05:51:46", "TEMP":8.0, "DEWP":-4.0, "STP":1015.9, "SLP":1008.2, "VISIB":13.3, "WDSP":1.7, "PRCP":0.00, "SNDP":0.0, "FRSHTT":"000000", "CLDC":62.4, "WNDDIR":160},{ "STN":912500,"DATE":"2022-05-20", "TIME":"05:51:46", "TEMP":28.9, "DEWP":25.6, "STP":1009.2, "SLP":1009.9, "VISIB":21.0, "WDSP":26.4, "PRCP":0.00, "SNDP":0.0, "FRSHTT":"000000", "CLDC":35.6, "WNDDIR":90},{ "STN":111010,"DATE":"2022-05-20", "TIME":"05:51:46", "TEMP":9.8, "DEWP":4.3, "STP":971.4, "SLP":1013.3, "VISIB":17.9, "WDSP":5.7, "PRCP":0.05, "SNDP":0.0, "FRSHTT":"010000", "CLDC":67.8, "WNDDIR":209},{ "STN":28640,"DATE":"2022-05-20", "TIME":"05:51:46", "TEMP":1.7, "DEWP":-3.7, "STP":1012.7, "SLP":1015.1, "VISIB":35.0, "WDSP":10.1, "PRCP":0.01, "SNDP":0.0, "FRSHTT":"010000", "CLDC":50.9, "WNDDIR":295},{ "STN":570140,"DATE":"2022-05-20", "TIME":"05:51:46", "TEMP":5.8, "DEWP":-8.9, "STP":987.8, "SLP":1009.6, "VISIB":28.9, "WDSP":9.8, "PRCP":0.00, "SNDP":0.0, "FRSHTT":"000000", "CLDC":71.0, "WNDDIR":128},{ "STN":724885,"DATE":"2022-05-20", "TIME":"05:51:46", "TEMP":9.8, "DEWP":-6.8, "STP":895.7, "SLP":1013.1, "VISIB":38.8, "WDSP":11.1, "PRCP":0.01, "SNDP":0.0, "FRSHTT":"010000", "CLDC":69.5, "WNDDIR":231},{ "STN":11050,"DATE":"2022-05-20", "TIME":"05:51:46", "TEMP":4.9, "DEWP":3.3, "STP":1043.5, "SLP":1015.2, "VISIB":35.3, "WDSP":37.4, "PRCP":0.11, "SNDP":0.0, "FRSHTT":"010000", "CLDC":60.0, "WNDDIR":162},{ "STN":724880,"DATE":"2022-05-20", "TIME":"05:51:46", "TEMP":6.9, "DEWP":-7.9, "STP":882.3, "SLP":1012.4, "VISIB":29.3, "WDSP":12.7, "PRCP":0.00, "SNDP":0.0, "FRSHTT":"000000", "CLDC":5.7, "WNDDIR":202}]}
,{"WEATHERDATA": [ {"STN":478800,"DATE":"2022-05-20", "TIME":"05:51:46", "TEMP":8.8, "DEWP":0.2, "STP":1004.2, "SLP":1005.8, "VISIB":10.8, "WDSP":12.4, "PRCP":0.00, "SNDP":0.0, "FRSHTT":"000000", "CLDC":89.2, "WNDDIR":181},{ "STN":64000,"DATE":"2022-05-20", "TIME":"05:51:46", "TEMP":8.9, "DEWP":4.8, "STP":1012.0, "SLP":1015.3, "VISIB":12.5, "WDSP":16.2, "PRCP":0.07, "SNDP":0.0, "FRSHTT":"010000", "CLDC":59.0, "WNDDIR":43},{ "STN":339100,"DATE":"2022-05-20", "TIME":"05:51:46", "TEMP":11.9, "DEWP":5.4, "STP":1017.3, "SLP":1015.0, "VISIB":19.3, "WDSP":14.4, "PRCP":0.01, "SNDP":0.1, "FRSHTT":"011000", "CLDC":74.2, "WNDDIR":140},{ "STN":74820,"DATE":"2022-05-20", "TIME":"05:51:46", "TEMP":9.7, "DEWP":4.0, "STP":989.1, "SLP":1015.3, "VISIB":29.0, "WDSP":12.2, "PRCP":0.11, "SNDP":0.0, "FRSHTT":"010000", "CLDC":50.5, "WNDDIR":116},{ "STN":14150,"DATE":"2022-05-20", "TIME":"05:51:46", "TEMP":6.3, "DEWP":1.2, "STP":1015.3, "SLP":1015.0, "VISIB":15.4, "WDSP":18.2, "PRCP":0.02, "SNDP":0.0, "FRSHTT":"010000", "CLDC":87.7, "WNDDIR":115},{ "STN":919580,"DATE":"2022-05-20", "TIME":"05:51:46", "TEMP":19.3, "DEWP":14.7, "STP":1025.0, "SLP":1016.0, "VISIB":22.4, "WDSP":16.0, "PRCP":0.14, "SNDP":0.0, "FRSHTT":"010000", "CLDC":82.0, "WNDDIR":332},{ "STN":725955,"DATE":"2022-05-20", "TIME":"05:51:46", "TEMP":7.4, "DEWP":-3.9, "STP":986.9, "SLP":1016.1, "VISIB":40.7, "WDSP":13.8, "PRCP":0.00, "SNDP":0.0, "FRSHTT":"000000", "CLDC":67.1, "WNDDIR":35},{ "STN":725957,"DATE":"2022-05-20", "TIME":"05:51:46", "TEMP":6.6, "DEWP":-2.0, "STP":1021.0, "SLP":1016.8, "VISIB":14.7, "WDSP":5.5, "PRCP":0.18, "SNDP":0.0, "FRSHTT":"010000", "CLDC":52.3, "WNDDIR":286},{ "STN":29630,"DATE":"2022-05-20", "TIME":"05:51:46", "TEMP":3.0, "DEWP":-6.0, "STP":1016.4, "SLP":1014.8, "VISIB":33.3, "WDSP":12.4, "PRCP":0.04, "SNDP":0.0, "FRSHTT":"010000", "CLDC":59.1, "WNDDIR":115},{ "STN":725958,"DATE":"2022-05-20", "TIME":"05:51:46", "TEMP":6.4, "DEWP":-4.7, "STP": "None" , "SLP":1014.7, "VISIB":13.9, "WDSP":10.9, "PRCP":0.00, "SNDP":0.0, "FRSHTT":"000000", "CLDC":6.6, "WNDDIR":12}]}
,{"WEATHERDATA": [ {"STN":872700,"DATE":"2022-05-20", "TIME":"05:51:46", "TEMP":9.1, "DEWP":4.7, "STP":1014.1, "SLP":1016.2, "VISIB":13.8, "WDSP":12.8, "PRCP":0.05, "SNDP":0.0, "FRSHTT":"010000", "CLDC":51.0, "WNDDIR":153},{ "STN":838270,"DATE":"2022-05-20", "TIME":"05:51:46", "TEMP":7.0, "DEWP":3.2, "STP":987.1, "SLP":1015.2, "VISIB":10.4, "WDSP":10.1, "PRCP":0.09, "SNDP":0.0, "FRSHTT":"010000", "CLDC":51.5, "WNDDIR":186},{ "STN":23190,"DATE":"2022-05-20", "TIME":"05:51:46", "TEMP":4.8, "DEWP":3.4, "STP":1006.8, "SLP":1006.7, "VISIB":31.0, "WDSP":8.7, "PRCP":0.00, "SNDP":0.0, "FRSHTT":"000000", "CLDC":96.7, "WNDDIR":270},{ "STN":38860,"DATE":"2022-05-20", "TIME":"05:51:46", "TEMP":6.8, "DEWP":4.9, "STP":1013.4, "SLP":1015.1, "VISIB":12.3, "WDSP":29.5, "PRCP":0.01, "SNDP":0.0, "FRSHTT":"010000", "CLDC":51.3, "WNDDIR":255},{ "STN":23170,"DATE":"2022-05-20", "TIME":"05:51:46", "TEMP":4.9, "DEWP":3.7, "STP":985.7, "SLP":1023.6, "VISIB":25.2, "WDSP":12.7, "PRCP":0.02, "SNDP":0.0, "FRSHTT":"010000", "CLDC":50.2, "WNDDIR":273},{ "STN":766790,"DATE":"2022-05-20", "TIME":"05:51:46", "TEMP":11.5, "DEWP":1.6, "STP":780.3, "SLP":1011.1, "VISIB":9.6, "WDSP":11.1, "PRCP":0.05, "SNDP":0.0, "FRSHTT":"010000", "CLDC":50.1, "WNDDIR":213},{ "STN":766793,"DATE":"2022-05-20", "TIME":"05:51:46", "TEMP":11.0, "DEWP":-1.9, "STP":998.0, "SLP":1006.1, "VISIB":9.2, "WDSP":15.5, "PRCP":0.00, "SNDP":0.0, "FRSHTT":"000000", "CLDC":46.1, "WNDDIR":2},{ "STN":23210,"DATE":"2022-05-20", "TIME":"05:51:46", "TEMP":-3.6, "DEWP":-9.6, "STP":982.6, "SLP":1012.3, "VISIB":43.1, "WDSP":8.6, "PRCP":0.00, "SNDP":0.0, "FRSHTT":"100000", "CLDC":20.6, "WNDDIR":47},{ "STN":318450,"DATE":"2022-05-20", "TIME":"05:51:46", "TEMP":3.8, "DEWP":2.8, "STP":986.9, "SLP":1001.9, "VISIB":18.6, "WDSP":7.9, "PRCP":0.00, "SNDP":0.0, "FRSHTT":"000000", "CLDC":18.5, "WNDDIR":180},{ "STN":405690,"DATE":"2022-05-20", "TIME":"05:51:46", "TEMP":11.8, "DEWP":-5.1, "STP":1006.2, "SLP":1007.6, "VISIB":10.3, "WDSP":8.6, "PRCP":0.00, "SNDP":0.0, "FRSHTT":"000000", "CLDC":67.8, "WNDDIR":302}]}
,{"WEATHERDATA": [ {"STN":943900,"DATE":"2022-05-20", "TIME":"05:51:46", "TEMP":20.9, "DEWP":16.1, "STP":1002.7, "SLP":1014.3, "VISIB":23.5, "WDSP":22.1, "PRCP":0.01, "SNDP":0.0, "FRSHTT":"010000", "CLDC":51.8, "WNDDIR":81},{ "STN":787920,"DATE":"2022-05-20", "TIME":"05:51:46", "TEMP":17.5, "DEWP":13.1, "STP":1006.3, "SLP":1009.2, "VISIB":11.6, "WDSP":4.5, "PRCP":0.01, "SNDP":0.0, "FRSHTT":"010000", "CLDC":96.5, "WNDDIR":261},{ "STN":766342,"DATE":"2022-05-20", "TIME":"05:51:46", "TEMP":12.0, "DEWP":-0.4, "STP":1005.7, "SLP":1008.7, "VISIB":9.8, "WDSP":6.3, "PRCP":0.00, "SNDP":0.0, "FRSHTT":"000000", "CLDC":10.6, "WNDDIR":141},{ "STN":484780,"DATE":"2022-05-20", "TIME":"05:51:46", "TEMP":21.7, "DEWP":16.6, "STP":1005.5, "SLP":1006.7, "VISIB":11.3, "WDSP":7.9, "PRCP":0.21, "SNDP":0.0, "FRSHTT":"010000", "CLDC":94.8, "WNDDIR":269},{ "STN":837780,"DATE":"2022-05-20", "TIME":"05:51:46", "TEMP":8.2, "DEWP":8.1, "STP":1020.8, "SLP":1017.9, "VISIB":10.4, "WDSP":8.4, "PRCP":0.00, "SNDP":0.0, "FRSHTT":"000000", "CLDC":15.0, "WNDDIR":177},{ "STN":766340,"DATE":"2022-05-20", "TIME":"05:51:46", "TEMP":9.8, "DEWP":1.7, "STP":787.3, "SLP":1008.7, "VISIB":11.0, "WDSP":11.8, "PRCP":0.00, "SNDP":0.0, "FRSHTT":"000000", "CLDC":90.0, "WNDDIR":250},{ "STN":163440,"DATE":"2022-05-20", "TIME":"05:51:46", "TEMP":6.8, "DEWP":-4.1, "STP":933.1, "SLP":937.8, "VISIB":10.7, "WDSP":6.3, "PRCP":0.00, "SNDP":0.0, "FRSHTT":"000000", "CLDC":42.3, "WNDDIR":245},{ "STN":364280,"DATE":"2022-05-20", "TIME":"05:51:46", "TEMP":7.1, "DEWP":-1.0, "STP":1001.2, "SLP":1014.2, "VISIB":21.1, "WDSP":15.1, "PRCP":0.02, "SNDP":0.0, "FRSHTT":"010000", "CLDC":86.8, "WNDDIR":150},{ "STN":961090,"DATE":"2022-05-20", "TIME":"05:51:46", "TEMP":18.3, "DEWP":15.6, "STP":1042.5, "SLP":1007.3, "VISIB":9.6, "WDSP":7.3, "PRCP":0.00, "SNDP":0.0, "FRSHTT":"000000", "CLDC":28.1, "WNDDIR":17},{ "STN":22610,"DATE":"2022-05-20", "TIME":"05:51:46", "TEMP":-1.1, "DEWP":-3.6, "STP":986.9, "SLP":1013.2, "VISIB":37.8, "WDSP":7.5, "PRCP":0.01, "SNDP":0.0, "FRSHTT":"110000", "CLDC":50.1, "WNDDIR":41}]}
,{"WEATHERDATA": [ {"STN":726426,"DATE":"2022-05-20", "TIME":"05:51:46", "TEMP":4.0, "DEWP":-3.8, "STP":1010.3, "SLP":1015.1, "VISIB":17.3, "WDSP":17.6, "PRCP":0.00, "SNDP":0.0, "FRSHTT":"000000", "CLDC":63.5, "WNDDIR":172},{ "STN":967430,"DATE":"2022-05-20", "TIME":"05:51:46", "TEMP":22.1, "DEWP":17.7, "STP":1019.1, "SLP":1009.1, "VISIB":11.9, "WDSP":10.9, "PRCP":0.01, "SNDP":0.0, "FRSHTT":"010000", "CLDC":50.3, "WNDDIR":189},{ "STN":726430,"DATE":"2022-05-20", "TIME":"05:51:46", "TEMP":9.8, "DEWP":1.6, "STP":997.3, "SLP":1015.3, "VISIB":20.9, "WDSP":12.4, "PRCP":0.06, "SNDP":0.0, "FRSHTT":"010000", "CLDC":87.1, "WNDDIR":209},{ "STN":726417,"DATE":"2022-05-20", "TIME":"05:51:46", "TEMP":4.9, "DEWP":-1.1, "STP":993.7, "SLP":987.1, "VISIB":14.1, "WDSP":8.8, "PRCP":0.00, "SNDP":0.0, "FRSHTT":"000000", "CLDC":0.6, "WNDDIR":213},{ "STN":726416,"DATE":"2022-05-20", "TIME":"05:51:46", "TEMP":9.7, "DEWP":0.7, "STP":1005.8, "SLP":1004.5, "VISIB":13.6, "WDSP":10.9, "PRCP":0.03, "SNDP":0.0, "FRSHTT":"010000", "CLDC":50.6, "WNDDIR":171},{ "STN":655070,"DATE":"2022-05-20", "TIME":"05:51:46", "TEMP":27.2, "DEWP":12.6, "STP":1022.2, "SLP":1006.5, "VISIB":18.4, "WDSP":9.7, "PRCP":0.00, "SNDP":0.0, "FRSHTT":"000000", "CLDC":12.5, "WNDDIR":301},{ "STN":726419,"DATE":"2022-05-20", "TIME":"05:51:46", "TEMP":2.9, "DEWP":-5.4, "STP":1018.2, "SLP":1019.0, "VISIB":15.9, "WDSP":14.0, "PRCP":0.01, "SNDP":0.0, "FRSHTT":"010000", "CLDC":77.4, "WNDDIR":23},{ "STN":726418,"DATE":"2022-05-20", "TIME":"05:51:46", "TEMP":4.4, "DEWP":-0.7, "STP":1013.2, "SLP":1020.8, "VISIB":15.8, "WDSP":13.6, "PRCP":0.00, "SNDP":0.0, "FRSHTT":"000000", "CLDC":57.2, "WNDDIR":306},{ "STN":109480,"DATE":"2022-05-20", "TIME":"05:51:46", "TEMP":5.8, "DEWP":-2.4, "STP":963.9, "SLP":963.9, "VISIB":33.1, "WDSP":4.9, "PRCP":0.03, "SNDP":0.0, "FRSHTT":"010000", "CLDC":50.7, "WNDDIR":44},{ "STN":109460,"DATE":"2022-05-20", "TIME":"05:51:46", "TEMP":6.7, "DEWP":0.6, "STP":981.9, "SLP":1014.9, "VISIB":31.8, "WDSP":5.8, "PRCP":0.04, "SNDP":0.0, "FRSHTT":"010000", "CLDC":97.7, "WNDDIR":243}]}
,{"WEATHERDATA": [ {"STN":620530,"DATE":"2022-05-20", "TIME":"05:51:46", "TEMP":14.8, "DEWP":4.6, "STP":1015.8, "SLP":1015.0, "VISIB":20.0, "WDSP":18.6, "PRCP":0.00, "SNDP":0.0, "FRSHTT":"000000", "CLDC":26.4, "WNDDIR":212},{ "STN":761180,"DATE":"2022-05-20", "TIME":"05:51:46", "TEMP":10.8, "DEWP":-11.2, "STP":982.9, "SLP":1006.7, "VISIB":40.0, "WDSP":7.1, "PRCP":0.00, "SNDP":0.0, "FRSHTT":"000000", "CLDC":63.7, "WNDDIR":138},{ "STN":29860,"DATE":"2022-05-20", "TIME":"05:51:46", "TEMP":7.0, "DEWP":2.0, "STP":1018.2, "SLP":1020.0, "VISIB":21.3, "WDSP":18.3, "PRCP":0.01, "SNDP":0.0, "FRSHTT":"010000", "CLDC":53.1, "WNDDIR":35},{ "STN":431920,"DATE":"2022-05-20", "TIME":"05:51:46", "TEMP":17.5, "DEWP":11.7, "STP":1005.1, "SLP":1007.6, "VISIB":7.8, "WDSP":9.3, "PRCP":0.00, "SNDP":0.0, "FRSHTT":"000000", "CLDC":50.3, "WNDDIR":237},{ "STN":126500,"DATE":"2022-05-20", "TIME":"05:51:46", "TEMP":0.7, "DEWP":-2.4, "STP":904.6, "SLP":902.1, "VISIB":27.1, "WDSP":21.4, "PRCP":0.11, "SNDP":8.2, "FRSHTT":"011000", "CLDC":80.3, "WNDDIR":244},{ "STN":294010,"DATE":"2022-05-20", "TIME":"05:51:46", "TEMP":-1.7, "DEWP":-14.7, "STP":1003.1, "SLP":1017.7, "VISIB":46.6, "WDSP":7.8, "PRCP":0.00, "SNDP":0.0, "FRSHTT":"100000", "CLDC":71.4, "WNDDIR":168},{ "STN":741400,"DATE":"2022-05-20", "TIME":"05:51:46", "TEMP":5.1, "DEWP":-7.1, "STP":961.6, "SLP":1010.8, "VISIB":23.6, "WDSP":16.7, "PRCP":0.00, "SNDP":0.0, "FRSHTT":"000000", "CLDC":43.4, "WNDDIR":35},{ "STN":567390,"DATE":"2022-05-20", "TIME":"05:51:46", "TEMP":12.7, "DEWP":8.4, "STP":837.6, "SLP":838.2, "VISIB":24.8, "WDSP":4.7, "PRCP":0.16, "SNDP":0.0, "FRSHTT":"010000", "CLDC":79.8, "WNDDIR":34},{ "STN":726230,"DATE":"2022-05-20", "TIME":"05:51:46", "TEMP":1.2, "DEWP":-3.7, "STP":977.5, "SLP":1011.4, "VISIB":24.9, "WDSP":16.9, "PRCP":0.00, "SNDP":0.0, "FRSHTT":"000000", "CLDC":60.0, "WNDDIR":4},{ "STN":109290,"DATE":"2022-05-20", "TIME":"05:51:46", "TEMP":10.1, "DEWP":2.3, "STP":989.1, "SLP":1014.7, "VISIB":22.6, "WDSP":7.0, "PRCP":0.04, "SNDP":0.0, "FRSHTT":"010000", "CLDC":87.4, "WNDDIR":137}]}
,{"WEATHERDATA": [ {"STN":722091,"DATE":"2022-05-20", "TIME":"05:51:46", "TEMP":15.0, "DEWP":4.8, "STP":1006.5, "SLP":1013.7, "VISIB":16.0, "WDSP":9.9, "PRCP":0.00, "SNDP":0.0, "FRSHTT":"000000", "CLDC":8.8, "WNDDIR":18},{ "STN":722090,"DATE":"2022-05-20", "TIME":"05:51:46", "TEMP":12.7, "DEWP":7.1, "STP":1010.1, "SLP":1016.0, "VISIB":17.4, "WDSP":8.9, "PRCP":0.03, "SNDP":0.0, "FRSHTT":"010000", "CLDC":95.1, "WNDDIR":335},{ "STN":722093,"DATE":"2022-05-20", "TIME":"05:51:46", "TEMP":0.5, "DEWP":-5.3, "STP":1021.7, "SLP":988.8, "VISIB":15.4, "WDSP":18.1, "PRCP":0.00, "SNDP":0.0, "FRSHTT":"000000", "CLDC":74.7, "WNDDIR":163},{ "STN":360200,"DATE":"2022-05-20", "TIME":"05:51:46", "TEMP":6.8, "DEWP":-5.6, "STP":993.9, "SLP":1012.5, "VISIB":29.1, "WDSP":19.0, "PRCP":0.01, "SNDP":0.0, "FRSHTT":"010000", "CLDC":50.7, "WNDDIR":213},{ "STN":722092,"DATE":"2022-05-20", "TIME":"05:51:46", "TEMP":12.6, "DEWP":8.3, "STP":995.4, "SLP":976.0, "VISIB":11.2, "WDSP":6.7, "PRCP":0.00, "SNDP":0.0, "FRSHTT":"000000", "CLDC":69.5, "WNDDIR":125},{ "STN":711400,"DATE":"2022-05-20", "TIME":"05:51:46", "TEMP":4.8, "DEWP":-2.9, "STP":965.5, "SLP":1014.8, "VISIB":22.9, "WDSP":17.8, "PRCP":0.06, "SNDP":0.0, "FRSHTT":"010000", "CLDC":95.1, "WNDDIR":326},{ "STN":722095,"DATE":"2022-05-20", "TIME":"05:51:46", "TEMP":13.1, "DEWP":5.5, "STP":1011.2, "SLP":1010.6, "VISIB":13.5, "WDSP":25.4, "PRCP":0.00, "SNDP":0.0, "FRSHTT":"000000", "CLDC":25.8, "WNDDIR":73},{ "STN":412160,"DATE":"2022-05-20", "TIME":"05:51:46", "TEMP":19.3, "DEWP":6.6, "STP":1005.8, "SLP":1004.7, "VISIB":10.9, "WDSP":12.4, "PRCP":0.00, "SNDP":0.0, "FRSHTT":"000000", "CLDC":72.6, "WNDDIR":322},{ "STN":722094,"DATE":"2022-05-20", "TIME":"05:51:46", "TEMP":16.8, "DEWP":3.0, "STP":985.3, "SLP":991.1, "VISIB":16.3, "WDSP":10.4, "PRCP":0.00, "SNDP":0.0, "FRSHTT":"000000", "CLDC":55.6, "WNDDIR":317},{ "STN":722081,"DATE":"2022-05-20", "TIME":"05:51:46", "TEMP":7.0, "DEWP":-1.7, "STP":995.9, "SLP":1005.7, "VISIB":15.3, "WDSP":21.8, "PRCP":0.00, "SNDP":0.0, "FRSHTT":"000000", "CLDC":96.3, "WNDDIR":341}]}
,{"WEATHERDATA": [ {"STN":704540,"DATE":"2022-05-20", "TIME":"05:51:46", "TEMP":5.7, "DEWP":2.5, "STP":1009.7, "SLP":1009.8, "VISIB":12.8, "WDSP":19.6, "PRCP":0.07, "SNDP":0.0, "FRSHTT":"010000", "CLDC":51.4, "WNDDIR":42},{ "STN":728670,"DATE":"2022-05-20", "TIME":"05:51:46", "TEMP":7.4, "DEWP":-1.6, "STP":976.0, "SLP":1008.3, "VISIB":19.2, "WDSP":20.9, "PRCP":0.00, "SNDP":0.0, "FRSHTT":"000000", "CLDC":23.7, "WNDDIR":166},{ "STN":476040,"DATE":"2022-05-20", "TIME":"05:51:46", "TEMP":7.7, "DEWP":1.6, "STP":1008.8, "SLP":1010.9, "VISIB":14.3, "WDSP":13.6, "PRCP":0.10, "SNDP":0.0, "FRSHTT":"010000", "CLDC":51.5, "WNDDIR":222},{ "STN":728610,"DATE":"2022-05-20", "TIME":"05:51:46", "TEMP":5.3, "DEWP":-7.4, "STP":940.8, "SLP":1010.9, "VISIB":21.4, "WDSP":16.8, "PRCP":0.00, "SNDP":0.0, "FRSHTT":"000000", "CLDC":55.9, "WNDDIR":233},{ "STN":728620,"DATE":"2022-05-20", "TIME":"05:51:46", "TEMP":7.7, "DEWP":-5.0, "STP":944.4, "SLP":1011.2, "VISIB":32.2, "WDSP":19.8, "PRCP":0.00, "SNDP":0.0, "FRSHTT":"000000", "CLDC":51.4, "WNDDIR":309},{ "STN":63440,"DATE":"2022-05-20", "TIME":"05:51:46", "TEMP":8.4, "DEWP":3.4, "STP":1013.1, "SLP":1013.0, "VISIB":11.6, "WDSP":18.5, "PRCP":0.06, "SNDP":0.0, "FRSHTT":"010000", "CLDC":84.2, "WNDDIR":287},{ "STN":476060,"DATE":"2022-05-20", "TIME":"05:51:46", "TEMP":7.5, "DEWP":1.1, "STP":1009.0, "SLP":1010.3, "VISIB":16.5, "WDSP":7.0, "PRCP":0.12, "SNDP":0.0, "FRSHTT":"010000", "CLDC":95.3, "WNDDIR":148},{ "STN":728630,"DATE":"2022-05-20", "TIME":"05:51:46", "TEMP":3.8, "DEWP":-10.3, "STP":945.0, "SLP":1013.2, "VISIB":23.8, "WDSP":21.5, "PRCP":0.00, "SNDP":0.0, "FRSHTT":"000000", "CLDC":69.7, "WNDDIR":97},{ "STN":336210,"DATE":"2022-05-20", "TIME":"05:51:46", "TEMP":6.6, "DEWP":1.4, "STP":998.6, "SLP":1012.6, "VISIB":27.8, "WDSP":9.8, "PRCP":0.73, "SNDP":0.0, "FRSHTT":"010000", "CLDC":51.2, "WNDDIR":14},{ "STN":847520,"DATE":"2022-05-20", "TIME":"05:51:46", "TEMP":6.4, "DEWP":-10.4, "STP":753.8, "SLP":748.3, "VISIB":11.8, "WDSP":14.9, "PRCP":0.00, "SNDP":0.0, "FRSHTT":"000000", "CLDC":96.2, "WNDDIR":54}]}
,{"WEATHERDATA": [ {"STN":276070,"DATE":"2022-05-20", "TIME":"05:51:48", "TEMP":4.6, "DEWP":-5.0, "STP":992.7, "SLP":1010.5, "VISIB":10.9, "WDSP":31.7, "PRCP":0.00, "SNDP":0.0, "FRSHTT":"000000", "CLDC":27.4, "WNDDIR":110},{ "STN":727556,"DATE":"2022-05-20", "TIME":"05:51:48", "TEMP":2.1, "DEWP":-6.3, "STP":994.7, "SLP":996.6, "VISIB":13.4, "WDSP":9.0, "PRCP":0.00, "SNDP":0.0, "FRSHTT":"000000", "CLDC":46.3, "WNDDIR":189},{ "STN":727555,"DATE":"2022-05-20", "TIME":"05:51:48", "TEMP":8.2, "DEWP":-0.3, "STP":1006.9, "SLP":1003.1, "VISIB":21.2, "WDSP":12.7, "PRCP":0.00, "SNDP":0.0, "FRSHTT":"000000", "CLDC":72.3, "WNDDIR":285},{ "STN":291490,"DATE":"2022-05-20", "TIME":"05:51:48", "TEMP":-0.3, "DEWP":-8.8, "STP":1044.6, "SLP":1016.4, "VISIB":44.4, "WDSP":8.2, "PRCP":0.19, "SNDP":0.0, "FRSHTT":"110000", "CLDC":59.8, "WNDDIR":2},{ "STN":387130,"DATE":"2022-05-20", "TIME":"05:51:48", "TEMP":7.6, "DEWP":0.1, "STP":999.7, "SLP":974.3, "VISIB":45.8, "WDSP":7.3, "PRCP":0.01, "SNDP":0.0, "FRSHTT":"010000", "CLDC":50.0, "WNDDIR":295},{ "STN":688280,"DATE":"2022-05-20", "TIME":"05:51:48", "TEMP":10.3, "DEWP":3.1, "STP":994.6, "SLP":1016.1, "VISIB":15.3, "WDSP":10.8, "PRCP":0.08, "SNDP":0.0, "FRSHTT":"010000", "CLDC":50.3, "WNDDIR":230},{ "STN":727576,"DATE":"2022-05-20", "TIME":"05:51:48", "TEMP":7.5, "DEWP":-0.2, "STP":1007.5, "SLP":1014.0, "VISIB":22.9, "WDSP":22.4, "PRCP":0.02, "SNDP":0.0, "FRSHTT":"010000", "CLDC":64.9, "WNDDIR":353},{ "STN":31330,"DATE":"2022-05-20", "TIME":"05:51:48", "TEMP":7.7, "DEWP":5.3, "STP":1015.5, "SLP":1002.3, "VISIB":19.5, "WDSP":5.1, "PRCP":0.00, "SNDP":0.0, "FRSHTT":"000000", "CLDC":0.5, "WNDDIR":271},{ "STN":31340,"DATE":"2022-05-20", "TIME":"05:51:48", "TEMP":3.3, "DEWP":-1.0, "STP":1002.2, "SLP":1009.7, "VISIB":26.8, "WDSP":13.2, "PRCP":0.12, "SNDP":0.0, "FRSHTT":"010000", "CLDC":96.5, "WNDDIR":251},{ "STN":727575,"DATE":"2022-05-20", "TIME":"05:51:48", "TEMP":6.0, "DEWP":-3.1, "STP":999.0, "SLP":1015.4, "VISIB":21.8, "WDSP":15.9, "PRCP":0.01, "SNDP":0.0, "FRSHTT":"010000", "CLDC":51.0, "WNDDIR":259}]}
,{"WEATHERDATA": [ {"STN":478050,"DATE":"2022-05-20", "TIME":"05:51:48", "TEMP":7.3, "DEWP":4.3, "STP":1004.4, "SLP":1011.3, "VISIB":12.5, "WDSP":9.2, "PRCP":0.42, "SNDP":0.0, "FRSHTT":"010000", "CLDC":73.5, "WNDDIR":351},{ "STN":654720,"DATE":"2022-05-20", "TIME":"05:51:48", "TEMP":25.3, "DEWP":19.4, "STP":983.2, "SLP":1011.9, "VISIB":159.2, "WDSP":11.5, "PRCP":0.00, "SNDP":0.0, "FRSHTT":"000000", "CLDC":79.5, "WNDDIR":337},{ "STN":126000,"DATE":"2022-05-20", "TIME":"05:51:48", "TEMP":7.5, "DEWP":1.3, "STP":993.2, "SLP":1016.5, "VISIB":20.7, "WDSP":15.1, "PRCP":0.05, "SNDP":0.0, "FRSHTT":"010000", "CLDC":50.3, "WNDDIR":350},{ "STN":726720,"DATE":"2022-05-20", "TIME":"05:51:48", "TEMP":11.3, "DEWP":-8.1, "STP":1005.4, "SLP":1008.8, "VISIB":16.1, "WDSP":4.4, "PRCP":0.00, "SNDP":0.0, "FRSHTT":"000000", "CLDC":24.2, "WNDDIR":137},{ "STN":741895,"DATE":"2022-05-20", "TIME":"05:51:48", "TEMP":2.9, "DEWP":2.9, "STP":995.6, "SLP":1010.6, "VISIB":9.4, "WDSP":26.1, "PRCP":0.00, "SNDP":0.0, "FRSHTT":"000000", "CLDC":67.7, "WNDDIR":2},{ "STN":171400,"DATE":"2022-05-20", "TIME":"05:51:48", "TEMP":5.8, "DEWP":-12.0, "STP":868.3, "SLP":896.5, "VISIB":16.4, "WDSP":5.0, "PRCP":0.00, "SNDP":0.0, "FRSHTT":"000000", "CLDC":29.4, "WNDDIR":269},{ "STN":567860,"DATE":"2022-05-20", "TIME":"05:51:48", "TEMP":11.4, "DEWP":4.9, "STP":825.1, "SLP":823.7, "VISIB":19.7, "WDSP":12.5, "PRCP":0.12, "SNDP":0.0, "FRSHTT":"010000", "CLDC":58.4, "WNDDIR":9},{ "STN":742010,"DATE":"2022-05-20", "TIME":"05:51:48", "TEMP":11.0, "DEWP":6.5, "STP":1017.9, "SLP":1019.8, "VISIB":26.1, "WDSP":20.6, "PRCP":0.05, "SNDP":0.0, "FRSHTT":"010000", "CLDC":51.7, "WNDDIR":66},{ "STN":338387,"DATE":"2022-05-20", "TIME":"05:51:48", "TEMP":10.7, "DEWP":2.3, "STP":997.6, "SLP":988.9, "VISIB":11.8, "WDSP":10.1, "PRCP":0.00, "SNDP":0.0, "FRSHTT":"000000", "CLDC":16.4, "WNDDIR":123},{ "STN":108680,"DATE":"2022-05-20", "TIME":"05:51:48", "TEMP":1.1, "DEWP":-10.3, "STP":1024.3, "SLP":1023.4, "VISIB":15.3, "WDSP":9.8, "PRCP":0.00, "SNDP":0.0, "FRSHTT":"000000", "CLDC":26.5, "WNDDIR":124}]}
,{"WEATHERDATA": [ {"STN":486740,"DATE":"2022-05-20", "TIME":"05:51:48", "TEMP":19.0, "DEWP":13.5, "STP":1028.0, "SLP":1007.3, "VISIB":45.9, "WDSP":8.9, "PRCP":0.00, "SNDP":0.0, "FRSHTT":"000000", "CLDC":33.3, "WNDDIR":148},{ "STN":408210,"DATE":"2022-05-20", "TIME":"05:51:48", "TEMP":15.3, "DEWP":-14.1, "STP":872.7, "SLP":1002.8, "VISIB":5.8, "WDSP":14.5, "PRCP":0.00, "SNDP":0.0, "FRSHTT":"000000", "CLDC":2.2, "WNDDIR":353},{ "STN":785830,"DATE":"2022-05-20", "TIME":"05:51:48", "TEMP":19.2, "DEWP":13.6, "STP":1010.1, "SLP":1012.0, "VISIB":13.2, "WDSP":11.5, "PRCP":0.26, "SNDP":0.0, "FRSHTT":"010000", "CLDC":77.9, "WNDDIR":308},{ "STN":82840,"DATE":"2022-05-20", "TIME":"05:51:48", "TEMP":13.0, "DEWP":5.3, "STP":1012.9, "SLP":1016.5, "VISIB":9.8, "WDSP":13.2, "PRCP":0.02, "SNDP":0.0, "FRSHTT":"010000", "CLDC":68.7, "WNDDIR":324},{ "STN":789820,"DATE":"2022-05-20", "TIME":"05:51:48", "TEMP":18.9, "DEWP":13.6, "STP":1010.1, "SLP":1011.3, "VISIB":22.6, "WDSP":29.1, "PRCP":0.00, "SNDP":0.0, "FRSHTT":"000000", "CLDC":25.8, "WNDDIR":267},{ "STN":540960,"DATE":"2022-05-20", "TIME":"05:51:48", "TEMP":3.9, "DEWP":-4.9, "STP":1006.7, "SLP":1007.5, "VISIB":18.3, "WDSP":12.1, "PRCP":0.07, "SNDP":0.0, "FRSHTT":"010000", "CLDC":92.2, "WNDDIR":195},{ "STN":257050,"DATE":"2022-05-20", "TIME":"05:51:48", "TEMP":-0.8, "DEWP":-10.6, "STP":996.4, "SLP":1014.4, "VISIB":19.6, "WDSP":7.4, "PRCP":0.00, "SNDP":0.0, "FRSHTT":"100000", "CLDC":23.8, "WNDDIR":220},{ "STN":664470,"DATE":"2022-05-20", "TIME":"05:51:48", "TEMP":7.0, "DEWP":-5.3, "STP":1002.4, "SLP":985.9, "VISIB":54.2, "WDSP":7.9, "PRCP":0.00, "SNDP":0.0, "FRSHTT":"000000", "CLDC":51.2, "WNDDIR":72},{ "STN":610910,"DATE":"2022-05-20", "TIME":"05:51:48", "TEMP":26.7, "DEWP":10.0, "STP":1017.2, "SLP":1011.5, "VISIB":18.0, "WDSP":16.2, "PRCP":0.00, "SNDP":0.0, "FRSHTT":"000000", "CLDC":67.6, "WNDDIR":52},{ "STN":222690,"DATE":"2022-05-20", "TIME":"05:51:48", "TEMP":-0.3, "DEWP":-3.5, "STP":1017.5, "SLP":1019.4, "VISIB":18.9, "WDSP":17.1, "PRCP":0.00, "SNDP":0.0, "FRSHTT":"100000", "CLDC":21.8, "WNDDIR":299}]}
,{"WEATHERDATA": [ {"STN":37170,"DATE":"2022-05-20", "TIME":"05:51:48", "TEMP":10.4, "DEWP":4.5, "STP":1026.2, "SLP":1017.7, "VISIB":18.4, "WDSP":13.9, "PRCP":0.02, "SNDP":0.0, "FRSHTT":"010000", "CLDC":50.5, "WNDDIR":121},{ "STN":483750,"DATE":"2022-05-20", "TIME":"05:51:48", "TEMP":20.5, "DEWP":14.6, "STP":991.2, "SLP":1005.3, "VISIB":9.3, "WDSP":6.9, "PRCP":0.17, "SNDP":0.0, "FRSHTT":"010000", "CLDC":58.2, "WNDDIR":96},{ "STN":283820,"DATE":"2022-05-20", "TIME":"05:51:48", "TEMP":3.6, "DEWP":-3.0, "STP":1005.7, "SLP":1011.3, "VISIB":33.7, "WDSP":15.2, "PRCP":0.06, "SNDP":0.0, "FRSHTT":"010000", "CLDC":50.5, "WNDDIR":268},{ "STN":518180,"DATE":"2022-05-20", "TIME":"05:51:48", "TEMP":14.0, "DEWP":-3.3, "STP":960.6, "SLP":1006.7, "VISIB":16.4, "WDSP":6.4, "PRCP":0.01, "SNDP":0.0, "FRSHTT":"010000", "CLDC":67.6, "WNDDIR":352},{ "STN":37160,"DATE":"2022-05-20", "TIME":"05:51:48", "TEMP":1.4, "DEWP":-2.7, "STP":1006.1, "SLP":1013.2, "VISIB":14.0, "WDSP":20.0, "PRCP":0.12, "SNDP":0.0, "FRSHTT":"010000", "CLDC":62.7, "WNDDIR":62},{ "STN":483770,"DATE":"2022-05-20", "TIME":"05:51:48", "TEMP":19.8, "DEWP":9.4, "STP":985.2, "SLP":1003.3, "VISIB":11.1, "WDSP":4.8, "PRCP":0.22, "SNDP":0.0, "FRSHTT":"010000", "CLDC":50.3, "WNDDIR":334},{ "STN":767383,"DATE":"2022-05-20", "TIME":"05:51:48", "TEMP":21.8, "DEWP":17.5, "STP":1013.8, "SLP":1004.8, "VISIB":10.8, "WDSP":16.0, "PRCP":0.39, "SNDP":0.0, "FRSHTT":"010000", "CLDC":50.7, "WNDDIR":149},{ "STN":283830,"DATE":"2022-05-20", "TIME":"05:51:48", "TEMP":1.9, "DEWP":-3.3, "STP":1003.6, "SLP":1012.4, "VISIB":21.8, "WDSP":12.6, "PRCP":0.03, "SNDP":0.0, "FRSHTT":"010000", "CLDC":95.7, "WNDDIR":302},{ "STN":804100,"DATE":"2022-05-20", "TIME":"05:51:48", "TEMP":13.7, "DEWP":6.7, "STP":943.5, "SLP":970.7, "VISIB":13.8, "WDSP":15.0, "PRCP":0.02, "SNDP":0.0, "FRSHTT":"010000", "CLDC":50.6, "WNDDIR":81},{ "STN":23660,"DATE":"2022-05-20", "TIME":"05:51:48", "TEMP":2.4, "DEWP":-4.5, "STP":1015.6, "SLP":1015.4, "VISIB":36.8, "WDSP":8.7, "PRCP":0.01, "SNDP":0.0, "FRSHTT":"010000", "CLDC":50.3, "WNDDIR":214}]}
,{"WEATHERDATA": [ {"STN":100040,"DATE":"2022-05-20", "TIME":"05:51:48", "TEMP":8.8, "DEWP":6.7, "STP":993.1, "SLP":1015.3, "VISIB":16.8, "WDSP":34.3, "PRCP":0.00, "SNDP":0.0, "FRSHTT":"000000", "CLDC":26.1, "WNDDIR":224},{ "STN":22670,"DATE":"2022-05-20", "TIME":"05:51:48", "TEMP":3.1, "DEWP":-5.8, "STP":999.6, "SLP":996.3, "VISIB":11.3, "WDSP":15.8, "PRCP":0.00, "SNDP":0.0, "FRSHTT":"000000", "CLDC":90.7, "WNDDIR":120},{ "STN":527870,"DATE":"2022-05-20", "TIME":"05:51:48", "TEMP":1.4, "DEWP":-8.9, "STP":750.1, "SLP":750.5, "VISIB":24.8, "WDSP":18.3, "PRCP":0.08, "SNDP":0.0, "FRSHTT":"010000", "CLDC":86.6, "WNDDIR":214},{ "STN":237760,"DATE":"2022-05-20", "TIME":"05:51:48", "TEMP":0.1, "DEWP":-6.1, "STP":994.2, "SLP":1018.7, "VISIB":31.6, "WDSP":9.3, "PRCP":0.00, "SNDP":0.0, "FRSHTT":"000000", "CLDC":16.9, "WNDDIR":315},{ "STN":115200,"DATE":"2022-05-20", "TIME":"05:51:48", "TEMP":9.0, "DEWP":1.3, "STP":993.7, "SLP":1015.1, "VISIB":21.0, "WDSP":10.2, "PRCP":0.08, "SNDP":0.0, "FRSHTT":"010000", "CLDC":71.8, "WNDDIR":88},{ "STN":467350,"DATE":"2022-05-20", "TIME":"05:51:48", "TEMP":18.7, "DEWP":15.0, "STP":1003.8, "SLP":1009.3, "VISIB":14.8, "WDSP":12.9, "PRCP":0.00, "SNDP":0.0, "FRSHTT":"000000", "CLDC":70.5, "WNDDIR":226},{ "STN":38340,"DATE":"2022-05-20", "TIME":"05:51:48", "TEMP":7.7, "DEWP":6.9, "STP":1001.0, "SLP":996.8, "VISIB":17.7, "WDSP":42.1, "PRCP":0.00, "SNDP":0.0, "FRSHTT":"000000", "CLDC":47.2, "WNDDIR":219},{ "STN":84870,"DATE":"2022-05-20", "TIME":"05:51:48", "TEMP":15.3, "DEWP":7.7, "STP":1014.3, "SLP":1015.1, "VISIB":11.8, "WDSP":13.2, "PRCP":0.02, "SNDP":0.0, "FRSHTT":"010000", "CLDC":64.6, "WNDDIR":87},{ "STN":822440,"DATE":"2022-05-20", "TIME":"05:51:48", "TEMP":14.0, "DEWP":11.1, "STP":1004.9, "SLP":1005.8, "VISIB":12.5, "WDSP":9.7, "PRCP":0.01, "SNDP":0.0, "FRSHTT":"010000", "CLDC":93.0, "WNDDIR":263},{ "STN":944030,"DATE":"2022-05-20", "TIME":"05:51:48", "TEMP":6.1, "DEWP":0.0, "STP":1013.6, "SLP":1016.4, "VISIB":32.0, "WDSP":14.3, "PRCP":0.02, "SNDP":0.0, "FRSHTT":"010000", "CLDC":51.8, "WNDDIR":253}]}
,{"WEATHERDATA": [ {"STN":724721,"DATE":"2022-05-20", "TIME":"05:51:48", "TEMP":4.3, "DEWP":-12.9, "STP":988.9, "SLP":1011.8, "VISIB":62.5, "WDSP":14.3, "PRCP":0.00, "SNDP":0.0, "FRSHTT":"000000", "CLDC":33.3, "WNDDIR":129},{ "STN":429340,"DATE":"2022-05-20", "TIME":"05:51:48", "TEMP":21.8, "DEWP":8.0, "STP":1033.3, "SLP":1000.4, "VISIB":13.5, "WDSP":15.6, "PRCP":0.00, "SNDP":0.0, "FRSHTT":"000000", "CLDC":14.5, "WNDDIR":23},{ "STN":306030,"DATE":"2022-05-20", "TIME":"05:51:48", "TEMP":2.1, "DEWP":-10.4, "STP":980.6, "SLP":1011.8, "VISIB":18.1, "WDSP":7.6, "PRCP":0.00, "SNDP":0.0, "FRSHTT":"000000", "CLDC":5.3, "WNDDIR":200},{ "STN":569860,"DATE":"2022-05-20", "TIME":"05:51:48", "TEMP":12.5, "DEWP":9.0, "STP":1016.8, "SLP":1002.4, "VISIB":22.1, "WDSP":8.9, "PRCP":0.00, "SNDP":0.0, "FRSHTT":"000000", "CLDC":44.9, "WNDDIR":333},{ "STN":724620,"DATE":"2022-05-20", "TIME":"05:51:48", "TEMP":3.8, "DEWP":-8.6, "STP":809.7, "SLP":1013.0, "VISIB":41.6, "WDSP":16.9, "PRCP":0.01, "SNDP":0.0, "FRSHTT":"010000", "CLDC":58.7, "WNDDIR":31},{ "STN":165310,"DATE":"2022-05-20", "TIME":"05:51:48", "TEMP":12.3, "DEWP":6.6, "STP":1006.9, "SLP":1002.4, "VISIB":9.7, "WDSP":11.9, "PRCP":0.00, "SNDP":0.0, "FRSHTT":"000000", "CLDC":97.1, "WNDDIR":94},{ "STN":128120,"DATE":"2022-05-20", "TIME":"05:51:48", "TEMP":9.4, "DEWP":4.8, "STP":997.7, "SLP":1014.7, "VISIB":19.8, "WDSP":12.8, "PRCP":0.10, "SNDP":0.0, "FRSHTT":"010000", "CLDC":50.2, "WNDDIR":61},{ "STN":600200,"DATE":"2022-05-20", "TIME":"05:51:48", "TEMP":17.3, "DEWP":10.3, "STP":1021.4, "SLP":1018.4, "VISIB":25.9, "WDSP":11.7, "PRCP":0.00, "SNDP":0.0, "FRSHTT":"000000", "CLDC":71.7, "WNDDIR":207},{ "STN":600214,"DATE":"2022-05-20", "TIME":"05:51:48", "TEMP":15.5, "DEWP":9.5, "STP":974.4, "SLP":1004.3, "VISIB":9.7, "WDSP":27.1, "PRCP":0.00, "SNDP":0.0, "FRSHTT":"000000", "CLDC":96.0, "WNDDIR":56},{ "STN":724635,"DATE":"2022-05-20", "TIME":"05:51:48", "TEMP":10.5, "DEWP":-2.3, "STP":1008.1, "SLP":1010.7, "VISIB":38.8, "WDSP":20.2, "PRCP":0.08, "SNDP":0.0, "FRSHTT":"010000", "CLDC":50.9, "WNDDIR":90}]}]